{
  "features" : [
    {
      "type" : "Feature",
      "properties" : {
        "timestamp" : "2026-09-29T16:12:48Z",
        "rating" : 0,
        "arrival" : "2026-09-29T16:12:48Z",
        "type" : "visit",
        "address" : "A838, Sangomore, Durness, Lairg, IV27, Schottland",
        "departure" : "2026-09-30T05:49:01Z",
        "weather" : "Bedeckter Himmel (14,5 °C)",
        "device" : "B9E47AEB-E54C-4563-96B6-06995DD4BC56 (iPhone 16 Pro)",
        "source" : "Geory 5.3.2",
        "duration" : 48972.439154624939
      },
      "geometry" : {
        "coordinates" : [
          -4.7425054259787576,
          58.569331694909039
        ],
        "type" : "Point"
      }
    },
    {
      "properties" : {
        "device" : "B9E47AEB-E54C-4563-96B6-06995DD4BC56 (iPhone 16 Pro)",
        "rating" : 0,
        "arrival" : "2026-09-30T05:50:01Z",
        "departure" : "2026-09-30T10:48:03Z",
        "source" : "Geory 5.3.2",
        "address" : "A838, Sangomore, Durness, Lairg, IV27, Schottland",
        "weather" : "Bedeckter Himmel (15,5 °C)",
        "timestamp" : "2026-09-30T05:50:01Z",
        "type" : "visit",
        "duration" : 17882.223474979401
      },
      "geometry" : {
        "type" : "Point",
        "coordinates" : [
          -4.7419150037997317,
          58.569451409113832
        ]
      },
      "type" : "Feature"
    },
    {
      "type" : "Feature",
      "geometry" : {
        "type" : "Point",
        "coordinates" : [
          -4.7371419197611928,
          58.56822105238917
        ]
      },
      "properties" : {
        "timestamp" : "2026-09-30T10:48:25Z",
        "address" : "Sango Bay, Schottland",
        "departure" : "2026-09-30T13:03:24Z",
        "rating" : 0,
        "source" : "Geory 5.3.2",
        "type" : "visit",
        "duration" : 8099.8519580364227,
        "arrival" : "2026-09-30T10:48:25Z",
        "device" : "B9E47AEB-E54C-4563-96B6-06995DD4BC56 (iPhone 16 Pro)",
        "weather" : "Bedeckter Himmel (16,4 °C)"
      }
    },
    {
      "geometry" : {
        "type" : "Point",
        "coordinates" : [
          -4.7396637217075588,
          58.569280282491142
        ]
      },
      "properties" : {
        "timestamp" : "2026-09-30T13:13:46Z",
        "departure" : "2026-09-30T13:59:11Z",
        "arrival" : "2026-09-30T13:13:46Z",
        "weather" : "Klarer Himmel (17,1 °C)",
        "rating" : 0,
        "type" : "visit",
        "address" : "Durness Beach, Lairg, IV27, Schottland",
        "device" : "B9E47AEB-E54C-4563-96B6-06995DD4BC56 (iPhone 16 Pro)",
        "source" : "Geory 5.3.2",
        "duration" : 2725.4169673919678
      },
      "type" : "Feature"
    },
    {
      "type" : "Feature",
      "geometry" : {
        "coordinates" : [
          -4.7420030073856454,
          58.569431129162261
        ],
        "type" : "Point"
      },
      "properties" : {
        "departure" : "2026-09-30T17:46:00Z",
        "arrival" : "2026-09-30T13:59:32Z",
        "rating" : 0,
        "device" : "B9E47AEB-E54C-4563-96B6-06995DD4BC56 (iPhone 16 Pro)",
        "source" : "Geory 5.3.2",
        "duration" : 13587.945023775101,
        "type" : "visit",
        "timestamp" : "2026-09-30T13:59:32Z",
        "address" : "A838, Sangomore, Durness, Lairg, IV27, Schottland",
        "weather" : "Klarer Himmel (17,7 °C)"
      }
    },
    {
      "geometry" : {
        "coordinates" : [
          -4.7404541489635967,
          58.569030078408296
        ],
        "type" : "Point"
      },
      "properties" : {
        "weather" : "Klarer Himmel (16,2 °C)",
        "arrival" : "2026-09-30T17:46:05Z",
        "type" : "visit",
        "departure" : "2026-09-30T21:38:34Z",
        "duration" : 13949.506124973297,
        "timestamp" : "2026-09-30T17:46:05Z",
        "rating" : 0,
        "source" : "Geory 5.3.2",
        "address" : "A838, Sangomore, Durness, Lairg, IV27, Schottland",
        "device" : "B9E47AEB-E54C-4563-96B6-06995DD4BC56 (iPhone 16 Pro)"
      },
      "type" : "Feature"
    },
    {
      "type" : "Feature",
      "geometry" : {
        "coordinates" : [
          -4.7418176745743787,
          58.569465008229265
        ],
        "type" : "Point"
      },
      "properties" : {
        "source" : "Geory 5.3.2",
        "type" : "visit",
        "device" : "B9E47AEB-E54C-4563-96B6-06995DD4BC56 (iPhone 16 Pro)",
        "address" : "A838, Sangomore, Durness, Lairg, IV27, Schottland",
        "departure" : "2026-10-01T01:55:13Z",
        "arrival" : "2026-09-30T21:44:00Z",
        "timestamp" : "2026-09-30T21:44:00Z",
        "weather" : "Klarer Himmel (14,1 °C)",
        "duration" : 15073.309359073639,
        "rating" : 0
      }
    },
    {
      "type" : "Feature",
      "properties" : {
        "type" : "route",
        "source" : "Geory 5.3.2",
        "end" : "2026-09-30T22:59:59Z",
        "device" : "B9E47AEB-E54C-4563-96B6-06995DD4BC56 (iPhone 16 Pro)",
        "start" : "2026-09-29T23:00:00Z"
      },
      "geometry" : {
        "type" : "LineString",
        "coordinates" : [
          [
            -4.7418176745743787,
            58.569465008229265
          ],
          [
            -4.7455380243631282,
            58.568719400725683
          ],
          [
            -4.7404541489635967,
            58.569030078408296
          ],
          [
            -4.7420030073856454,
            58.569431129162261
          ],
          [
            -4.7396637217075588,
            58.569280282491142
          ],
          [
            -4.7432795982303597,
            58.569496921142502
          ],
          [
            -4.7432780854897025,
            58.569582064653254
          ],
          [
            -4.7432780854897025,
            58.569582064653254
          ],
          [
            -4.7409581534343719,
            58.569048345721498
          ],
          [
            -4.7409581534343719,
            58.569048345721498
          ],
          [
            -4.7371419197611928,
            58.56822105238917
          ],
          [
            -4.7419150037997317,
            58.569451409113832
          ],
          [
            -4.7425054259787576,
            58.569331694909039
          ]
        ]
      }
    }
  ],
  "type" : "FeatureCollection"
}