{
  "features" : [
    {
      "properties" : {
        "device" : "B9E47AEB-E54C-4563-96B6-06995DD4BC56 (iPhone 16 Pro)",
        "duration" : 67086.999829053879,
        "weather" : "Bedeckter Himmel (12,9 °C)",
        "type" : "visit",
        "arrival" : "2026-05-14T15:55:04Z",
        "address" : "Nursery Cottage, Benmore, Dunoon, PA23 8QU, Schottland",
        "departure" : "2026-05-15T10:33:11Z",
        "timestamp" : "2026-05-14T15:55:04Z",
        "rating" : 0,
        "source" : "Geory 5.3.2"
      },
      "geometry" : {
        "coordinates" : [
          -4.9749087285744187,
          56.016304907242393
        ],
        "type" : "Point"
      },
      "type" : "Feature"
    },
    {
      "type" : "Feature",
      "geometry" : {
        "type" : "Point",
        "coordinates" : [
          -5.0720597926205473,
          56.230980770966809
        ]
      },
      "properties" : {
        "address" : "3A Front Street, PA32 8UY, Schottland",
        "departure" : "2026-05-15T13:27:59Z",
        "type" : "visit",
        "timestamp" : "2026-05-15T11:42:32Z",
        "source" : "Geory 5.3.2",
        "device" : "B9E47AEB-E54C-4563-96B6-06995DD4BC56 (iPhone 16 Pro)",
        "weather" : "Überwiegend bewölkt (11,1 °C)",
        "duration" : 6327.9992213249207,
        "rating" : 0,
        "arrival" : "2026-05-15T11:42:32Z"
      }
    },
    {
      "type" : "Feature",
      "geometry" : {
        "coordinates" : [
          -5.0764885256706309,
          56.228448614827023
        ],
        "type" : "Point"
      },
      "properties" : {
        "device" : "B9E47AEB-E54C-4563-96B6-06995DD4BC56 (iPhone 16 Pro)",
        "arrival" : "2026-05-15T13:28:00Z",
        "timestamp" : "2026-05-15T13:28:00Z",
        "duration" : 1238.2872595787048,
        "address" : "The Avenue, Inveraray, PA32, Schottland",
        "weather" : "Bedeckter Himmel (11,8 °C)",
        "rating" : 0,
        "source" : "Geory 5.3.2",
        "type" : "visit",
        "departure" : "2026-05-15T13:48:39Z"
      }
    },
    {
      "geometry" : {
        "coordinates" : [
          -5.4413258650472818,
          56.043975325609459
        ],
        "type" : "Point"
      },
      "type" : "Feature",
      "properties" : {
        "device" : "B9E47AEB-E54C-4563-96B6-06995DD4BC56 (iPhone 16 Pro)",
        "type" : "visit",
        "duration" : 931.69642972946167,
        "weather" : "Bedeckter Himmel (10,4 °C)",
        "arrival" : "2026-05-15T14:26:39Z",
        "address" : "Riverside Rascals Nursery, Lochgilphead, PA31 8NG, Schottland",
        "departure" : "2026-05-15T14:42:10Z",
        "timestamp" : "2026-05-15T14:26:39Z",
        "rating" : 0,
        "source" : "Geory 5.3.2"
      }
    },
    {
      "geometry" : {
        "type" : "Point",
        "coordinates" : [
          -5.66818255599516,
          55.657464816383843
        ]
      },
      "type" : "Feature",
      "properties" : {
        "arrival" : "2026-05-15T15:33:23Z",
        "address" : "Ferry Road, Tayinloan, Tarbert, PA29, Schottland",
        "type" : "visit",
        "rating" : 0,
        "departure" : "2026-05-15T16:13:13Z",
        "source" : "Geory 5.3.2",
        "duration" : 2390.0019309520721,
        "device" : "B9E47AEB-E54C-4563-96B6-06995DD4BC56 (iPhone 16 Pro)",
        "weather" : "Aufgelockert bewölkt (10,0 °C)",
        "timestamp" : "2026-05-15T15:33:23Z"
      }
    },
    {
      "type" : "Feature",
      "geometry" : {
        "type" : "Point",
        "coordinates" : [
          -5.7090626570268954,
          55.556718975498285
        ]
      },
      "properties" : {
        "type" : "visit",
        "duration" : 9494.6925849914551,
        "arrival" : "2026-05-15T16:25:32Z",
        "timestamp" : "2026-05-15T16:25:32Z",
        "weather" : "Leicht bewölkt (8,8 °C)",
        "rating" : 0,
        "source" : "Geory 5.3.2",
        "address" : "Tarbert, PA29, Schottland",
        "departure" : "2026-05-15T19:03:46Z",
        "device" : "B9E47AEB-E54C-4563-96B6-06995DD4BC56 (iPhone 16 Pro)"
      }
    },
    {
      "type" : "Feature",
      "properties" : {
        "weather" : "Klarer Himmel (8,4 °C)",
        "arrival" : "2026-05-15T19:30:09Z",
        "source" : "Geory 5.3.2",
        "timestamp" : "2026-05-15T19:30:09Z",
        "device" : "B9E47AEB-E54C-4563-96B6-06995DD4BC56 (iPhone 16 Pro)",
        "address" : "Tarbert, PA29, Schottland",
        "rating" : 0,
        "type" : "visit",
        "departure" : "2026-05-16T08:40:53Z",
        "duration" : 47443.999419927597
      },
      "geometry" : {
        "coordinates" : [
          -5.7090279233951566,
          55.556724935783905
        ],
        "type" : "Point"
      }
    },
    {
      "geometry" : {
        "type" : "LineString",
        "coordinates" : [
          [
            -5.7090279233951566,
            55.556724935783905
          ],
          [
            -5.7086719492769911,
            55.556265129046096
          ],
          [
            -5.708455582494385,
            55.555368054886209
          ],
          [
            -5.7081008702212541,
            55.554486867557095
          ],
          [
            -5.7075165220979569,
            55.55365055617829
          ],
          [
            -5.7070442550364611,
            55.552376708497256
          ],
          [
            -5.7069812210068003,
            55.550817520447502
          ],
          [
            -5.7071420622665343,
            55.551716497080619
          ],
          [
            -5.7070581062102983,
            55.552358411523251
          ],
          [
            -5.7072994359127973,
            55.553138166311413
          ],
          [
            -5.7082559862657707,
            55.554693821434036
          ],
          [
            -5.708704250327882,
            55.555092397854018
          ],
          [
            -5.7090626570268954,
            55.556718975498285
          ],
          [
            -5.707217233333334,
            55.557299866666668
          ],
          [
            -5.7075725666666663,
            55.559021533333329
          ],
          [
            -5.7070358833333339,
            55.560788566666659
          ],
          [
            -5.7054921666666667,
            55.562518766666663
          ],
          [
            -5.7034351999999995,
            55.563985800000005
          ],
          [
            -5.7011079999999996,
            55.565417883333339
          ],
          [
            -5.6985339166666655,
            55.566462583333333
          ],
          [
            -5.6970928999999986,
            55.567934600000008
          ],
          [
            -5.6971483333333328,
            55.569744400000005
          ],
          [
            -5.6975173833333335,
            55.571399766666673
          ],
          [
            -5.6966939000000005,
            55.573069416666669
          ],
          [
            -5.695588400000001,
            55.574613916666671
          ],
          [
            -5.694712449999999,
            55.576296900000003
          ],
          [
            -5.6946689499999987,
            55.578300566666663
          ],
          [
            -5.6946357999999995,
            55.580015249999995
          ],
          [
            -5.6945616166666655,
            55.581743366666657
          ],
          [
            -5.6945282166666669,
            55.583240233333328
          ],
          [
            -5.6950554133906106,
            55.584532697341515
          ],
          [
            -5.6958922166666657,
            55.585699566666669
          ],
          [
            -5.6940920999999998,
            55.586496583333336
          ],
          [
            -5.6921381666666662,
            55.587672966666666
          ],
          [
            -5.6911527833333322,
            55.589439183333333
          ],
          [
            -5.6901748833333325,
            55.591164966666668
          ],
          [
            -5.6891977833333325,
            55.592923133333336
          ],
          [
            -5.6883323999999993,
            55.594490166666674
          ],
          [
            -5.6870316333333335,
            55.596051416666661
          ],
          [
            -5.6860538333333333,
            55.597307733333338
          ],
          [
            -5.6851055499999994,
            55.59864326666667
          ],
          [
            -5.6844610000000015,
            55.600088850000006
          ],
          [
            -5.6843342833333343,
            55.601659466666661
          ],
          [
            -5.683689133333333,
            55.603414499999992
          ],
          [
            -5.6834135500000009,
            55.605086583333332
          ],
          [
            -5.6826867666666656,
            55.60688893333333
          ],
          [
            -5.6823988999999999,
            55.608540566666669
          ],
          [
            -5.6821713833333343,
            55.610402166666674
          ],
          [
            -5.6819810666666664,
            55.612089716666667
          ],
          [
            -5.6812357333333328,
            55.613587333333335
          ],
          [
            -5.6793034666666662,
            55.614938200000012
          ],
          [
            -5.6772343000000003,
            55.616400750000004
          ],
          [
            -5.676254283333332,
            55.61811028333333
          ],
          [
            -5.6755982166666659,
            55.61987438333334
          ],
          [
            -5.674904999999999,
            55.62173378333334
          ],
          [
            -5.6741633833333331,
            55.623596166666658
          ],
          [
            -5.6733316999999994,
            55.625515566666671
          ],
          [
            -5.6725305833333337,
            55.627323333333337
          ],
          [
            -5.6712780500000006,
            55.629171666666664
          ],
          [
            -5.6698464666666668,
            55.631107216666663
          ],
          [
            -5.6684945166666676,
            55.632843950000009
          ],
          [
            -5.6671401501986436,
            55.634663104433741
          ],
          [
            -5.6657100999999992,
            55.636428766666668
          ],
          [
            -5.6644345000000005,
            55.63801303333333
          ],
          [
            -5.6634288333333336,
            55.639601783333333
          ],
          [
            -5.6631293833333336,
            55.641179166666674
          ],
          [
            -5.6631212000000009,
            55.642702366666661
          ],
          [
            -5.663089349999999,
            55.644384049999992
          ],
          [
            -5.6629107582839966,
            55.645996237962869
          ],
          [
            -5.6623358999999995,
            55.647684300000002
          ],
          [
            -5.6619179499999994,
            55.649197533333336
          ],
          [
            -5.6613762500000009,
            55.650753799999997
          ],
          [
            -5.6602179666666661,
            55.652107350000009
          ],
          [
            -5.6597531179502685,
            55.653027600536952
          ],
          [
            -5.6610948666666667,
            55.652509250000001
          ],
          [
            -5.6627172666666672,
            55.652688966666666
          ],
          [
            -5.6643491666666668,
            55.653004383333332
          ],
          [
            -5.6658864999999992,
            55.653396499999992
          ],
          [
            -5.6667346333333342,
            55.654252783333334
          ],
          [
            -5.6670893333333332,
            55.655839733333345
          ],
          [
            -5.66818255599516,
            55.657464816383843
          ],
          [
            -5.6678846041112676,
            55.657164824304438
          ],
          [
            -5.6673903425569163,
            55.656289034095622
          ],
          [
            -5.6669624723791863,
            55.655387784843853
          ],
          [
            -5.6668151427397451,
            55.654465960547213
          ],
          [
            -5.6664415397755858,
            55.653591737889386
          ],
          [
            -5.6643843247571075,
            55.652956748054272
          ],
          [
            -5.6635134744934854,
            55.65278366367486
          ],
          [
            -5.6619506395466423,
            55.652497162552393
          ],
          [
            -5.6604444766987054,
            55.652789623133749
          ],
          [
            -5.6589560833333339,
            55.654316733333324
          ],
          [
            -5.6579651833333324,
            55.65619736666666
          ],
          [
            -5.6569303666666677,
            55.658075866666664
          ],
          [
            -5.6559535999999992,
            55.659777433333332
          ],
          [
            -5.6548328666666663,
            55.661768183333336
          ],
          [
            -5.653794883333334,
            55.663624416666671
          ],
          [
            -5.6526798999999999,
            55.665586133333335
          ],
          [
            -5.6515431833333336,
            55.667595683333332
          ],
          [
            -5.6505350833333328,
            55.669386083333336
          ],
          [
            -5.6495756333333338,
            55.671092383333338
          ],
          [
            -5.6486468333333333,
            55.672727833333333
          ],
          [
            -5.6476540499999999,
            55.674367366666672
          ],
          [
            -5.6465450499999994,
            55.676030516666664
          ],
          [
            -5.6454151000000001,
            55.677894333333342
          ],
          [
            -5.6442205666666663,
            55.679841633333339
          ],
          [
            -5.643056716666667,
            55.681726049999995
          ],
          [
            -5.6418512499999993,
            55.683684783333334
          ],
          [
            -5.6405978000000001,
            55.685701766666675
          ],
          [
            -5.6392507666666676,
            55.687733116666671
          ],
          [
            -5.6379141833333337,
            55.689489350000002
          ],
          [
            -5.6364944999999995,
            55.691319049999997
          ],
          [
            -5.635215416666667,
            55.692966750000004
          ],
          [
            -5.6340727999999993,
            55.694414249999994
          ],
          [
            -5.6325245999999991,
            55.695670783333327
          ],
          [
            -5.6316555666666659,
            55.697587233333323
          ],
          [
            -5.6308358333333333,
            55.699402800000009
          ],
          [
            -5.6299576333333334,
            55.701380249999993
          ],
          [
            -5.628575549999999,
            55.703239516666663
          ],
          [
            -5.6267819666666661,
            55.704863683333329
          ],
          [
            -5.6249357333333325,
            55.706470333333328
          ],
          [
            -5.6231665333333334,
            55.708003933333337
          ],
          [
            -5.6206763999999998,
            55.709246883333329
          ],
          [
            -5.618571216666667,
            55.710752299999996
          ],
          [
            -5.6170585999999991,
            55.712434566666658
          ],
          [
            -5.6158131833333345,
            55.71421028333333
          ],
          [
            -5.6143527166666676,
            55.715950200000002
          ],
          [
            -5.6126297833333325,
            55.717618766666661
          ],
          [
            -5.6106556166666666,
            55.719487133333331
          ],
          [
            -5.6092733500000014,
            55.721200033333332
          ],
          [
            -5.6079919166666663,
            55.722700416666669
          ],
          [
            -5.6062612500000002,
            55.724348716666661
          ],
          [
            -5.6052725000000008,
            55.726243283333332
          ],
          [
            -5.6045421833333329,
            55.728246866666659
          ],
          [
            -5.6031814500000001,
            55.73001093333334
          ],
          [
            -5.6017261166666668,
            55.731781100000006
          ],
          [
            -5.5993836666666672,
            55.733389116666665
          ],
          [
            -5.5968866333333347,
            55.734808850000007
          ],
          [
            -5.5945296666666673,
            55.736392833333333
          ],
          [
            -5.5925445500000004,
            55.737796683333329
          ],
          [
            -5.5897091166666675,
            55.739059566666675
          ],
          [
            -5.5875322666666669,
            55.740037100000002
          ],
          [
            -5.5875322666666669,
            55.740037100000002
          ],
          [
            -5.5845579500000007,
            55.741266283333331
          ],
          [
            -5.581705283333334,
            55.742226883333323
          ],
          [
            -5.5787987166666673,
            55.743020600000001
          ],
          [
            -5.5753846833333336,
            55.743552383333324
          ],
          [
            -5.5721848833333336,
            55.744044783333329
          ],
          [
            -5.5690095333333334,
            55.744574999999998
          ],
          [
            -5.5658838666666668,
            55.745198866666669
          ],
          [
            -5.5629374500000006,
            55.74578438333333
          ],
          [
            -5.560396766666666,
            55.746607133333328
          ],
          [
            -5.5584855148015038,
            55.747676039626036
          ],
          [
            -5.5552456266059913,
            55.74827278176798
          ],
          [
            -5.5515953087957053,
            55.74886926846257
          ],
          [
            -5.5483981768154251,
            55.749547620160683
          ],
          [
            -5.5464011000000006,
            55.751023050000001
          ],
          [
            -5.5455715833333326,
            55.752871616666674
          ],
          [
            -5.5445446021825076,
            55.754850988023442
          ],
          [
            -5.5432398999999997,
            55.756793933333327
          ],
          [
            -5.5423568666666672,
            55.758671516666659
          ],
          [
            -5.5408176929745521,
            55.760389026920194
          ],
          [
            -5.5383493565350701,
            55.762000415629402
          ],
          [
            -5.5361152166666674,
            55.763489283333335
          ],
          [
            -5.5339797833333328,
            55.764903349999997
          ],
          [
            -5.5333007166666679,
            55.766672766666673
          ],
          [
            -5.5319725333333345,
            55.768478916666659
          ],
          [
            -5.5304438333333339,
            55.7701444
          ],
          [
            -5.5283992833333331,
            55.771488966666659
          ],
          [
            -5.526745,
            55.772748849999999
          ],
          [
            -5.5243046166666661,
            55.77382393333334
          ],
          [
            -5.5232983500000001,
            55.774182349999997
          ],
          [
            -5.5217593999999997,
            55.774700633333332
          ],
          [
            -5.5188527000000009,
            55.775753199999997
          ],
          [
            -5.5165330333333342,
            55.776933849999992
          ],
          [
            -5.5141311333333327,
            55.777844533333337
          ],
          [
            -5.5113382833333331,
            55.778537800000002
          ],
          [
            -5.5083852499999999,
            55.77910885
          ],
          [
            -5.5060653999999998,
            55.780410633333339
          ],
          [
            -5.5042792,
            55.781895733333343
          ],
          [
            -5.5023474666666665,
            55.783310749999991
          ],
          [
            -5.5005982833333329,
            55.784874566666673
          ],
          [
            -5.4986896833333327,
            55.786159133333335
          ],
          [
            -5.4964352666666665,
            55.787564249999996
          ],
          [
            -5.4941151166666673,
            55.789015500000005
          ],
          [
            -5.492107783333334,
            55.790375283333333
          ],
          [
            -5.4902193833333337,
            55.791654383333331
          ],
          [
            -5.4884011166666671,
            55.792700233333335
          ],
          [
            -5.4857666166666661,
            55.793384533333331
          ],
          [
            -5.484333883333333,
            55.795021516666672
          ],
          [
            -5.4831477452102844,
            55.79650754435734
          ],
          [
            -5.4807978249507361,
            55.797446572572582
          ],
          [
            -5.4785609440728669,
            55.798420469292651
          ],
          [
            -5.4765541345212325,
            55.799447622931261
          ],
          [
            -5.4753261166666674,
            55.800871266666668
          ],
          [
            -5.4752708500000002,
            55.80226055
          ],
          [
            -5.4771475000000009,
            55.803306383333329
          ],
          [
            -5.47788305,
            55.804990700000005
          ],
          [
            -5.4772435166666664,
            55.806832783333327
          ],
          [
            -5.4753068333333337,
            55.808552833333337
          ],
          [
            -5.4723327499999996,
            55.809791133333327
          ],
          [
            -5.4703177333333333,
            55.811386400000004
          ],
          [
            -5.4688760499999995,
            55.813077450000009
          ],
          [
            -5.467416383333334,
            55.814793800000011
          ],
          [
            -5.4665657666666672,
            55.816550283333328
          ],
          [
            -5.4655766166666675,
            55.818456850000004
          ],
          [
            -5.4650078666666673,
            55.820188699999996
          ],
          [
            -5.4633197166666658,
            55.821642366666673
          ],
          [
            -5.4622701833333336,
            55.823234333333325
          ],
          [
            -5.4610428333333321,
            55.824764783333329
          ],
          [
            -5.4605337333333326,
            55.826353500000003
          ],
          [
            -5.4589646877606546,
            55.827778931357301
          ],
          [
            -5.45690805,
            55.829264300000006
          ],
          [
            -5.4555261833333342,
            55.831133500000007
          ],
          [
            -5.4542850833333345,
            55.832830116666671
          ],
          [
            -5.4524505919388009,
            55.834566929147918
          ],
          [
            -5.4498332489477264,
            55.835813923797431
          ],
          [
            -5.4472715578931235,
            55.836928463975845
          ],
          [
            -5.4462250833333332,
            55.83848055
          ],
          [
            -5.4459669333333336,
            55.839992500000001
          ],
          [
            -5.4462070499999999,
            55.841788416666667
          ],
          [
            -5.4465447666666673,
            55.843593999999996
          ],
          [
            -5.4456413499999989,
            55.845347366666658
          ],
          [
            -5.4441866333333344,
            55.847179400000009
          ],
          [
            -5.4431599666666663,
            55.848844133333323
          ],
          [
            -5.4423932833333328,
            55.850041383333334
          ],
          [
            -5.4416916166666658,
            55.851055749999993
          ],
          [
            -5.4410979166666662,
            55.851901566666662
          ],
          [
            -5.4405977500000002,
            55.852756633333335
          ],
          [
            -5.4400245000000007,
            55.854380966666668
          ],
          [
            -5.4378631666666672,
            55.855441333333324
          ],
          [
            -5.4358653654968219,
            55.856682570543171
          ],
          [
            -5.4333465373965621,
            55.857483806503332
          ],
          [
            -5.4309430785384638,
            55.858245090301111
          ],
          [
            -5.4287820252868979,
            55.858917095393878
          ],
          [
            -5.4265187805673376,
            55.859602837575224
          ],
          [
            -5.4240527640882057,
            55.860331032749848
          ],
          [
            -5.4219105666666652,
            55.861124266666664
          ],
          [
            -5.419955329348265,
            55.861790656783548
          ],
          [
            -5.4183052509322183,
            55.862526541975654
          ],
          [
            -5.4170763374835929,
            55.863129939255245
          ],
          [
            -5.4154365166666665,
            55.863368000000008
          ],
          [
            -5.4149348999999996,
            55.864239466666668
          ],
          [
            -5.4145333666666655,
            55.86514811666666
          ],
          [
            -5.414104533333334,
            55.866049400000009
          ],
          [
            -5.4134431000000012,
            55.867061200000002
          ],
          [
            -5.4129052833333331,
            55.867987433333333
          ],
          [
            -5.4120018000000005,
            55.869231766666658
          ],
          [
            -5.4109317166666662,
            55.87078571666666
          ],
          [
            -5.4100400595340341,
            55.872393966570776
          ],
          [
            -5.4094366333333328,
            55.874031083333328
          ],
          [
            -5.4090893499999986,
            55.87545883333334
          ],
          [
            -5.4102766999999989,
            55.876921066666668
          ],
          [
            -5.4113975833333328,
            55.878486866666663
          ],
          [
            -5.4133087000000009,
            55.87971306666666
          ],
          [
            -5.4161824333333337,
            55.879845583333321
          ],
          [
            -5.4180211833333338,
            55.880225766666676
          ],
          [
            -5.4203162333333328,
            55.88104713333334
          ],
          [
            -5.4226789000000002,
            55.881654049999995
          ],
          [
            -5.4230288499999997,
            55.88326099999999
          ],
          [
            -5.4223701333333336,
            55.884900799999997
          ],
          [
            -5.4221531000000009,
            55.886585283333332
          ],
          [
            -5.4208346294423091,
            55.888019814029519
          ],
          [
            -5.4199966000000002,
            55.889518566666659
          ],
          [
            -5.4200880666666675,
            55.891174749999998
          ],
          [
            -5.4211809999999998,
            55.892555199999997
          ],
          [
            -5.421509116666666,
            55.89391346666666
          ],
          [
            -5.4210017487769999,
            55.895479907559235
          ],
          [
            -5.4213641666666659,
            55.896965683333335
          ],
          [
            -5.422519949999999,
            55.89829601666667
          ],
          [
            -5.4224789166666678,
            55.89969228333333
          ],
          [
            -5.422838099999999,
            55.900981249999994
          ],
          [
            -5.4218459666666661,
            55.902492366666671
          ],
          [
            -5.4209434166666668,
            55.903976166666673
          ],
          [
            -5.4209636166666675,
            55.905506466666672
          ],
          [
            -5.4209773500000002,
            55.907069833333331
          ],
          [
            -5.4211225499999989,
            55.908643200000007
          ],
          [
            -5.4213896166666666,
            55.910079933333328
          ],
          [
            -5.4212182582107182,
            55.911279321303319
          ],
          [
            -5.4204633666666666,
            55.912457683333336
          ],
          [
            -5.421491333333333,
            55.914021699999999
          ],
          [
            -5.4223662833333339,
            55.915530833333328
          ],
          [
            -5.4228875188501018,
            55.916812622829475
          ],
          [
            -5.4228395809727052,
            55.918382187647602
          ],
          [
            -5.4227123500000003,
            55.919960766666662
          ],
          [
            -5.4231030999999996,
            55.921192966666666
          ],
          [
            -5.4241540666666666,
            55.922800433333336
          ],
          [
            -5.4250698999999996,
            55.924644633333344
          ],
          [
            -5.425329416666667,
            55.926678633333324
          ],
          [
            -5.4249413999999998,
            55.928731500000005
          ],
          [
            -5.4245880499999997,
            55.930579450000003
          ],
          [
            -5.4253361333333334,
            55.932311166666658
          ],
          [
            -5.4264628666666663,
            55.933888199999998
          ],
          [
            -5.4277521666666662,
            55.935129116666666
          ],
          [
            -5.4282505499999996,
            55.936739400000008
          ],
          [
            -5.42843345,
            55.938234750000007
          ],
          [
            -5.4288914166666666,
            55.939643083333344
          ],
          [
            -5.4293842333333338,
            55.941314399999996
          ],
          [
            -5.4293661666666679,
            55.94301218333333
          ],
          [
            -5.4289028833333344,
            55.94471841666666
          ],
          [
            -5.4291717000000004,
            55.946510900000007
          ],
          [
            -5.4295384333333327,
            55.948126249999994
          ],
          [
            -5.4305089333333338,
            55.949758500000009
          ],
          [
            -5.4317898833333329,
            55.951250200000004
          ],
          [
            -5.4323472333333331,
            55.952678950000006
          ],
          [
            -5.4336737500000014,
            55.953940333333335
          ],
          [
            -5.4359201333333331,
            55.95503836666667
          ],
          [
            -5.4386146666666662,
            55.956076349999996
          ],
          [
            -5.4419504666666665,
            55.956814950000002
          ],
          [
            -5.4447146666666653,
            55.957537333333327
          ],
          [
            -5.4460880333333321,
            55.959079299999999
          ],
          [
            -5.4465725166666665,
            55.960599900000005
          ],
          [
            -5.4462283833333327,
            55.962215616666661
          ],
          [
            -5.446374566666667,
            55.96302949999999
          ],
          [
            -5.4465909333333329,
            55.964029416666669
          ],
          [
            -5.44792875,
            55.965661349999991
          ],
          [
            -5.4485581000000005,
            55.967600449999992
          ],
          [
            -5.44933595,
            55.969294066666663
          ],
          [
            -5.4503235666666656,
            55.970899883333338
          ],
          [
            -5.4506193666666665,
            55.972697916666654
          ],
          [
            -5.4492070166666657,
            55.974477033333336
          ],
          [
            -5.4492370666666661,
            55.976195716666673
          ],
          [
            -5.4486557833333338,
            55.978030616666672
          ],
          [
            -5.4474877666666659,
            55.97962183333334
          ],
          [
            -5.4465341833333332,
            55.981152516666668
          ],
          [
            -5.4461563333333327,
            55.982693550000008
          ],
          [
            -5.4463851666666656,
            55.984431200000003
          ],
          [
            -5.4468115166666653,
            55.986019950000006
          ],
          [
            -5.4463895666666664,
            55.987375749999998
          ],
          [
            -5.4459843999999995,
            55.988978299999992
          ],
          [
            -5.4459392500000003,
            55.990506133333334
          ],
          [
            -5.4471692666666662,
            55.991892116666662
          ],
          [
            -5.4478549333333337,
            55.993439800000004
          ],
          [
            -5.447442866666667,
            55.994969733333328
          ],
          [
            -5.4479976000000008,
            55.996377600000002
          ],
          [
            -5.448596966666666,
            55.997748900000005
          ],
          [
            -5.4487721166666665,
            55.99900328333333
          ],
          [
            -5.4482293818744267,
            55.999887840534157
          ],
          [
            -5.44745251365614,
            56.000691649163855
          ],
          [
            -5.447656583333333,
            56.001964333333341
          ],
          [
            -5.4487924166666666,
            56.003257400000003
          ],
          [
            -5.449722200000001,
            56.004645933333329
          ],
          [
            -5.4505534333333321,
            56.005882500000006
          ],
          [
            -5.4504557833333322,
            56.007299016666671
          ],
          [
            -5.4503370499999999,
            56.008751866666671
          ],
          [
            -5.44951805,
            56.010039083333339
          ],
          [
            -5.4479947833333338,
            56.011152066666668
          ],
          [
            -5.4467594333333329,
            56.011844050000008
          ],
          [
            -5.446336333333333,
            56.012856600000006
          ],
          [
            -5.4467268666666682,
            56.013861550000001
          ],
          [
            -5.4475317333333333,
            56.01471433333333
          ],
          [
            -5.4478695999999998,
            56.01560558333334
          ],
          [
            -5.4482209499999996,
            56.016545050000005
          ],
          [
            -5.4478892833333337,
            56.017878666666675
          ],
          [
            -5.4473450333333329,
            56.019417216666675
          ],
          [
            -5.4468234333333321,
            56.020971466666673
          ],
          [
            -5.4465124410142911,
            56.022644897404426
          ],
          [
            -5.4461347598439325,
            56.024298787314684
          ],
          [
            -5.4453228106483307,
            56.025869883384985
          ],
          [
            -5.4444905407329847,
            56.027445887001036
          ],
          [
            -5.4433089610601204,
            56.028966370199541
          ],
          [
            -5.4427807283612522,
            56.030650959973137
          ],
          [
            -5.4424515617845213,
            56.03213291559733
          ],
          [
            -5.4425372996496684,
            56.033575295924884
          ],
          [
            -5.4425211388494548,
            56.035050305033508
          ],
          [
            -5.4413258650472818,
            56.043975325609459
          ],
          [
            -5.4412824666666673,
            56.038304699999991
          ],
          [
            -5.4411338499999999,
            56.037400449999993
          ],
          [
            -5.4389561333333321,
            56.037217616666673
          ],
          [
            -5.436629466666667,
            56.036866416666662
          ],
          [
            -5.4344092500000007,
            56.036627600000003
          ],
          [
            -5.4327680833333334,
            56.036443466666661
          ],
          [
            -5.4314886000000007,
            56.035889183333332
          ],
          [
            -5.430181000000001,
            56.035311333333325
          ],
          [
            -5.4293297166666665,
            56.034474283333338
          ],
          [
            -5.4305688499999993,
            56.033689799999998
          ],
          [
            -5.4307510333333324,
            56.032586299999998
          ],
          [
            -5.4308798999999999,
            56.031253433333333
          ],
          [
            -5.4309067000000013,
            56.030155416666666
          ],
          [
            -5.4306872000000004,
            56.028418700000003
          ],
          [
            -5.4301851000000001,
            56.026771400000008
          ],
          [
            -5.429671616666667,
            56.025432049999999
          ],
          [
            -5.4283869499999993,
            56.023867883333331
          ],
          [
            -5.426508300000001,
            56.022551783333327
          ],
          [
            -5.4245731666666659,
            56.020877616666667
          ],
          [
            -5.4238106924990808,
            56.018853765151064
          ],
          [
            -5.4226109973165855,
            56.016893073986004
          ],
          [
            -5.4207810301432948,
            56.015024248423643
          ],
          [
            -5.4188420350399804,
            56.013389917528528
          ],
          [
            -5.415802133333333,
            56.012161066666678
          ],
          [
            -5.412437999999999,
            56.011910466666663
          ],
          [
            -5.4090855499999995,
            56.012145099999998
          ],
          [
            -5.4058866666666674,
            56.012444833333333
          ],
          [
            -5.4025123500000003,
            56.012579850000009
          ],
          [
            -5.3997217999999991,
            56.013659599999997
          ],
          [
            -5.3966298666666654,
            56.014581866666674
          ],
          [
            -5.3930489333333336,
            56.015363533333328
          ],
          [
            -5.3894960833333334,
            56.015817200000001
          ],
          [
            -5.3860355833333333,
            56.015969849999998
          ],
          [
            -5.3827431833333339,
            56.016071433333337
          ],
          [
            -5.3792364166666671,
            56.016138833333322
          ],
          [
            -5.3758160333333329,
            56.016236766666665
          ],
          [
            -5.3724983500000016,
            56.016202116666669
          ],
          [
            -5.3700535000000009,
            56.017021633333329
          ],
          [
            -5.368780216666666,
            56.018342966666658
          ],
          [
            -5.3675539999999993,
            56.019551633333336
          ],
          [
            -5.3672240333333336,
            56.021104233333332
          ],
          [
            -5.3662076000000001,
            56.022468849999996
          ],
          [
            -5.3638677166666655,
            56.023697666666671
          ],
          [
            -5.3634145833333342,
            56.025310749999996
          ],
          [
            -5.3613076,
            56.026781749999991
          ],
          [
            -5.3594539333333335,
            56.028362350000002
          ],
          [
            -5.3578138833333337,
            56.030018016666659
          ],
          [
            -5.3556853666666679,
            56.03155258333333
          ],
          [
            -5.3541987166666676,
            56.03354663333333
          ],
          [
            -5.3523308000000007,
            56.035568733333335
          ],
          [
            -5.3507411833333336,
            56.037411116666668
          ],
          [
            -5.3489007333333332,
            56.03892401666667
          ],
          [
            -5.3468064500000008,
            56.040215516666663
          ],
          [
            -5.3448430166666663,
            56.041755366666671
          ],
          [
            -5.3441349333333337,
            56.043729049999996
          ],
          [
            -5.3437081666666666,
            56.045508683333345
          ],
          [
            -5.3444468333333344,
            56.047089499999991
          ],
          [
            -5.3460837500000009,
            56.048273516666661
          ],
          [
            -5.3465794666666664,
            56.050083049999998
          ],
          [
            -5.3465110999999998,
            56.05184486666667
          ],
          [
            -5.3450878500000005,
            56.053668100000003
          ],
          [
            -5.3439150666666659,
            56.055096733333322
          ],
          [
            -5.3417299666666667,
            56.056322000000002
          ],
          [
            -5.3404261833333333,
            56.057976266666671
          ],
          [
            -5.3400580666666668,
            56.059692383333335
          ],
          [
            -5.3394628666666657,
            56.061169616666668
          ],
          [
            -5.3381904333333337,
            56.062413783333341
          ],
          [
            -5.3373257833333332,
            56.063843200000008
          ],
          [
            -5.3369248833333343,
            56.064699050000009
          ],
          [
            -5.3367244666666673,
            56.065362633333343
          ],
          [
            -5.3366805833333331,
            56.067348633333332
          ],
          [
            -5.3354311666666661,
            56.069264800000006
          ],
          [
            -5.3338799499999991,
            56.071003249999997
          ],
          [
            -5.3311559500000012,
            56.072226450000002
          ],
          [
            -5.3276319333333335,
            56.073072850000003
          ],
          [
            -5.3236971333333329,
            56.073972116666667
          ],
          [
            -5.3201818333333337,
            56.074793850000006
          ],
          [
            -5.3168739666666669,
            56.075630466666674
          ],
          [
            -5.3135213890349693,
            56.076855760436786
          ],
          [
            -5.310209670791699,
            56.078141450465615
          ],
          [
            -5.3072732507181417,
            56.079362190667936
          ],
          [
            -5.3045850938759509,
            56.080502362691803
          ],
          [
            -5.3016198159532602,
            56.0810248357718
          ],
          [
            -5.2986723833333338,
            56.081907016666669
          ],
          [
            -5.2968336166666674,
            56.083583266666665
          ],
          [
            -5.2952280499999995,
            56.085062616666669
          ],
          [
            -5.2947751666666676,
            56.086922383333324
          ],
          [
            -5.2932337666666669,
            56.088582416666668
          ],
          [
            -5.2927593000000002,
            56.090358216666665
          ],
          [
            -5.2938754010816016,
            56.091779941212039
          ],
          [
            -5.292295742655841,
            56.093435124395704
          ],
          [
            -5.2897516535060785,
            56.094767765503583
          ],
          [
            -5.2867637253039188,
            56.096070553799329
          ],
          [
            -5.2838510346982295,
            56.097066051028861
          ],
          [
            -5.2812351591083937,
            56.09818017532163
          ],
          [
            -5.2790785394639572,
            56.099372241818948
          ],
          [
            -5.2768991181958214,
            56.100650661798724
          ],
          [
            -5.2746804642609346,
            56.101763455101036
          ],
          [
            -5.2720314505402488,
            56.102528773533209
          ],
          [
            -5.2698770770639216,
            56.103748066876797
          ],
          [
            -5.2697504820063141,
            56.105341538613168
          ],
          [
            -5.2678599000000004,
            56.106908199999999
          ],
          [
            -5.2651848844544569,
            56.107921086697289
          ],
          [
            -5.2628700112909623,
            56.109004436084611
          ],
          [
            -5.2607789561344376,
            56.11020500755442
          ],
          [
            -5.2591577022106666,
            56.111512579429494
          ],
          [
            -5.2579594288597669,
            56.112708734403128
          ],
          [
            -5.2563718832019575,
            56.113743678365978
          ],
          [
            -5.2549649988393581,
            56.114625918671109
          ],
          [
            -5.2537153000000005,
            56.115217833333325
          ],
          [
            -5.2521430166666674,
            56.116215849999989
          ],
          [
            -5.2508391333333337,
            56.117534766666665
          ],
          [
            -5.2488264166666667,
            56.118723633333332
          ],
          [
            -5.2472919166666676,
            56.120223733333326
          ],
          [
            -5.2461266833333342,
            56.12177295
          ],
          [
            -5.2444094000000012,
            56.123147766666669
          ],
          [
            -5.2421084666666671,
            56.124292400000002
          ],
          [
            -5.239762766666666,
            56.125435349999997
          ],
          [
            -5.2382260333333326,
            56.126939833333331
          ],
          [
            -5.2368156344614478,
            56.128464473731718
          ],
          [
            -5.2341638833333342,
            56.129557016666666
          ],
          [
            -5.2317053333333341,
            56.130514516666672
          ],
          [
            -5.2292857166666673,
            56.131709616666662
          ],
          [
            -5.2266345000000003,
            56.133053116666666
          ],
          [
            -5.2266345000000003,
            56.133053116666666
          ],
          [
            -5.2236882666666657,
            56.13412125
          ],
          [
            -5.2215260000000008,
            56.135649600000001
          ],
          [
            -5.2193870166410585,
            56.136910507858033
          ],
          [
            -5.2173567333333351,
            56.138110450000006
          ],
          [
            -5.2155798844500003,
            56.139252940808078
          ],
          [
            -5.2130071000000004,
            56.140050166666661
          ],
          [
            -5.2104557166666661,
            56.14094133333333
          ],
          [
            -5.2084774000000005,
            56.142182566666662
          ],
          [
            -5.2067969999999999,
            56.143714950000003
          ],
          [
            -5.2043835000000005,
            56.144720499999991
          ],
          [
            -5.201759533333334,
            56.145746200000005
          ],
          [
            -5.1998040333333329,
            56.146843199999992
          ],
          [
            -5.1974467166666667,
            56.147752116666673
          ],
          [
            -5.1951001999999997,
            56.14865021666666
          ],
          [
            -5.1927861000000002,
            56.149896933333331
          ],
          [
            -5.1901788333333334,
            56.150362949999995
          ],
          [
            -5.1875863666666664,
            56.151082749999993
          ],
          [
            -5.1853018000000004,
            56.151825099999996
          ],
          [
            -5.1843212833333334,
            56.153354433333327
          ],
          [
            -5.183929766845659,
            56.154868237296157
          ],
          [
            -5.1846410226744037,
            56.156239048133017
          ],
          [
            -5.1843498886784554,
            56.157877220892402
          ],
          [
            -5.1857663634861444,
            56.159403300978603
          ],
          [
            -5.1856948637970248,
            56.16146114148065
          ],
          [
            -5.1841592500000004,
            56.163396383333335
          ],
          [
            -5.1837462499999996,
            56.16551208333334
          ],
          [
            -5.1842785999999998,
            56.167460033333327
          ],
          [
            -5.1833888833333335,
            56.169222566666669
          ],
          [
            -5.1833888833333335,
            56.169222566666669
          ],
          [
            -5.1832605499999991,
            56.171074833333321
          ],
          [
            -5.1826686999999998,
            56.173055433333332
          ],
          [
            -5.1809840833333327,
            56.174647466666663
          ],
          [
            -5.1788867999999999,
            56.176266399999996
          ],
          [
            -5.177684300000001,
            56.178214533333325
          ],
          [
            -5.1767166833333329,
            56.180070449999995
          ],
          [
            -5.1742928499999996,
            56.181600033333339
          ],
          [
            -5.1715023000000002,
            56.182711583333337
          ],
          [
            -5.1687262500000006,
            56.183667733333344
          ],
          [
            -5.1657240333333334,
            56.184704716666666
          ],
          [
            -5.1630837000000005,
            56.186085466666661
          ],
          [
            -5.1602431333333332,
            56.187266583333333
          ],
          [
            -5.1573988333333336,
            56.188592083333333
          ],
          [
            -5.1547648500000003,
            56.189625783333341
          ],
          [
            -5.1514637500000005,
            56.189991933333346
          ],
          [
            -5.148653883333334,
            56.190188166666665
          ],
          [
            -5.1454378666666667,
            56.190467466666661
          ],
          [
            -5.1432678833333334,
            56.191752749999992
          ],
          [
            -5.1416852833333335,
            56.193145083333334
          ],
          [
            -5.1396630333333331,
            56.194560800000005
          ],
          [
            -5.1369082833333337,
            56.195556266666664
          ],
          [
            -5.1333135333333333,
            56.195954100000002
          ],
          [
            -5.1304517481173928,
            56.196875367312138
          ],
          [
            -5.1277256078208264,
            56.198001150365769
          ],
          [
            -5.125055939347126,
            56.198756595441303
          ],
          [
            -5.1221756830468488,
            56.199226742767273
          ],
          [
            -5.1193221833994205,
            56.200041184926377
          ],
          [
            -5.1159966993976358,
            56.200692176343438
          ],
          [
            -5.1150681404052989,
            56.200867509269791
          ],
          [
            -5.1128852697183342,
            56.201279280309507
          ],
          [
            -5.1101083383547898,
            56.202005006128267
          ],
          [
            -5.1075579291728337,
            56.203223630796778
          ],
          [
            -5.1057621500441899,
            56.204609130872555
          ],
          [
            -5.1044872864610937,
            56.206173994432383
          ],
          [
            -5.1038027432114443,
            56.207775226592588
          ],
          [
            -5.1023638783095313,
            56.209536760401797
          ],
          [
            -5.0996020765864065,
            56.210963751469201
          ],
          [
            -5.0968697081914067,
            56.211974909686326
          ],
          [
            -5.093947163592933,
            56.213224147944146
          ],
          [
            -5.0923309141456006,
            56.215119021046981
          ],
          [
            -5.0912702249421402,
            56.21691009128952
          ],
          [
            -5.089731668600499,
            56.218378983870217
          ],
          [
            -5.0876820445580941,
            56.219630512689029
          ],
          [
            -5.0849944918700949,
            56.220050814816233
          ],
          [
            -5.0827456795777364,
            56.22083900826653
          ],
          [
            -5.0816127700887801,
            56.22203044485012
          ],
          [
            -5.0799358391693703,
            56.22258384583894
          ],
          [
            -5.0783137988889342,
            56.222966309031506
          ],
          [
            -5.0779131142559111,
            56.223973950175797
          ],
          [
            -5.0769125497360781,
            56.225051034034536
          ],
          [
            -5.0765350626444219,
            56.226857226544773
          ],
          [
            -5.0764885256706309,
            56.228448614827023
          ],
          [
            -5.0720597926205473,
            56.230980770966809
          ],
          [
            -5.0745695403583762,
            56.229150515711474
          ],
          [
            -5.0762282333333335,
            56.228200800000003
          ],
          [
            -5.0757621833333326,
            56.228883133333326
          ],
          [
            -5.0736570882166854,
            56.231147062879614
          ],
          [
            -5.0737702000000002,
            56.232256616666668
          ],
          [
            -5.0733714499999998,
            56.233557500000011
          ],
          [
            -5.0720780333333328,
            56.234712716666671
          ],
          [
            -5.0706722333333332,
            56.235465133333335
          ],
          [
            -5.0693225166666664,
            56.236112666666671
          ],
          [
            -5.0680030499999997,
            56.236741133333339
          ],
          [
            -5.0665460400871289,
            56.237433772615994
          ],
          [
            -5.064787466666667,
            56.238880116666664
          ],
          [
            -5.0628078869557607,
            56.240036685032955
          ],
          [
            -5.0607634999999993,
            56.241294299999993
          ],
          [
            -5.0590697595140126,
            56.242579067129213
          ],
          [
            -5.0577505784124179,
            56.243839701807687
          ],
          [
            -5.0563020764320257,
            56.244941545482057
          ],
          [
            -5.0544812833333328,
            56.246211283333331
          ],
          [
            -5.0520483833333332,
            56.247577700000001
          ],
          [
            -5.0491368000000003,
            56.247888600000003
          ],
          [
            -5.0465086131115866,
            56.247240406553381
          ],
          [
            -5.0449353830288475,
            56.245985472238551
          ],
          [
            -5.044966269868814,
            56.244388415274294
          ],
          [
            -5.0455772773229919,
            56.242710203188281
          ],
          [
            -5.0458030503104263,
            56.242135791374324
          ],
          [
            -5.0460279517878917,
            56.241566928035972
          ],
          [
            -5.0463846069610616,
            56.240237322917203
          ],
          [
            -5.0466301877787396,
            56.238978115816451
          ],
          [
            -5.046773856885661,
            56.238028070176533
          ],
          [
            -5.0469553115190982,
            56.236965047318925
          ],
          [
            -5.0468892398842611,
            56.23552417457531
          ],
          [
            -5.0461299166666667,
            56.234132950000003
          ],
          [
            -5.0438032833333333,
            56.233958299999998
          ],
          [
            -5.0409163499999998,
            56.234282633333336
          ],
          [
            -5.038197665868676,
            56.234849165209184
          ],
          [
            -5.0353933333333334,
            56.235500916666659
          ],
          [
            -5.0329146833333329,
            56.236351283333335
          ],
          [
            -5.0301569166666669,
            56.237359833333329
          ],
          [
            -5.0276400333333333,
            56.238276849999998
          ],
          [
            -5.025363033333333,
            56.239047333333339
          ],
          [
            -5.0230589999999999,
            56.239862116666664
          ],
          [
            -5.0205713666666663,
            56.240239383333325
          ],
          [
            -5.0178020999999999,
            56.240664283333338
          ],
          [
            -5.0148955500000003,
            56.241353283333332
          ],
          [
            -5.0120785166666675,
            56.242022716666661
          ],
          [
            -5.0092420682747543,
            56.242705516266071
          ],
          [
            -5.0064819615257763,
            56.24306927966974
          ],
          [
            -5.0036849933804239,
            56.24314672243851
          ],
          [
            -5.0007726380108988,
            56.243327887161321
          ],
          [
            -4.9983452159114226,
            56.243488424130931
          ],
          [
            -4.9956518666666661,
            56.243720500000002
          ],
          [
            -4.9929381333333325,
            56.244511966666671
          ],
          [
            -4.990540552227543,
            56.245341012988426
          ],
          [
            -4.988175542767566,
            56.246277528426056
          ],
          [
            -4.9869131166666669,
            56.24683069999999
          ],
          [
            -4.9858431833333343,
            56.247269366666657
          ],
          [
            -4.983606683333333,
            56.248129216666662
          ],
          [
            -4.9811959377016173,
            56.249125711766737
          ],
          [
            -4.9792570831035015,
            56.250350734085458
          ],
          [
            -4.9776395666666664,
            56.25159390000001
          ],
          [
            -4.9755516166666673,
            56.252458549999993
          ],
          [
            -4.9728437626247128,
            56.253377394555649
          ],
          [
            -4.9701695333333333,
            56.254297033333323
          ],
          [
            -4.9678259666666662,
            56.255252749999997
          ],
          [
            -4.9654171333333332,
            56.255683900000001
          ],
          [
            -4.9628064500000004,
            56.256601549999999
          ],
          [
            -4.9600305666666662,
            56.257257633333332
          ],
          [
            -4.9573838666666665,
            56.257672066666665
          ],
          [
            -4.9552945519935969,
            56.257899310583753
          ],
          [
            -4.9521519655351902,
            56.258319395371458
          ],
          [
            -4.949377066666667,
            56.258981049999996
          ],
          [
            -4.9473778333333334,
            56.260051966666666
          ],
          [
            -4.9452516000000006,
            56.261196916666663
          ],
          [
            -4.9429563000000005,
            56.262315783333335
          ],
          [
            -4.9409763499999997,
            56.263631349999997
          ],
          [
            -4.938658216666667,
            56.265173183333339
          ],
          [
            -4.9364958333333337,
            56.266846333333326
          ],
          [
            -4.9343569500000006,
            56.268315583333333
          ],
          [
            -4.9317187333333328,
            56.269850216666654
          ],
          [
            -4.9290387666666673,
            56.271061416666669
          ],
          [
            -4.926338966666667,
            56.271834700000007
          ],
          [
            -4.9230178500000008,
            56.272395066666668
          ],
          [
            -4.919941534844547,
            56.272656399375258
          ],
          [
            -4.9177993833333336,
            56.27153238333333
          ],
          [
            -4.9177993833333336,
            56.27153238333333
          ],
          [
            -4.9186278652221,
            56.269738527802879
          ],
          [
            -4.920771791638832,
            56.268224634518816
          ],
          [
            -4.9230539746577042,
            56.266612954291077
          ],
          [
            -4.9253429448695698,
            56.265108491615599
          ],
          [
            -4.9275403666666664,
            56.263564116666679
          ],
          [
            -4.9296920999999996,
            56.262026183333333
          ],
          [
            -4.9317649666666661,
            56.260548616666661
          ],
          [
            -4.9335251409092615,
            56.25884141767073
          ],
          [
            -4.9347530911004025,
            56.25717479841957
          ],
          [
            -4.9358032666666665,
            56.255578633333336
          ],
          [
            -4.936264416666666,
            56.253821466666672
          ],
          [
            -4.937126216666667,
            56.252218750000004
          ],
          [
            -4.9375453333333335,
            56.250567866666671
          ],
          [
            -4.9360328999999998,
            56.249119633333336
          ],
          [
            -4.9328025876347334,
            56.248444085269433
          ],
          [
            -4.9291203048967525,
            56.248002050782475
          ],
          [
            -4.9257715824710822,
            56.247615552454064
          ],
          [
            -4.9231348766492449,
            56.247336810246225
          ],
          [
            -4.9213753550617989,
            56.24647468441151
          ],
          [
            -4.9243371646866114,
            56.246007620951119
          ],
          [
            -4.9278873014071944,
            56.246294985494991
          ],
          [
            -4.9314226261280361,
            56.246401496789488
          ],
          [
            -4.9347625283430299,
            56.246493238039122
          ],
          [
            -4.9382560420758805,
            56.246587569830908
          ],
          [
            -4.942370517486057,
            56.246023119396035
          ],
          [
            -4.9447888843259156,
            56.245121459176829
          ],
          [
            -4.9476115615346199,
            56.244049980892726
          ],
          [
            -4.9506920609002139,
            56.242873603195051
          ],
          [
            -4.9534594944302635,
            56.241723018740672
          ],
          [
            -4.9561550556853824,
            56.240430279995053
          ],
          [
            -4.9591111732540023,
            56.239051453814916
          ],
          [
            -4.9621743577840736,
            56.237696993804164
          ],
          [
            -4.9650270085961807,
            56.236530079986458
          ],
          [
            -4.9683530276655983,
            56.235554300697508
          ],
          [
            -4.9711619211406184,
            56.234326344813027
          ],
          [
            -4.9732160090113302,
            56.232854698649106
          ],
          [
            -4.9746544488459383,
            56.231250324139836
          ],
          [
            -4.9767529619831459,
            56.229724417576655
          ],
          [
            -4.9791964734069198,
            56.228542419799552
          ],
          [
            -4.9816291074850838,
            56.227352362978351
          ],
          [
            -4.9845054301246599,
            56.22637319613245
          ],
          [
            -4.9878152784392835,
            56.226400461600306
          ],
          [
            -4.9906476332495657,
            56.227003087519023
          ],
          [
            -4.9936237042380798,
            56.227828545129
          ],
          [
            -4.995951939834316,
            56.229093051842177
          ],
          [
            -4.9992621574195022,
            56.229467806817574
          ],
          [
            -5.0028792023872164,
            56.229252681308537
          ],
          [
            -5.0062441631842347,
            56.229002364825426
          ],
          [
            -5.0095015027154073,
            56.228570734874822
          ],
          [
            -5.0129868553097969,
            56.228044380676607
          ],
          [
            -5.0160835113397617,
            56.22756962626783
          ],
          [
            -5.0193866623667471,
            56.226974559436137
          ],
          [
            -5.0221634018529828,
            56.226243521035379
          ],
          [
            -5.0245888547078978,
            56.225295904969414
          ],
          [
            -5.0245888547078978,
            56.225295904969414
          ],
          [
            -5.0270607977804271,
            56.224389342659549
          ],
          [
            -5.0295918589299129,
            56.223628718711126
          ],
          [
            -5.0320341306331056,
            56.222876174412825
          ],
          [
            -5.0340138198204283,
            56.221498741755575
          ],
          [
            -5.0363784956698696,
            56.220299313123022
          ],
          [
            -5.0384439031200392,
            56.21905665968584
          ],
          [
            -5.0408727780610025,
            56.217897716990763
          ],
          [
            -5.0428846271208574,
            56.216475603648519
          ],
          [
            -5.0450125584829708,
            56.215249613311542
          ],
          [
            -5.0473236680166726,
            56.213917279484676
          ],
          [
            -5.0498964111707929,
            56.212704418005032
          ],
          [
            -5.0528068597359601,
            56.211503357403458
          ],
          [
            -5.0555694396909407,
            56.210188090184978
          ],
          [
            -5.0577418740145115,
            56.208809288296777
          ],
          [
            -5.058920143795242,
            56.207124492931776
          ],
          [
            -5.0588857700271275,
            56.205229668331057
          ],
          [
            -5.0607677907492414,
            56.203583161222895
          ],
          [
            -5.0632214718865214,
            56.201987337647445
          ],
          [
            -5.0652291099588123,
            56.200430335562125
          ],
          [
            -5.0672860832152873,
            56.198683046465739
          ],
          [
            -5.0690266681703386,
            56.196941933712004
          ],
          [
            -5.0705951196169226,
            56.195203035078336
          ],
          [
            -5.0719920530677136,
            56.193190856411178
          ],
          [
            -5.073263391230423,
            56.191341400991718
          ],
          [
            -5.0744349212324344,
            56.189524254285885
          ],
          [
            -5.0758347838314348,
            56.187559650055618
          ],
          [
            -5.0771608754787634,
            56.185782206750289
          ],
          [
            -5.0784529628519071,
            56.183829684316883
          ],
          [
            -5.079241119252969,
            56.182735501362281
          ],
          [
            -5.0797775595967396,
            56.181788821015047
          ],
          [
            -5.0805363761275766,
            56.179965999707733
          ],
          [
            -5.0817414986670695,
            56.178247375317426
          ],
          [
            -5.0826475226206771,
            56.17672857194615
          ],
          [
            -5.0834953152318549,
            56.17531624532576
          ],
          [
            -5.0829682129096057,
            56.173548895669875
          ],
          [
            -5.0822850362540315,
            56.171774943392379
          ],
          [
            -5.0812415824360269,
            56.17017790487877
          ],
          [
            -5.0802886354038712,
            56.168906363474179
          ],
          [
            -5.078210589368334,
            56.16777368163536
          ],
          [
            -5.0749291541284594,
            56.167941708108302
          ],
          [
            -5.0716953273946324,
            56.167501536284675
          ],
          [
            -5.068763343403714,
            56.166675984855544
          ],
          [
            -5.0659374087203757,
            56.165892920578088
          ],
          [
            -5.063398212645021,
            56.164972895122048
          ],
          [
            -5.0622856496946858,
            56.163426525831866
          ],
          [
            -5.0619932867043076,
            56.161711546455649
          ],
          [
            -5.0614289677220556,
            56.159713217439993
          ],
          [
            -5.060341599812249,
            56.157948785211914
          ],
          [
            -5.0591096338384309,
            56.156072817424317
          ],
          [
            -5.0575617430768238,
            56.154381302280406
          ],
          [
            -5.0555215168027186,
            56.152944385406251
          ],
          [
            -5.0528800195503258,
            56.151595526353042
          ],
          [
            -5.0505378980913092,
            56.15030978016857
          ],
          [
            -5.0484397924966107,
            56.148671992893959
          ],
          [
            -5.04663325805019,
            56.147104031849729
          ],
          [
            -5.0446319762516181,
            56.14568118902811
          ],
          [
            -5.0426230076902723,
            56.144252177351817
          ],
          [
            -5.0407596755472115,
            56.142901779074258
          ],
          [
            -5.0407596755472115,
            56.142901779074258
          ],
          [
            -5.0396661098490023,
            56.14166979666048
          ],
          [
            -5.0388817864417206,
            56.140514471561211
          ],
          [
            -5.0383577352155724,
            56.139150814159862
          ],
          [
            -5.0368137582609327,
            56.137593762568699
          ],
          [
            -5.034424776882199,
            56.13628525849235
          ],
          [
            -5.0317666478888006,
            56.135167271929269
          ],
          [
            -5.028299914059045,
            56.134659584427283
          ],
          [
            -5.0254967693277219,
            56.133815036383083
          ],
          [
            -5.0229108038666084,
            56.132885317755623
          ],
          [
            -5.0205172659844219,
            56.131733994277177
          ],
          [
            -5.0187630589061136,
            56.130420889784922
          ],
          [
            -5.0171797793117507,
            56.129109616504373
          ],
          [
            -5.0159523213427546,
            56.127511440091617
          ],
          [
            -5.0143080374231896,
            56.125928261468317
          ],
          [
            -5.0123540494407184,
            56.124680544391794
          ],
          [
            -5.0102804011484388,
            56.123589313310063
          ],
          [
            -5.0079265626730365,
            56.122982177997322
          ],
          [
            -5.0053373903370115,
            56.12283265756929
          ],
          [
            -5.0038171685265604,
            56.121567265776392
          ],
          [
            -5.0020932974715286,
            56.120189560531358
          ],
          [
            -5.0001932007420171,
            56.119146390862682
          ],
          [
            -4.9986337228263684,
            56.118369277345366
          ],
          [
            -4.9977043397309551,
            56.116816607730165
          ],
          [
            -4.9967216735695654,
            56.115313736420518
          ],
          [
            -4.9957451541179543,
            56.113906539308182
          ],
          [
            -4.9942715857338458,
            56.112729220695059
          ],
          [
            -4.9920710998936855,
            56.111220627470381
          ],
          [
            -4.991324737172973,
            56.109953401826097
          ],
          [
            -4.9902527769642466,
            56.108496742676742
          ],
          [
            -4.9884511249559385,
            56.107102582290537
          ],
          [
            -4.9872897625320993,
            56.105433827522404
          ],
          [
            -4.9862723504769706,
            56.103644200370837
          ],
          [
            -4.9860390668984271,
            56.101770689756101
          ],
          [
            -4.9858533881487288,
            56.100011510237984
          ],
          [
            -4.986051123065149,
            56.098116291917748
          ],
          [
            -4.9867370054008866,
            56.096164432269845
          ],
          [
            -4.987396882026407,
            56.094512260672964
          ],
          [
            -4.9881211735644211,
            56.092705078580316
          ],
          [
            -4.9885152492110638,
            56.090956623685955
          ],
          [
            -4.9884362657760599,
            56.089009320750584
          ],
          [
            -4.9882315804080273,
            56.087053955372809
          ],
          [
            -4.9884302659617479,
            56.085295270837534
          ],
          [
            -4.9887275183078366,
            56.083665929868388
          ],
          [
            -4.9886799219635201,
            56.082139026363464
          ],
          [
            -4.9889258570354595,
            56.080602598281899
          ],
          [
            -4.9892341904091309,
            56.079025004619247
          ],
          [
            -4.9894690225735676,
            56.077306841204575
          ],
          [
            -4.9898213324720233,
            56.075528084447967
          ],
          [
            -4.9897701056964676,
            56.073968087055214
          ],
          [
            -4.9885917774083444,
            56.072490033871937
          ],
          [
            -4.9882413180178293,
            56.070743149900608
          ],
          [
            -4.9877618834143638,
            56.069154903496646
          ],
          [
            -4.987044390798463,
            56.067512608012684
          ],
          [
            -4.9871690988895807,
            56.06594131920577
          ],
          [
            -4.9863142356052093,
            56.064436097356662
          ],
          [
            -4.9855792557549767,
            56.063763558690965
          ],
          [
            -4.9849125277821269,
            56.063102035538982
          ],
          [
            -4.9837823168498971,
            56.061652883243397
          ],
          [
            -4.9836293941499106,
            56.060328320985931
          ],
          [
            -4.984685639606659,
            56.058263415028044
          ],
          [
            -4.9838748288426284,
            56.056846450132042
          ],
          [
            -4.9836585827171662,
            56.055379032404026
          ],
          [
            -4.9839261399579362,
            56.053909523495186
          ],
          [
            -4.9846921710618473,
            56.05253329338457
          ],
          [
            -4.9848404475244967,
            56.05112188152934
          ],
          [
            -4.9835078516012246,
            56.049787993008714
          ],
          [
            -4.9831847189773422,
            56.048276776259968
          ],
          [
            -4.9837337231428886,
            56.04684151741332
          ],
          [
            -4.9837242566533666,
            56.045331634058996
          ],
          [
            -4.9835819079447168,
            56.04346951800926
          ],
          [
            -4.9829305920218223,
            56.041465922199592
          ],
          [
            -4.9822804941630183,
            56.039633800667858
          ],
          [
            -4.9809431430322162,
            56.038155488684474
          ],
          [
            -4.9799039098006643,
            56.036495955683769
          ],
          [
            -4.9796789795955929,
            56.034800909672263
          ],
          [
            -4.9798081257876339,
            56.033185045851731
          ],
          [
            -4.9804683065018702,
            56.031751067680453
          ],
          [
            -4.9802963080271789,
            56.030330086310215
          ],
          [
            -4.9801459657382523,
            56.028918076306638
          ],
          [
            -4.9805478962055503,
            56.02724750331442
          ],
          [
            -4.9805365488147846,
            56.025694448164238
          ],
          [
            -4.9805467029358788,
            56.023976008370127
          ],
          [
            -4.9800954046966561,
            56.02302714785732
          ],
          [
            -4.9793743483615316,
            56.021513454039678
          ],
          [
            -4.97857383799336,
            56.020195101749124
          ],
          [
            -4.9749087285744187,
            56.016304907242393
          ]
        ]
      },
      "properties" : {
        "type" : "route",
        "end" : "2026-05-15T21:59:59Z",
        "source" : "Geory 5.3.2",
        "device" : "B9E47AEB-E54C-4563-96B6-06995DD4BC56 (iPhone 16 Pro)",
        "start" : "2026-05-14T22:00:00Z"
      },
      "type" : "Feature"
    }
  ],
  "type" : "FeatureCollection"
}