{
  "features" : [
    {
      "geometry" : {
        "type" : "Point",
        "coordinates" : [
          -7.3308142558244187,
          55.367371335968109
        ]
      },
      "properties" : {
        "address" : "Malin Head SPA, Malin Head, County Donegal, F93 ED30, Irland",
        "duration" : 53507.051242113113,
        "device" : "B9E47AEB-E54C-4563-96B6-06995DD4BC56 (iPhone 16 Pro)",
        "rating" : 0,
        "type" : "visit",
        "timestamp" : "2026-04-23T18:56:41Z",
        "departure" : "2026-04-24T09:48:28Z",
        "weather" : "Aufgelockert bewölkt (10,5 °C)",
        "arrival" : "2026-04-23T18:56:41Z",
        "source" : "Geory 5.3.2"
      },
      "type" : "Feature"
    },
    {
      "type" : "Feature",
      "geometry" : {
        "type" : "Point",
        "coordinates" : [
          -7.3304776778338274,
          55.323555266770924
        ]
      },
      "properties" : {
        "type" : "visit",
        "rating" : 0,
        "source" : "Geory 5.3.2",
        "departure" : "2026-04-24T10:39:07Z",
        "timestamp" : "2026-04-24T10:15:56Z",
        "address" : "North Inishowen Coast SAC, County Donegal, Irland",
        "weather" : "Leicht bewölkt (13,9 °C)",
        "duration" : 1391.1892876625061,
        "device" : "B9E47AEB-E54C-4563-96B6-06995DD4BC56 (iPhone 16 Pro)",
        "arrival" : "2026-04-24T10:15:56Z"
      }
    },
    {
      "geometry" : {
        "coordinates" : [
          -7.3246110318266133,
          55.321301591015434
        ],
        "type" : "Point"
      },
      "properties" : {
        "weather" : "Leicht bewölkt (15,8 °C)",
        "type" : "visit",
        "rating" : 0,
        "source" : "Geory 5.3.2",
        "timestamp" : "2026-04-24T11:44:46Z",
        "device" : "B9E47AEB-E54C-4563-96B6-06995DD4BC56 (iPhone 16 Pro)",
        "address" : "North Inishowen Coast SAC, County Donegal, Irland",
        "arrival" : "2026-04-24T11:44:46Z",
        "departure" : "2026-04-24T12:15:48Z",
        "duration" : 1861.3038489818573
      },
      "type" : "Feature"
    },
    {
      "properties" : {
        "address" : "North Inishowen Coast SAC, County Donegal, Irland",
        "duration" : 20087.121659040451,
        "weather" : "Bedeckter Himmel (15,7 °C)",
        "rating" : 0,
        "timestamp" : "2026-04-24T13:00:47Z",
        "source" : "Geory 5.3.2",
        "device" : "B9E47AEB-E54C-4563-96B6-06995DD4BC56 (iPhone 16 Pro)",
        "type" : "visit",
        "arrival" : "2026-04-24T13:00:47Z",
        "departure" : "2026-04-24T18:35:35Z"
      },
      "type" : "Feature",
      "geometry" : {
        "type" : "Point",
        "coordinates" : [
          -7.3733960890924521,
          55.310641538670488
        ]
      }
    },
    {
      "geometry" : {
        "type" : "Point",
        "coordinates" : [
          -7.3756847539979047,
          55.304518550877361
        ]
      },
      "type" : "Feature",
      "properties" : {
        "duration" : 4878.7100148200989,
        "device" : "B9E47AEB-E54C-4563-96B6-06995DD4BC56 (iPhone 16 Pro)",
        "source" : "Geory 5.3.2",
        "weather" : "Klarer Himmel (13,3 °C)",
        "arrival" : "2026-04-24T19:12:34Z",
        "type" : "visit",
        "address" : "Pollan Strand, Irland",
        "timestamp" : "2026-04-24T19:12:34Z",
        "rating" : 0,
        "departure" : "2026-04-24T20:33:53Z"
      }
    },
    {
      "properties" : {
        "device" : "B9E47AEB-E54C-4563-96B6-06995DD4BC56 (iPhone 16 Pro)",
        "address" : "North Inishowen Coast SAC, County Donegal, Irland",
        "duration" : 50293.694680213928,
        "type" : "visit",
        "departure" : "2026-04-25T10:39:23Z",
        "weather" : "Aufgelockert bewölkt (10,6 °C)",
        "arrival" : "2026-04-24T20:41:09Z",
        "rating" : 0,
        "timestamp" : "2026-04-24T20:41:09Z",
        "source" : "Geory 5.3.2"
      },
      "geometry" : {
        "coordinates" : [
          -7.3734055933679876,
          55.310640677619233
        ],
        "type" : "Point"
      },
      "type" : "Feature"
    },
    {
      "type" : "Feature",
      "geometry" : {
        "type" : "LineString",
        "coordinates" : [
          [
            -7.3734055933679876,
            55.310640677619233
          ],
          [
            -7.3748990340577967,
            55.308701455602566
          ],
          [
            -7.374610733843908,
            55.307767076036463
          ],
          [
            -7.3751323662545447,
            55.306222903653513
          ],
          [
            -7.3756847539979047,
            55.304518550877361
          ],
          [
            -7.3734158645070735,
            55.310652084685792
          ],
          [
            -7.3734158645070735,
            55.310652084685792
          ],
          [
            -7.3734158645070735,
            55.310652084685792
          ],
          [
            -7.3755208745694159,
            55.305728573735017
          ],
          [
            -7.3751024307465576,
            55.307429870063984
          ],
          [
            -7.3747971781252666,
            55.308194838921786
          ],
          [
            -7.3741855632639766,
            55.309158467401062
          ],
          [
            -7.3741855632639766,
            55.309158467401062
          ],
          [
            -7.3733960890924521,
            55.310641538670488
          ],
          [
            -7.3731813500000003,
            55.310940433333322
          ],
          [
            -7.3737952500000006,
            55.311725899999992
          ],
          [
            -7.3744793999999994,
            55.312319549999998
          ],
          [
            -7.3748681076991582,
            55.313018207636262
          ],
          [
            -7.374506283333333,
            55.313898599999987
          ],
          [
            -7.3745379723856619,
            55.314799434653118
          ],
          [
            -7.3735773834085698,
            55.315516333136095
          ],
          [
            -7.371371619034341,
            55.316006030492893
          ],
          [
            -7.3706130092744084,
            55.316214834794991
          ],
          [
            -7.3690439805262473,
            55.316401280121816
          ],
          [
            -7.3674458632003148,
            55.316427613622757
          ],
          [
            -7.3658345795106888,
            55.316425795478509
          ],
          [
            -7.3641550666666653,
            55.316382750000002
          ],
          [
            -7.3625083499999988,
            55.316317216666661
          ],
          [
            -7.3608136999999996,
            55.31623488333333
          ],
          [
            -7.3590172333333328,
            55.316117433333332
          ],
          [
            -7.3572737666666663,
            55.315703249999999
          ],
          [
            -7.3558520166666677,
            55.315302500000008
          ],
          [
            -7.3537194166666664,
            55.315131233333346
          ],
          [
            -7.3516960166666667,
            55.315031200000007
          ],
          [
            -7.3499629166666676,
            55.315042183333325
          ],
          [
            -7.348355999999999,
            55.314954133333337
          ],
          [
            -7.3473666538639995,
            55.314184373957573
          ],
          [
            -7.3464304054131064,
            55.313393054566859
          ],
          [
            -7.3453976833333341,
            55.312688199999997
          ],
          [
            -7.3441856166666657,
            55.312031583333322
          ],
          [
            -7.3425360333333325,
            55.31180388333334
          ],
          [
            -7.3410905333333325,
            55.311576466666672
          ],
          [
            -7.3394864660850905,
            55.311196707964548
          ],
          [
            -7.3379473856792838,
            55.310788564387458
          ],
          [
            -7.338275966666667,
            55.309884750000009
          ],
          [
            -7.3387162666666672,
            55.308846666666675
          ],
          [
            -7.3393086999999992,
            55.30781111666667
          ],
          [
            -7.3401271166666673,
            55.306699183333329
          ],
          [
            -7.3404052436763649,
            55.30578165800258
          ],
          [
            -7.3395499031218723,
            55.304697716040152
          ],
          [
            -7.3387371848571581,
            55.303630396031394
          ],
          [
            -7.3381748226687158,
            55.302633863808062
          ],
          [
            -7.3375931662940808,
            55.301491897879806
          ],
          [
            -7.337139960266617,
            55.300564356180494
          ],
          [
            -7.3369927844357354,
            55.299632873071367
          ],
          [
            -7.336813040181295,
            55.298586575404741
          ],
          [
            -7.3366095833333347,
            55.29755553333333
          ],
          [
            -7.336611566666666,
            55.296597433333332
          ],
          [
            -7.336805899999999,
            55.29558651666666
          ],
          [
            -7.3370637333333342,
            55.294644533333333
          ],
          [
            -7.3371950166666675,
            55.293645466666675
          ],
          [
            -7.3372205441976179,
            55.29244539854821
          ],
          [
            -7.3386801666666672,
            55.291662866666663
          ],
          [
            -7.3406366833333339,
            55.291488183333335
          ],
          [
            -7.3424385714641121,
            55.291166856797126
          ],
          [
            -7.3440606566624806,
            55.290910123565787
          ],
          [
            -7.3455865499999993,
            55.291179566666671
          ],
          [
            -7.3478192410699732,
            55.291918007717911
          ],
          [
            -7.3492915831587196,
            55.292134166737441
          ],
          [
            -7.350957071509181,
            55.292376697698749
          ],
          [
            -7.3526313329309669,
            55.291374545904674
          ],
          [
            -7.354124733259308,
            55.290148665387775
          ],
          [
            -7.3558821120921651,
            55.288693331803593
          ],
          [
            -7.3576401121785802,
            55.287252751469104
          ],
          [
            -7.3589675460223232,
            55.286170013712784
          ],
          [
            -7.359941216666666,
            55.285384499999992
          ],
          [
            -7.3576517000000008,
            55.284483366666663
          ],
          [
            -7.3556184499999988,
            55.283454583333338
          ],
          [
            -7.3534728333333321,
            55.282495916666662
          ],
          [
            -7.3515692833333341,
            55.281563716666675
          ],
          [
            -7.3496460166666653,
            55.28040111666666
          ],
          [
            -7.3474303833333332,
            55.279628633333338
          ],
          [
            -7.3448711833333338,
            55.279010199999995
          ],
          [
            -7.3424753500000008,
            55.278179249999987
          ],
          [
            -7.3398833833333335,
            55.277291216666661
          ],
          [
            -7.3372608833333333,
            55.27679628333334
          ],
          [
            -7.3343317166666653,
            55.276332333333329
          ],
          [
            -7.3315636000000008,
            55.275978500000008
          ],
          [
            -7.328901366666666,
            55.275555799999999
          ],
          [
            -7.3264194666666667,
            55.275119583333328
          ],
          [
            -7.3237856666666667,
            55.274664966666663
          ],
          [
            -7.3211863499999987,
            55.274617283333328
          ],
          [
            -7.3181731666666652,
            55.274577783333335
          ],
          [
            -7.3154084166666662,
            55.27422511666667
          ],
          [
            -7.3130101000000005,
            55.273577716666658
          ],
          [
            -7.3099639500000002,
            55.272746850000004
          ],
          [
            -7.3082819166666662,
            55.272305733333326
          ],
          [
            -7.3058977666666669,
            55.27137771666667
          ],
          [
            -7.3037586833333323,
            55.270421800000001
          ],
          [
            -7.3014047333333334,
            55.269333700000004
          ],
          [
            -7.2993310833333345,
            55.268396033333332
          ],
          [
            -7.2970801666666656,
            55.267399783333339
          ],
          [
            -7.295078366666667,
            55.266523933333339
          ],
          [
            -7.2935196666666666,
            55.265819083333326
          ],
          [
            -7.2919096333333338,
            55.265637950000006
          ],
          [
            -7.2906968333333335,
            55.266488250000009
          ],
          [
            -7.2895692666666667,
            55.267255283333327
          ],
          [
            -7.2881026333333336,
            55.267667349999996
          ],
          [
            -7.2865423333333332,
            55.268327883333335
          ],
          [
            -7.283865566666667,
            55.268551516666669
          ],
          [
            -7.2812832166666661,
            55.268800449999993
          ],
          [
            -7.2785380166666656,
            55.269074233333335
          ],
          [
            -7.2759895166666677,
            55.269334550000004
          ],
          [
            -7.2733235333333335,
            55.269644450000001
          ],
          [
            -7.2708316333333336,
            55.269882850000009
          ],
          [
            -7.2682438333333348,
            55.270139683333333
          ],
          [
            -7.2657787500000008,
            55.270372166666661
          ],
          [
            -7.2634842499999994,
            55.270609749999998
          ],
          [
            -7.2614624666666669,
            55.270809716666662
          ],
          [
            -7.2595684499999997,
            55.27101518333334
          ],
          [
            -7.2578955833333341,
            55.27121176666666
          ],
          [
            -7.256179033333332,
            55.271266383333341
          ],
          [
            -7.2539357499999992,
            55.271578550000001
          ],
          [
            -7.2529843000000014,
            55.271737216666658
          ],
          [
            -7.2513804499999992,
            55.271984450000005
          ],
          [
            -7.2496982333333326,
            55.27223455
          ],
          [
            -7.2482177833333328,
            55.272686499999999
          ],
          [
            -7.2474275532703718,
            55.274105606786101
          ],
          [
            -7.2465801000000001,
            55.275668549999999
          ],
          [
            -7.2457845333333335,
            55.277166050000005
          ],
          [
            -7.2460713833333328,
            55.278745416666666
          ],
          [
            -7.2480681000000002,
            55.279795849999999
          ],
          [
            -7.2502902166666674,
            55.28064091666667
          ],
          [
            -7.2522485000000003,
            55.281848516666663
          ],
          [
            -7.25404055,
            55.283217866666675
          ],
          [
            -7.2554167333333339,
            55.284716449999998
          ],
          [
            -7.2563712333333346,
            55.286200333333333
          ],
          [
            -7.2570753666666672,
            55.287734450000002
          ],
          [
            -7.2579144666666666,
            55.289350933333324
          ],
          [
            -7.2586637011026109,
            55.290839038498916
          ],
          [
            -7.259364183333334,
            55.292170916666663
          ],
          [
            -7.2598117166666665,
            55.293196966666663
          ],
          [
            -7.2603828999999998,
            55.29412991666667
          ],
          [
            -7.2614619500000002,
            55.294831850000008
          ],
          [
            -7.2630690499999995,
            55.294981916666664
          ],
          [
            -7.2646949000000012,
            55.295032899999995
          ],
          [
            -7.2658937333333338,
            55.294093599999997
          ],
          [
            -7.2680384000000009,
            55.293307833333337
          ],
          [
            -7.2697432499999994,
            55.293124616666667
          ],
          [
            -7.2724363666666667,
            55.293375050000002
          ],
          [
            -7.2750659166666667,
            55.294154266666666
          ],
          [
            -7.2774632499999994,
            55.294899350000001
          ],
          [
            -7.2796742166666659,
            55.29594010000001
          ],
          [
            -7.2816911333333341,
            55.297002366666661
          ],
          [
            -7.2841444500000003,
            55.297921300000006
          ],
          [
            -7.2868909100502286,
            55.298871972346276
          ],
          [
            -7.2893459593125041,
            55.299708519010387
          ],
          [
            -7.2917198414972537,
            55.300517959703043
          ],
          [
            -7.2938850000000004,
            55.301303249999997
          ],
          [
            -7.2957780499999991,
            55.30249813333333
          ],
          [
            -7.2982002333333336,
            55.303486599999999
          ],
          [
            -7.3004515500000009,
            55.304337033333333
          ],
          [
            -7.3026232833333324,
            55.305069050000007
          ],
          [
            -7.3045774666666663,
            55.305795750000001
          ],
          [
            -7.3065457499999997,
            55.306470216666675
          ],
          [
            -7.3081908726929026,
            55.306982510921124
          ],
          [
            -7.3097984728668903,
            55.307903200354161
          ],
          [
            -7.311521669504911,
            55.308875197903326
          ],
          [
            -7.3130293755817384,
            55.309725199895979
          ],
          [
            -7.3147739905814095,
            55.310341340566303
          ],
          [
            -7.316388166666667,
            55.310953550000008
          ],
          [
            -7.3182023063212567,
            55.311593119215019
          ],
          [
            -7.3199900499999995,
            55.312143266666666
          ],
          [
            -7.3203928833333327,
            55.313253249999995
          ],
          [
            -7.3209469499999997,
            55.314170116666673
          ],
          [
            -7.3218335999999997,
            55.315459066666669
          ],
          [
            -7.3224943353929852,
            55.316896827822958
          ],
          [
            -7.3225481278082496,
            55.317912064053196
          ],
          [
            -7.3246110318266133,
            55.321301591015434
          ],
          [
            -7.3285761815344452,
            55.322687920948241
          ],
          [
            -7.3310250035286497,
            55.324071469181419
          ],
          [
            -7.3320816589365547,
            55.323763454716243
          ],
          [
            -7.3319526641466837,
            55.322592684835357
          ],
          [
            -7.3318425649536065,
            55.321690934563556
          ],
          [
            -7.3318297859375816,
            55.320518388025029
          ],
          [
            -7.3315922627459633,
            55.319401859945899
          ],
          [
            -7.3321267127494805,
            55.318169801849798
          ],
          [
            -7.3326470226134903,
            55.317092843373302
          ],
          [
            -7.3328231247558078,
            55.315974477721362
          ],
          [
            -7.3328231247558078,
            55.315974477721362
          ],
          [
            -7.3327962086224128,
            55.314864046638029
          ],
          [
            -7.3317715284731264,
            55.313242257631366
          ],
          [
            -7.3310977034437892,
            55.312415466507126
          ],
          [
            -7.3301667281019665,
            55.311525181814581
          ],
          [
            -7.3335040559157552,
            55.310297099171471
          ],
          [
            -7.3291535152049798,
            55.311128732646814
          ],
          [
            -7.3290481212422725,
            55.311129432889786
          ],
          [
            -7.3307436956385681,
            55.312404117556049
          ],
          [
            -7.3320097229677446,
            55.313330346762228
          ],
          [
            -7.3327507635742526,
            55.313876200949537
          ],
          [
            -7.3331204471406233,
            55.314757658784586
          ],
          [
            -7.3332509899525746,
            55.315216033221517
          ],
          [
            -7.3330172664548767,
            55.315656247939984
          ],
          [
            -7.3325560936463638,
            55.316515556449481
          ],
          [
            -7.3321771792292703,
            55.317390348220776
          ],
          [
            -7.3320102813937931,
            55.318284234494236
          ],
          [
            -7.3319647859791273,
            55.319182786166365
          ],
          [
            -7.332012151349705,
            55.320086326725068
          ],
          [
            -7.3320761057286843,
            55.320991283079593
          ],
          [
            -7.3323522485874397,
            55.321784808786262
          ],
          [
            -7.3304776778338274,
            55.323555266770924
          ],
          [
            -7.323912833333333,
            55.321165700000002
          ],
          [
            -7.322543416666667,
            55.320720933333327
          ],
          [
            -7.3213102833333341,
            55.319845466666656
          ],
          [
            -7.321083616666666,
            55.320901900000003
          ],
          [
            -7.3206259137152321,
            55.322152384668364
          ],
          [
            -7.3199262166666665,
            55.323078349999996
          ],
          [
            -7.3181002833333331,
            55.32344628333334
          ],
          [
            -7.315560266666667,
            55.323656066666672
          ],
          [
            -7.3132407500000003,
            55.324400399999995
          ],
          [
            -7.3117362499999992,
            55.325317399999996
          ],
          [
            -7.3106901880030764,
            55.326488040263278
          ],
          [
            -7.3100060666666673,
            55.327805350000006
          ],
          [
            -7.3092477166666656,
            55.329153700000006
          ],
          [
            -7.3076323000000007,
            55.330069383333331
          ],
          [
            -7.3053293333333329,
            55.330474350000003
          ],
          [
            -7.3022519166666671,
            55.330684999999995
          ],
          [
            -7.3006303666666668,
            55.330774066666663
          ],
          [
            -7.2993234712617516,
            55.331339311865705
          ],
          [
            -7.2981198833333334,
            55.331943233333334
          ],
          [
            -7.2967643333333339,
            55.33243086666667
          ],
          [
            -7.2952374000000004,
            55.332838733333332
          ],
          [
            -7.2936323333333331,
            55.333062599999991
          ],
          [
            -7.2920268000000004,
            55.333187783333344
          ],
          [
            -7.2903468833333331,
            55.333147449999991
          ],
          [
            -7.2887410666666668,
            55.332982400000006
          ],
          [
            -7.2871248833333331,
            55.332797200000002
          ],
          [
            -7.2854863730845327,
            55.332993565006028
          ],
          [
            -7.2861141999999992,
            55.333882250000002
          ],
          [
            -7.2865087333333332,
            55.334782133333334
          ],
          [
            -7.2874091666666665,
            55.335535516666674
          ],
          [
            -7.2885717333333337,
            55.336452716666656
          ],
          [
            -7.2896925333333344,
            55.337357183333339
          ],
          [
            -7.2910764181479477,
            55.337869059062825
          ],
          [
            -7.2929869162277745,
            55.337859654736356
          ],
          [
            -7.2947781746191902,
            55.337849069092123
          ],
          [
            -7.2968676110334743,
            55.337866482847524
          ],
          [
            -7.2991066652324852,
            55.338177896768357
          ],
          [
            -7.3008309496940473,
            55.338923241618865
          ],
          [
            -7.3021275333333335,
            55.340053966666666
          ],
          [
            -7.3031944500000012,
            55.341095833333334
          ],
          [
            -7.3040227166666662,
            55.341988850000007
          ],
          [
            -7.3056428499999999,
            55.343120049999996
          ],
          [
            -7.3071615000000012,
            55.344192766666659
          ],
          [
            -7.308724066777275,
            55.345333629139169
          ],
          [
            -7.3101082212599877,
            55.346303606614804
          ],
          [
            -7.3114393453262023,
            55.347234638750123
          ],
          [
            -7.3126404580147755,
            55.348090991139294
          ],
          [
            -7.3135742581481731,
            55.348874171666061
          ],
          [
            -7.314526033356576,
            55.349621642738136
          ],
          [
            -7.3161774553284715,
            55.350515637742987
          ],
          [
            -7.3177118399316461,
            55.351321750205244
          ],
          [
            -7.3193616009350748,
            55.352193470476315
          ],
          [
            -7.3209651663184481,
            55.352937177353745
          ],
          [
            -7.3229552206889474,
            55.353695664809727
          ],
          [
            -7.3247719302313969,
            55.354497212876289
          ],
          [
            -7.3264582000000003,
            55.355164250000009
          ],
          [
            -7.328198200000001,
            55.356115233333341
          ],
          [
            -7.329732473338197,
            55.356985588731156
          ],
          [
            -7.3311418995921578,
            55.357767961598157
          ],
          [
            -7.332315999440965,
            55.358549356829513
          ],
          [
            -7.3333684813597975,
            55.359421518397653
          ],
          [
            -7.3343648066243405,
            55.360250048226938
          ],
          [
            -7.3354017617866552,
            55.361130421568916
          ],
          [
            -7.3363524887322109,
            55.361926300355591
          ],
          [
            -7.3374499224709,
            55.362913508457162
          ],
          [
            -7.3378179772194869,
            55.363793086064511
          ],
          [
            -7.3380257393044532,
            55.364695657336107
          ],
          [
            -7.3369744166666671,
            55.365442299999998
          ],
          [
            -7.3353054666666662,
            55.365645833333339
          ],
          [
            -7.3308142558244187,
            55.367371335968109
          ]
        ]
      },
      "properties" : {
        "start" : "2026-04-23T22:00:00Z",
        "end" : "2026-04-24T21:59:59Z",
        "type" : "route",
        "source" : "Geory 5.3.2",
        "device" : "B9E47AEB-E54C-4563-96B6-06995DD4BC56 (iPhone 16 Pro)"
      }
    }
  ],
  "type" : "FeatureCollection"
}