{
  "features" : [
    {
      "geometry" : {
        "type" : "Point",
        "coordinates" : [
          -7.7016121293864588,
          55.247650893603698
        ]
      },
      "properties" : {
        "arrival" : "2026-04-28T20:54:37Z",
        "source" : "Geory 5.3.2",
        "device" : "B9E47AEB-E54C-4563-96B6-06995DD4BC56 (iPhone 16 Pro)",
        "departure" : "2026-04-29T11:04:26Z",
        "address" : "Ballyhoorisky Point To Fanad Head SAC, County Donegal, Irland",
        "rating" : 0,
        "duration" : 50988.443881750107,
        "weather" : "Aufgelockert bewölkt (10,5 °C)",
        "timestamp" : "2026-04-28T20:54:37Z",
        "type" : "visit"
      },
      "type" : "Feature"
    },
    {
      "geometry" : {
        "type" : "Point",
        "coordinates" : [
          -7.8009086386332136,
          55.166250045864871
        ]
      },
      "properties" : {
        "device" : "B9E47AEB-E54C-4563-96B6-06995DD4BC56 (iPhone 16 Pro)",
        "departure" : "2026-04-29T12:46:21Z",
        "timestamp" : "2026-04-29T12:07:45Z",
        "type" : "visit",
        "arrival" : "2026-04-29T12:07:45Z",
        "duration" : 2315.9915101528168,
        "source" : "Geory 5.3.2",
        "weather" : "Leicht bewölkt (13,7 °C)",
        "address" : "Umlagh, Carrigart, County Donegal, F92 VY05, Irland",
        "rating" : 0
      },
      "type" : "Feature"
    },
    {
      "properties" : {
        "weather" : "Leicht bewölkt (13,5 °C)",
        "timestamp" : "2026-04-29T13:02:47Z",
        "source" : "Geory 5.3.2",
        "rating" : 0,
        "duration" : 2367.2445869445801,
        "type" : "visit",
        "device" : "B9E47AEB-E54C-4563-96B6-06995DD4BC56 (iPhone 16 Pro)",
        "departure" : "2026-04-29T13:42:14Z",
        "arrival" : "2026-04-29T13:02:47Z",
        "address" : "Tranarossan and Melmore Lough SAC, County Donegal, Irland"
      },
      "geometry" : {
        "coordinates" : [
          -7.7965167197936971,
          55.225095431681538
        ],
        "type" : "Point"
      },
      "type" : "Feature"
    },
    {
      "properties" : {
        "source" : "Geory 5.3.2",
        "rating" : 0,
        "departure" : "2026-04-29T14:15:11Z",
        "address" : "Tranarossan and Melmore Lough SAC, County Donegal, Irland",
        "timestamp" : "2026-04-29T13:55:38Z",
        "weather" : "Leicht bewölkt (13,9 °C)",
        "type" : "visit",
        "device" : "B9E47AEB-E54C-4563-96B6-06995DD4BC56 (iPhone 16 Pro)",
        "arrival" : "2026-04-29T13:55:38Z",
        "duration" : 1172.6975748538971
      },
      "type" : "Feature",
      "geometry" : {
        "coordinates" : [
          -7.7972320184041646,
          55.223880896754501
        ],
        "type" : "Point"
      }
    },
    {
      "geometry" : {
        "coordinates" : [
          -7.7966195276415293,
          55.223763438561001
        ],
        "type" : "Point"
      },
      "properties" : {
        "source" : "Geory 5.3.2",
        "address" : "Tranarossan and Melmore Lough SAC, Irland",
        "weather" : "Leicht bewölkt (13,9 °C)",
        "device" : "B9E47AEB-E54C-4563-96B6-06995DD4BC56 (iPhone 16 Pro)",
        "timestamp" : "2026-04-29T14:15:46Z",
        "duration" : 5774.2509598731995,
        "rating" : 0,
        "departure" : "2026-04-29T15:52:00Z",
        "type" : "visit",
        "arrival" : "2026-04-29T14:15:46Z"
      },
      "type" : "Feature"
    },
    {
      "type" : "Feature",
      "geometry" : {
        "type" : "Point",
        "coordinates" : [
          -7.7966585179361019,
          55.223570251239465
        ]
      },
      "properties" : {
        "source" : "Geory 5.3.2",
        "address" : "Tranarossan and Melmore Lough SAC, Irland",
        "type" : "visit",
        "timestamp" : "2026-04-29T15:59:37Z",
        "departure" : "2026-04-29T17:16:59Z",
        "rating" : 0,
        "device" : "B9E47AEB-E54C-4563-96B6-06995DD4BC56 (iPhone 16 Pro)",
        "weather" : "Klarer Himmel (13,7 °C)",
        "duration" : 4641.922511100769,
        "arrival" : "2026-04-29T15:59:37Z"
      }
    },
    {
      "geometry" : {
        "type" : "Point",
        "coordinates" : [
          -7.7968821899770635,
          55.223256868591761
        ]
      },
      "type" : "Feature",
      "properties" : {
        "departure" : "2026-04-30T04:24:55Z",
        "duration" : 38649.604167699814,
        "rating" : 0,
        "source" : "Geory 5.3.2",
        "timestamp" : "2026-04-29T17:40:45Z",
        "weather" : "Klarer Himmel (12,9 °C)",
        "address" : "Tranarossan and Melmore Lough SAC, Irland",
        "arrival" : "2026-04-29T17:40:45Z",
        "type" : "visit",
        "device" : "B9E47AEB-E54C-4563-96B6-06995DD4BC56 (iPhone 16 Pro)"
      }
    },
    {
      "geometry" : {
        "coordinates" : [
          [
            -7.7968821899770635,
            55.223256868591761
          ],
          [
            -7.79087898169346,
            55.22566762825268
          ],
          [
            -7.7916582316123266,
            55.226832618553161
          ],
          [
            -7.796753796426052,
            55.22550133761434
          ],
          [
            -7.796753796426052,
            55.22550133761434
          ],
          [
            -7.7923321233689382,
            55.227274470076964
          ],
          [
            -7.7927344291390579,
            55.227360845312205
          ],
          [
            -7.7924497837326641,
            55.227306434837232
          ],
          [
            -7.7927253833298993,
            55.228193789612327
          ],
          [
            -7.7919991661312409,
            55.226942662009705
          ],
          [
            -7.7909982802391173,
            55.226298919835557
          ],
          [
            -7.79087229428215,
            55.225860742345425
          ],
          [
            -7.7919310228326903,
            55.225259089866654
          ],
          [
            -7.7966585179361019,
            55.223570251239465
          ],
          [
            -7.7964026570837524,
            55.2237579003653
          ],
          [
            -7.7964529605661994,
            55.223698457212301
          ],
          [
            -7.7964198979601482,
            55.223758707236215
          ],
          [
            -7.7964039023073104,
            55.223707663554677
          ],
          [
            -7.7976668246588519,
            55.224973204042549
          ],
          [
            -7.7975586144389251,
            55.225122284204076
          ],
          [
            -7.7964351481713194,
            55.223702098745726
          ],
          [
            -7.7966195276415293,
            55.223763438561001
          ],
          [
            -7.7972320184041646,
            55.223880896754501
          ],
          [
            -7.7974326833333327,
            55.225467466666672
          ],
          [
            -7.7985845166666667,
            55.226618033333338
          ],
          [
            -7.7965167197936971,
            55.225095431681538
          ],
          [
            -7.7975803010601892,
            55.225700895907877
          ],
          [
            -7.7983112326071895,
            55.226666589255771
          ],
          [
            -7.7990441999999991,
            55.227233200000001
          ],
          [
            -7.8001877628017517,
            55.227661924787057
          ],
          [
            -7.8017620388066229,
            55.227802268621055
          ],
          [
            -7.8030279715077597,
            55.226686203253138
          ],
          [
            -7.8042380196977872,
            55.225534111062245
          ],
          [
            -7.8054964500000006,
            55.224283800000002
          ],
          [
            -7.8066624333333339,
            55.223170700000004
          ],
          [
            -7.8074723000000006,
            55.222259899999997
          ],
          [
            -7.8072395166666677,
            55.221351300000002
          ],
          [
            -7.807253066666668,
            55.220374583333324
          ],
          [
            -7.8082547266623692,
            55.219666585403296
          ],
          [
            -7.8093191574570637,
            55.218997412631367
          ],
          [
            -7.8103875862581429,
            55.218298116785888
          ],
          [
            -7.8115329399263613,
            55.217632976639337
          ],
          [
            -7.8128624990289159,
            55.217062353246945
          ],
          [
            -7.814096583333332,
            55.216401050000002
          ],
          [
            -7.8140551333333335,
            55.21544071666667
          ],
          [
            -7.8144721833333337,
            55.214556966666663
          ],
          [
            -7.8145426999999996,
            55.213448233333338
          ],
          [
            -7.8146731666666671,
            55.212470766666662
          ],
          [
            -7.8159452566849188,
            55.211832673937316
          ],
          [
            -7.8176181333333341,
            55.211703616666668
          ],
          [
            -7.8178908999999992,
            55.210599333333327
          ],
          [
            -7.8177941166666658,
            55.209507699999989
          ],
          [
            -7.8178888833333335,
            55.208170466666658
          ],
          [
            -7.8170761080009132,
            55.207101541857583
          ],
          [
            -7.8151478311974092,
            55.206508537535875
          ],
          [
            -7.8135882134147776,
            55.205627677866346
          ],
          [
            -7.8135954000000005,
            55.204437283333327
          ],
          [
            -7.8150370084381162,
            55.203587477224701
          ],
          [
            -7.8161666228976348,
            55.20270263469844
          ],
          [
            -7.8172544858376609,
            55.20149082190229
          ],
          [
            -7.8183211333333347,
            55.200648333333326
          ],
          [
            -7.8189171595045082,
            55.199463846287053
          ],
          [
            -7.8196277512667107,
            55.198339384586554
          ],
          [
            -7.8208835395348881,
            55.197129639030052
          ],
          [
            -7.8211854999999995,
            55.196128866666669
          ],
          [
            -7.8212678666666671,
            55.195607566666666
          ],
          [
            -7.8208014666666674,
            55.194525133333343
          ],
          [
            -7.8199332833333344,
            55.193563083333324
          ],
          [
            -7.8198897000000001,
            55.19243401666666
          ],
          [
            -7.8195315999999995,
            55.191341566666672
          ],
          [
            -7.8178099333333329,
            55.190506666666671
          ],
          [
            -7.8160313666666665,
            55.189337183333329
          ],
          [
            -7.8150998833333327,
            55.187957000000004
          ],
          [
            -7.8141731333333331,
            55.186511950000011
          ],
          [
            -7.8135335999999995,
            55.185359616666666
          ],
          [
            -7.8130941000000007,
            55.184473566666668
          ],
          [
            -7.8122070833333339,
            55.182898899999991
          ],
          [
            -7.811257878035847,
            55.181369602467164
          ],
          [
            -7.8103242748968729,
            55.179904947477588
          ],
          [
            -7.8094433792103679,
            55.17849702935812
          ],
          [
            -7.8084454499999989,
            55.177260783333331
          ],
          [
            -7.8060598000000008,
            55.176486083333344
          ],
          [
            -7.8035857666666661,
            55.175798416666673
          ],
          [
            -7.8014981795739571,
            55.17525996340067
          ],
          [
            -7.7994247525249438,
            55.17539422155933
          ],
          [
            -7.7977585493081003,
            55.17533859235278
          ],
          [
            -7.7989593881092452,
            55.174475980084075
          ],
          [
            -7.7994636425897594,
            55.173578599007776
          ],
          [
            -7.7997583404245878,
            55.172680423149849
          ],
          [
            -7.8000157582390184,
            55.17171517294436
          ],
          [
            -7.8003102194250005,
            55.170560179210028
          ],
          [
            -7.8005390526147247,
            55.169702613564368
          ],
          [
            -7.8008104431636598,
            55.168759752927166
          ],
          [
            -7.8008536984088614,
            55.167851196165138
          ],
          [
            -7.8009086386332136,
            55.166250045864871
          ],
          [
            -7.800057633333334,
            55.171325833333334
          ],
          [
            -7.7997709666666672,
            55.172378850000001
          ],
          [
            -7.7995340000000004,
            55.173269116666674
          ],
          [
            -7.7986672499999994,
            55.174619050000004
          ],
          [
            -7.7970833666666675,
            55.175582616666667
          ],
          [
            -7.7958350999999997,
            55.176266249999998
          ],
          [
            -7.7947455833333343,
            55.176939250000004
          ],
          [
            -7.7935212499999995,
            55.177569750000004
          ],
          [
            -7.7919306166666678,
            55.176993366666665
          ],
          [
            -7.7902490999999996,
            55.17640076666666
          ],
          [
            -7.7878684666666667,
            55.176162433333332
          ],
          [
            -7.78518855,
            55.175999166666664
          ],
          [
            -7.782259616666666,
            55.175972350000002
          ],
          [
            -7.7790836166666661,
            55.175931200000001
          ],
          [
            -7.7764065499999999,
            55.175894966666661
          ],
          [
            -7.7729819666666664,
            55.17574823333333
          ],
          [
            -7.7707064999999993,
            55.175594416666669
          ],
          [
            -7.7688469999999992,
            55.175974966666672
          ],
          [
            -7.7689555166666668,
            55.177579233333333
          ],
          [
            -7.7685509499999998,
            55.179310133333331
          ],
          [
            -7.7674928666666672,
            55.180865800000007
          ],
          [
            -7.7656413000000004,
            55.182084500000009
          ],
          [
            -7.7647852333333329,
            55.183438949999996
          ],
          [
            -7.7646813333333347,
            55.184913400000006
          ],
          [
            -7.7645868666666678,
            55.186582683333334
          ],
          [
            -7.764504633333333,
            55.188103450000007
          ],
          [
            -7.7644150500000011,
            55.189604049999993
          ],
          [
            -7.7643157333333326,
            55.191083183333326
          ],
          [
            -7.7646554500000002,
            55.192438700000004
          ],
          [
            -7.7657133000000007,
            55.19344718333334
          ],
          [
            -7.7670255333333333,
            55.194280766666665
          ],
          [
            -7.7676323000000007,
            55.195370633333333
          ],
          [
            -7.7675472333333326,
            55.196561333333328
          ],
          [
            -7.7679516666666659,
            55.197784133333336
          ],
          [
            -7.7683979333333335,
            55.198935866666666
          ],
          [
            -7.7688970666666659,
            55.200162016666674
          ],
          [
            -7.7688871166666669,
            55.201398266666672
          ],
          [
            -7.7684196000000005,
            55.202478400000004
          ],
          [
            -7.7671021833333329,
            55.203028333333336
          ],
          [
            -7.7655034000000001,
            55.203421633333328
          ],
          [
            -7.7637248000000003,
            55.204336266666665
          ],
          [
            -7.7619319666666664,
            55.204912233333332
          ],
          [
            -7.7605426666666668,
            55.20616308333333
          ],
          [
            -7.7593815833333339,
            55.207366450000002
          ],
          [
            -7.7573371166666671,
            55.208243899999992
          ],
          [
            -7.7553250500000015,
            55.209290566666667
          ],
          [
            -7.7531605666666659,
            55.210113500000006
          ],
          [
            -7.7510787499999987,
            55.210878433333328
          ],
          [
            -7.7493054333333342,
            55.211786400000001
          ],
          [
            -7.7475143666666666,
            55.212653849999995
          ],
          [
            -7.7457657166666669,
            55.213355716666669
          ],
          [
            -7.7440752999999987,
            55.214098100000001
          ],
          [
            -7.7426559666666659,
            55.21490073333333
          ],
          [
            -7.7410895999999996,
            55.215922016666674
          ],
          [
            -7.7396621833333334,
            55.216875216666658
          ],
          [
            -7.7380642000000002,
            55.217772949999997
          ],
          [
            -7.73651395,
            55.218630449999999
          ],
          [
            -7.7347552000000004,
            55.219369300000004
          ],
          [
            -7.7329876999999989,
            55.220200083333339
          ],
          [
            -7.7316882333333332,
            55.220888283333331
          ],
          [
            -7.7302362333333328,
            55.221646933333339
          ],
          [
            -7.728822766666668,
            55.222699866666673
          ],
          [
            -7.727966283333334,
            55.223577599999999
          ],
          [
            -7.727702083333333,
            55.224516433333335
          ],
          [
            -7.726662833333334,
            55.225621416666677
          ],
          [
            -7.7251009166666655,
            55.226463899999999
          ],
          [
            -7.7235411000000003,
            55.227208400000002
          ],
          [
            -7.7218378333333328,
            55.227357399999995
          ],
          [
            -7.7196940166666668,
            55.227152999999994
          ],
          [
            -7.7177864000000005,
            55.227592850000001
          ],
          [
            -7.7160194333333338,
            55.228082250000007
          ],
          [
            -7.7143167000000004,
            55.228569550000003
          ],
          [
            -7.7127599166666663,
            55.229208249999992
          ],
          [
            -7.7112887203611455,
            55.229590596916118
          ],
          [
            -7.7098460000000006,
            55.230174916666662
          ],
          [
            -7.7079048666666665,
            55.230501533333332
          ],
          [
            -7.7058605499999997,
            55.230703083333339
          ],
          [
            -7.7041058909539339,
            55.23097022264735
          ],
          [
            -7.702463417091252,
            55.231005577672327
          ],
          [
            -7.7007256877248773,
            55.23116614578727
          ],
          [
            -7.6991214666666652,
            55.231612083333324
          ],
          [
            -7.6983597999999995,
            55.230790849999991
          ],
          [
            -7.6972660333333334,
            55.231805349999995
          ],
          [
            -7.6965613499999996,
            55.233051183333323
          ],
          [
            -7.6961981166666664,
            55.234188499999995
          ],
          [
            -7.6966785666666659,
            55.235193349999996
          ],
          [
            -7.6960900499999996,
            55.236160966666667
          ],
          [
            -7.6961703666666663,
            55.237243249999999
          ],
          [
            -7.6966477499999995,
            55.238463950000003
          ],
          [
            -7.6974167000000007,
            55.239437133333332
          ],
          [
            -7.6986252833333326,
            55.240211783333336
          ],
          [
            -7.6999432166666661,
            55.240789033333343
          ],
          [
            -7.7009401833333344,
            55.241489333333327
          ],
          [
            -7.7011392999999995,
            55.242453849999997
          ],
          [
            -7.7012610833333319,
            55.243416899999993
          ],
          [
            -7.7016949822995837,
            55.244445971855981
          ],
          [
            -7.7009882833333334,
            55.245782066666671
          ],
          [
            -7.7015964206964957,
            55.247652637910527
          ],
          [
            -7.7022013731814321,
            55.247982090823143
          ],
          [
            -7.7009165742271009,
            55.248550014925243
          ],
          [
            -7.7009165742271009,
            55.248550014925243
          ],
          [
            -7.6994165900693936,
            55.249112264713681
          ],
          [
            -7.6936681129825963,
            55.252966402896874
          ],
          [
            -7.6943311823336229,
            55.252117793002924
          ],
          [
            -7.6980005324104503,
            55.250174003260852
          ],
          [
            -7.6995337817696239,
            55.249699699285614
          ],
          [
            -7.7016121293864588,
            55.247650893603698
          ]
        ],
        "type" : "LineString"
      },
      "properties" : {
        "device" : "B9E47AEB-E54C-4563-96B6-06995DD4BC56 (iPhone 16 Pro)",
        "end" : "2026-04-29T21:59:59Z",
        "start" : "2026-04-28T22:00:00Z",
        "source" : "Geory 5.3.2",
        "type" : "route"
      },
      "type" : "Feature"
    }
  ],
  "type" : "FeatureCollection"
}