{
  "type" : "FeatureCollection",
  "features" : [
    {
      "geometry" : {
        "coordinates" : [
          -4.0976260668326523,
          54.787687693006617
        ],
        "type" : "Point"
      },
      "type" : "Feature",
      "properties" : {
        "timestamp" : "2026-04-17T19:12:11Z",
        "rating" : 0,
        "address" : "Kirkcudbright, DG6, Schottland",
        "source" : "Geory 5.3.2",
        "type" : "visit",
        "duration" : 57351.604572534561,
        "arrival" : "2026-04-17T19:12:11Z",
        "device" : "B9E47AEB-E54C-4563-96B6-06995DD4BC56 (iPhone 16 Pro)",
        "weather" : "Leicht bewölkt (9,2 °C)",
        "departure" : "2026-04-18T11:08:02Z"
      }
    },
    {
      "geometry" : {
        "type" : "Point",
        "coordinates" : [
          -4.0950927438764841,
          54.771334003576335
        ]
      },
      "type" : "Feature",
      "properties" : {
        "weather" : "Bedeckter Himmel (11,6 °C)",
        "arrival" : "2026-04-18T11:44:27Z",
        "device" : "B9E47AEB-E54C-4563-96B6-06995DD4BC56 (iPhone 16 Pro)",
        "timestamp" : "2026-04-18T11:44:27Z",
        "rating" : 0,
        "source" : "Geory 5.3.2",
        "type" : "visit",
        "departure" : "2026-04-18T12:51:56Z",
        "duration" : 4049.0001471042633,
        "address" : "Kirkcudbright, DG6, Schottland"
      }
    },
    {
      "properties" : {
        "type" : "visit",
        "duration" : 1413.9987256526947,
        "address" : "Kirkcudbright, DG6, Schottland",
        "arrival" : "2026-04-18T13:12:09Z",
        "timestamp" : "2026-04-18T13:12:09Z",
        "departure" : "2026-04-18T13:35:42Z",
        "rating" : 0,
        "source" : "Geory 5.3.2",
        "weather" : "Aufgelockert bewölkt (12,2 °C)",
        "device" : "B9E47AEB-E54C-4563-96B6-06995DD4BC56 (iPhone 16 Pro)"
      },
      "type" : "Feature",
      "geometry" : {
        "type" : "Point",
        "coordinates" : [
          -4.1087237114863786,
          54.770355155453153
        ]
      }
    },
    {
      "properties" : {
        "weather" : "Überwiegend bewölkt (12,5 °C)",
        "timestamp" : "2026-04-18T14:10:06Z",
        "source" : "Geory 5.3.2",
        "rating" : 0,
        "duration" : 14909.104876995087,
        "type" : "visit",
        "device" : "B9E47AEB-E54C-4563-96B6-06995DD4BC56 (iPhone 16 Pro)",
        "departure" : "2026-04-18T18:18:36Z",
        "address" : "Kirkcudbright, DG6, Schottland",
        "arrival" : "2026-04-18T14:10:06Z"
      },
      "type" : "Feature",
      "geometry" : {
        "coordinates" : [
          -4.0975498097139527,
          54.787515816655741
        ],
        "type" : "Point"
      }
    },
    {
      "type" : "Feature",
      "properties" : {
        "source" : "Geory 5.3.2",
        "rating" : 0,
        "departure" : "2026-04-18T19:50:08Z",
        "address" : "Kirkcudbright, DG6, Schottland",
        "timestamp" : "2026-04-18T18:51:08Z",
        "weather" : "Klarer Himmel (9,9 °C)",
        "type" : "visit",
        "device" : "B9E47AEB-E54C-4563-96B6-06995DD4BC56 (iPhone 16 Pro)",
        "arrival" : "2026-04-18T18:51:08Z",
        "duration" : 3540.1352708339691
      },
      "geometry" : {
        "coordinates" : [
          -4.0942261217583527,
          54.79176146525576
        ],
        "type" : "Point"
      }
    },
    {
      "geometry" : {
        "coordinates" : [
          -4.0978021659256223,
          54.787412446641476
        ],
        "type" : "Point"
      },
      "type" : "Feature",
      "properties" : {
        "source" : "Geory 5.3.2",
        "address" : "Kirkcudbright, DG6, Schottland",
        "weather" : "Klarer Himmel (8,4 °C)",
        "device" : "B9E47AEB-E54C-4563-96B6-06995DD4BC56 (iPhone 16 Pro)",
        "timestamp" : "2026-04-18T19:57:55Z",
        "duration" : 52451.462507724762,
        "rating" : 0,
        "departure" : "2026-04-19T10:32:07Z",
        "type" : "visit",
        "arrival" : "2026-04-18T19:57:55Z"
      }
    },
    {
      "type" : "Feature",
      "geometry" : {
        "type" : "LineString",
        "coordinates" : [
          [
            -4.0978021659256223,
            54.787412446641476
          ],
          [
            -4.1005614557370311,
            54.788241609670386
          ],
          [
            -4.1005614557370311,
            54.788241609670386
          ],
          [
            -4.0998877247230636,
            54.79022274774055
          ],
          [
            -4.0984733261412956,
            54.792128671808868
          ],
          [
            -4.0942261217583527,
            54.79176146525576
          ],
          [
            -4.0935450052117544,
            54.787476149153555
          ],
          [
            -4.0975498097139527,
            54.787515816655741
          ],
          [
            -4.100247126582877,
            54.784275650234591
          ],
          [
            -4.1010654011538872,
            54.783506909983828
          ],
          [
            -4.1016767804187033,
            54.782672323434959
          ],
          [
            -4.102629674522313,
            54.78195750029591
          ],
          [
            -4.1037503965969915,
            54.781330498332153
          ],
          [
            -4.1044461059036408,
            54.780516103220613
          ],
          [
            -4.1054007757441706,
            54.779365527156649
          ],
          [
            -4.1063133577901123,
            54.77768936523848
          ],
          [
            -4.1068480773051466,
            54.77657022176858
          ],
          [
            -4.1076437027758201,
            54.775302255835122
          ],
          [
            -4.1083280271152764,
            54.77449333913205
          ],
          [
            -4.1081547099963984,
            54.773592151336125
          ],
          [
            -4.1084872334796794,
            54.772702421776827
          ],
          [
            -4.1082057069878779,
            54.772144028385242
          ],
          [
            -4.1087237114863786,
            54.770355155453153
          ],
          [
            -4.1067478085738038,
            54.769150263966374
          ],
          [
            -4.1052101431638697,
            54.769007933781978
          ],
          [
            -4.1035992161084458,
            54.768520283544525
          ],
          [
            -4.1025260434936532,
            54.768615535805573
          ],
          [
            -4.1009732787051778,
            54.768515777443206
          ],
          [
            -4.0995530549136712,
            54.768140792112824
          ],
          [
            -4.0981199879929591,
            54.76849621756493
          ],
          [
            -4.0967723382986758,
            54.768962603095822
          ],
          [
            -4.0950927438764841,
            54.771334003576335
          ],
          [
            -4.0949852590889915,
            54.774003945355403
          ],
          [
            -4.0956289819866853,
            54.775335951041058
          ],
          [
            -4.0966358854264389,
            54.775964698842003
          ],
          [
            -4.0983305242064558,
            54.775580400677491
          ],
          [
            -4.1004322114398244,
            54.775716859058662
          ],
          [
            -4.1017180899902499,
            54.775850623913918
          ],
          [
            -4.1025494938648146,
            54.775992507934163
          ],
          [
            -4.1040240041459191,
            54.776276637614224
          ],
          [
            -4.1053371149280053,
            54.776773754520249
          ],
          [
            -4.1061032684074714,
            54.777560645446606
          ],
          [
            -4.1064258428762015,
            54.778441175831489
          ],
          [
            -4.1055276417117099,
            54.779174617495407
          ],
          [
            -4.1052787459469648,
            54.780063908503806
          ],
          [
            -4.1042137144861242,
            54.781198506586946
          ],
          [
            -4.1017979691678681,
            54.782614523583533
          ],
          [
            -4.1010400893353864,
            54.783640459143086
          ],
          [
            -4.1003963846538127,
            54.784236374183976
          ],
          [
            -4.0991473749130094,
            54.784776597568225
          ],
          [
            -4.0976260668326523,
            54.787687693006617
          ]
        ]
      },
      "properties" : {
        "device" : "B9E47AEB-E54C-4563-96B6-06995DD4BC56 (iPhone 16 Pro)",
        "type" : "route",
        "source" : "Geory 5.3.2",
        "end" : "2026-04-18T21:59:59Z",
        "start" : "2026-04-17T22:00:00Z"
      }
    }
  ]
}