{
  "type" : "FeatureCollection",
  "features" : [
    {
      "type" : "Feature",
      "geometry" : {
        "type" : "Point",
        "coordinates" : [
          -7.3734055933679876,
          55.310640677619233
        ]
      },
      "properties" : {
        "weather" : "Aufgelockert bewölkt (10,6 °C)",
        "departure" : "2026-04-25T10:39:23Z",
        "rating" : 0,
        "address" : "North Inishowen Coast SAC, County Donegal, Irland",
        "arrival" : "2026-04-24T20:41:09Z",
        "duration" : 50293.694680213928,
        "timestamp" : "2026-04-24T20:41:09Z",
        "device" : "B9E47AEB-E54C-4563-96B6-06995DD4BC56 (iPhone 16 Pro)",
        "type" : "visit",
        "source" : "Geory 5.3.2"
      }
    },
    {
      "type" : "Feature",
      "geometry" : {
        "type" : "Point",
        "coordinates" : [
          -7.3919057285370187,
          55.280870124846558
        ]
      },
      "properties" : {
        "device" : "B9E47AEB-E54C-4563-96B6-06995DD4BC56 (iPhone 16 Pro)",
        "duration" : 5801.9127402305603,
        "address" : "4 Rossaor Cottages, Ballyliffin, County Donegal, F93 VY75, Irland",
        "type" : "visit",
        "departure" : "2026-04-25T13:09:17Z",
        "weather" : "Bedeckter Himmel (15,7 °C)",
        "arrival" : "2026-04-25T11:32:35Z",
        "rating" : 0,
        "timestamp" : "2026-04-25T11:32:35Z",
        "source" : "Geory 5.3.2"
      }
    },
    {
      "type" : "Feature",
      "geometry" : {
        "coordinates" : [
          -7.3734378078682754,
          55.310635419248946
        ],
        "type" : "Point"
      },
      "properties" : {
        "duration" : 15837.914120197296,
        "device" : "B9E47AEB-E54C-4563-96B6-06995DD4BC56 (iPhone 16 Pro)",
        "source" : "Geory 5.3.2",
        "weather" : "Überwiegend bewölkt (16,6 °C)",
        "arrival" : "2026-04-25T14:15:32Z",
        "type" : "visit",
        "address" : "North Inishowen Coast SAC, County Donegal, Irland",
        "timestamp" : "2026-04-25T14:15:32Z",
        "rating" : 0,
        "departure" : "2026-04-25T18:39:30Z"
      }
    },
    {
      "type" : "Feature",
      "geometry" : {
        "type" : "Point",
        "coordinates" : [
          -7.375542297319468,
          55.30593904398394
        ]
      },
      "properties" : {
        "address" : "Pollan Strand, Irland",
        "duration" : 5457.8106920719147,
        "weather" : "Aufgelockert bewölkt (11,2 °C)",
        "rating" : 0,
        "timestamp" : "2026-04-25T18:40:31Z",
        "source" : "Geory 5.3.2",
        "device" : "B9E47AEB-E54C-4563-96B6-06995DD4BC56 (iPhone 16 Pro)",
        "type" : "visit",
        "arrival" : "2026-04-25T18:40:31Z",
        "departure" : "2026-04-25T20:11:28Z"
      }
    },
    {
      "properties" : {
        "weather" : "Überwiegend bewölkt (11,1 °C)",
        "type" : "visit",
        "rating" : 0,
        "source" : "Geory 5.3.2",
        "timestamp" : "2026-04-25T20:15:55Z",
        "device" : "B9E47AEB-E54C-4563-96B6-06995DD4BC56 (iPhone 16 Pro)",
        "address" : "North Inishowen Coast SAC, County Donegal, Irland",
        "departure" : "2026-04-26T10:07:53Z",
        "duration" : 49918.299226284027,
        "arrival" : "2026-04-25T20:15:55Z"
      },
      "type" : "Feature",
      "geometry" : {
        "type" : "Point",
        "coordinates" : [
          -7.3733852430354636,
          55.310701898486442
        ]
      }
    },
    {
      "type" : "Feature",
      "geometry" : {
        "coordinates" : [
          [
            -7.3733852430354636,
            55.310701898486442
          ],
          [
            -7.3740030751026246,
            55.309922499785365
          ],
          [
            -7.375542297319468,
            55.30593904398394
          ],
          [
            -7.3734378078682754,
            55.310635419248946
          ],
          [
            -7.373313651854513,
            55.309993311647808
          ],
          [
            -7.3735288114566728,
            55.308965396950427
          ],
          [
            -7.3738483416933045,
            55.3080321737242
          ],
          [
            -7.3745486802327926,
            55.307194736383167
          ],
          [
            -7.3745486802327926,
            55.307194736383167
          ],
          [
            -7.3754485272212378,
            55.303198122556743
          ],
          [
            -7.3754485272212378,
            55.303198122556743
          ],
          [
            -7.3760486659378861,
            55.302223355652906
          ],
          [
            -7.3767575608001392,
            55.301415631982081
          ],
          [
            -7.377231276930841,
            55.300554220278208
          ],
          [
            -7.3777001081327347,
            55.299695460841946
          ],
          [
            -7.3784112931601937,
            55.298423915484776
          ],
          [
            -7.3785969562272404,
            55.297960659570755
          ],
          [
            -7.3791266844084991,
            55.297109821784744
          ],
          [
            -7.3797842878490458,
            55.295879312625978
          ],
          [
            -7.3807238111999975,
            55.294584565787702
          ],
          [
            -7.3811893253690402,
            55.294104439408912
          ],
          [
            -7.3820688677224826,
            55.293353432861515
          ],
          [
            -7.3827448319037083,
            55.293109711076546
          ],
          [
            -7.3858343864586367,
            55.291585017370728
          ],
          [
            -7.3858362051257531,
            55.29158459615261
          ],
          [
            -7.3871022471078138,
            55.291301006433585
          ],
          [
            -7.3883630134623157,
            55.290921714688622
          ],
          [
            -7.3904914949674385,
            55.29023401459343
          ],
          [
            -7.392090197670047,
            55.28963613841966
          ],
          [
            -7.3921507394416883,
            55.288583448573078
          ],
          [
            -7.3926663869962148,
            55.287575594058843
          ],
          [
            -7.3922554117637764,
            55.286535230503802
          ],
          [
            -7.3935131520519519,
            55.28590001057762
          ],
          [
            -7.3927470514946929,
            55.285005778812902
          ],
          [
            -7.3919057285370187,
            55.280870124846558
          ],
          [
            -7.3930515850621941,
            55.281645598368591
          ],
          [
            -7.3929847442728471,
            55.282582235116898
          ],
          [
            -7.3927595242799091,
            55.283626644364013
          ],
          [
            -7.3935394868781215,
            55.285122249476871
          ],
          [
            -7.3929010117524401,
            55.286110138303869
          ],
          [
            -7.3927009564509332,
            55.287008884151263
          ],
          [
            -7.3930787673587659,
            55.287949763734687
          ],
          [
            -7.3911421979609697,
            55.290345348840418
          ],
          [
            -7.3900322192909025,
            55.291061351793132
          ],
          [
            -7.3880296120124882,
            55.291537297209096
          ],
          [
            -7.3880296120124882,
            55.291537297209096
          ],
          [
            -7.3850621950227904,
            55.292541577495932
          ],
          [
            -7.3837005024824967,
            55.293162395349647
          ],
          [
            -7.3822596799393256,
            55.294147008943668
          ],
          [
            -7.381376606263971,
            55.29507878376144
          ],
          [
            -7.381376606263971,
            55.29507878376144
          ],
          [
            -7.3807424370715031,
            55.296021333589472
          ],
          [
            -7.3801806146000644,
            55.297167502139253
          ],
          [
            -7.3794592015279585,
            55.298132827441947
          ],
          [
            -7.3788221535744078,
            55.298993421862278
          ],
          [
            -7.3783199106287674,
            55.300029612395818
          ],
          [
            -7.3783199106287674,
            55.300029612395818
          ],
          [
            -7.3775450088846508,
            55.30114720092093
          ],
          [
            -7.3775450088846508,
            55.30114720092093
          ],
          [
            -7.3753696171738534,
            55.305434640213505
          ],
          [
            -7.3734055933679876,
            55.310640677619233
          ]
        ],
        "type" : "LineString"
      },
      "properties" : {
        "end" : "2026-04-25T21:59:59Z",
        "source" : "Geory 5.3.2",
        "type" : "route",
        "start" : "2026-04-24T22:00:00Z",
        "device" : "B9E47AEB-E54C-4563-96B6-06995DD4BC56 (iPhone 16 Pro)"
      }
    }
  ]
}