{
  "type" : "FeatureCollection",
  "features" : [
    {
      "geometry" : {
        "type" : "Point",
        "coordinates" : [
          -3.0748290715588227,
          54.60863722275446
        ]
      },
      "properties" : {
        "timestamp" : "2026-04-16T18:01:44Z",
        "source" : "Geory 5.3.2",
        "device" : "B9E47AEB-E54C-4563-96B6-06995DD4BC56 (iPhone 16 Pro)",
        "type" : "visit",
        "duration" : 55595.999306678772,
        "arrival" : "2026-04-16T18:01:44Z",
        "departure" : "2026-04-17T09:28:19Z",
        "weather" : "Leichter Regen (10,0 °C)",
        "address" : "Burns, Threlkeld, Keswick, CA12, England",
        "rating" : 0
      },
      "type" : "Feature"
    },
    {
      "geometry" : {
        "coordinates" : [
          -3.0984835423138297,
          54.60301023969285
        ],
        "type" : "Point"
      },
      "type" : "Feature",
      "properties" : {
        "device" : "B9E47AEB-E54C-4563-96B6-06995DD4BC56 (iPhone 16 Pro)",
        "timestamp" : "2026-04-17T09:52:34Z",
        "arrival" : "2026-04-17T09:52:34Z",
        "duration" : 1658.6596138477325,
        "address" : "Castlerigg Stone Circle Road, Castlerigg, Keswick, CA12, England",
        "weather" : "Starker Regen (9,9 °C)",
        "rating" : 0,
        "source" : "Geory 5.3.2",
        "type" : "visit",
        "departure" : "2026-04-17T10:20:13Z"
      }
    },
    {
      "properties" : {
        "address" : "Burns, Threlkeld, Keswick, CA12, England",
        "departure" : "2026-04-17T11:29:23Z",
        "type" : "visit",
        "timestamp" : "2026-04-17T10:42:48Z",
        "source" : "Geory 5.3.2",
        "device" : "B9E47AEB-E54C-4563-96B6-06995DD4BC56 (iPhone 16 Pro)",
        "weather" : "Leichter Regen (10,1 °C)",
        "duration" : 2794.3066952228546,
        "rating" : 0,
        "arrival" : "2026-04-17T10:42:48Z"
      },
      "geometry" : {
        "coordinates" : [
          -3.0747979678358992,
          54.608549414785195
        ],
        "type" : "Point"
      },
      "type" : "Feature"
    },
    {
      "type" : "Feature",
      "properties" : {
        "type" : "visit",
        "address" : "B721, Annan, DG12, Schottland",
        "duration" : 7130.7031142711639,
        "weather" : "Bedeckter Himmel (12,1 °C)",
        "rating" : 0,
        "source" : "Geory 5.3.2",
        "timestamp" : "2026-04-17T12:48:23Z",
        "arrival" : "2026-04-17T12:48:23Z",
        "departure" : "2026-04-17T14:47:13Z",
        "device" : "B9E47AEB-E54C-4563-96B6-06995DD4BC56 (iPhone 16 Pro)"
      },
      "geometry" : {
        "type" : "Point",
        "coordinates" : [
          -3.2492933542485156,
          54.985838637748095
        ]
      }
    },
    {
      "properties" : {
        "type" : "visit",
        "duration" : 1770.6991450786591,
        "weather" : "Überwiegend bewölkt (12,2 °C)",
        "rating" : 0,
        "source" : "Geory 5.3.2",
        "timestamp" : "2026-04-17T15:07:13Z",
        "arrival" : "2026-04-17T15:07:13Z",
        "address" : "Lockerbie Road, Heathhall, Dumfries, DG1, Schottland",
        "device" : "B9E47AEB-E54C-4563-96B6-06995DD4BC56 (iPhone 16 Pro)",
        "departure" : "2026-04-17T15:36:44Z"
      },
      "geometry" : {
        "coordinates" : [
          -3.5694995703220069,
          55.079515902733661
        ],
        "type" : "Point"
      },
      "type" : "Feature"
    },
    {
      "geometry" : {
        "type" : "Point",
        "coordinates" : [
          -4.0978720175196806,
          54.787565482735673
        ]
      },
      "type" : "Feature",
      "properties" : {
        "address" : "Kirkcudbright, DG6, Schottland",
        "arrival" : "2026-04-17T16:58:09Z",
        "departure" : "2026-04-17T18:25:31Z",
        "type" : "visit",
        "weather" : "Überwiegend bewölkt (12,3 °C)",
        "timestamp" : "2026-04-17T16:58:09Z",
        "device" : "B9E47AEB-E54C-4563-96B6-06995DD4BC56 (iPhone 16 Pro)",
        "duration" : 5242.6092562675476,
        "rating" : 0,
        "source" : "Geory 5.3.2"
      }
    },
    {
      "properties" : {
        "timestamp" : "2026-04-17T18:34:26Z",
        "departure" : "2026-04-17T18:51:43Z",
        "duration" : 1036.74059009552,
        "address" : "Kirkcudbright, DG6, Schottland",
        "type" : "visit",
        "arrival" : "2026-04-17T18:34:26Z",
        "rating" : 0,
        "device" : "B9E47AEB-E54C-4563-96B6-06995DD4BC56 (iPhone 16 Pro)",
        "source" : "Geory 5.3.2",
        "weather" : "Aufgelockert bewölkt (11,2 °C)"
      },
      "type" : "Feature",
      "geometry" : {
        "type" : "Point",
        "coordinates" : [
          -4.0919321562729865,
          54.782781816338051
        ]
      }
    },
    {
      "properties" : {
        "weather" : "Leicht bewölkt (9,2 °C)",
        "device" : "B9E47AEB-E54C-4563-96B6-06995DD4BC56 (iPhone 16 Pro)",
        "departure" : "2026-04-18T11:08:02Z",
        "timestamp" : "2026-04-17T19:12:11Z",
        "source" : "Geory 5.3.2",
        "duration" : 57351.604572534561,
        "arrival" : "2026-04-17T19:12:11Z",
        "address" : "Kirkcudbright, DG6, Schottland",
        "rating" : 0,
        "type" : "visit"
      },
      "type" : "Feature",
      "geometry" : {
        "type" : "Point",
        "coordinates" : [
          -4.0976260668326523,
          54.787687693006617
        ]
      }
    },
    {
      "geometry" : {
        "coordinates" : [
          [
            -4.0976260668326523,
            54.787687693006617
          ],
          [
            -4.1006555564568261,
            54.783590388445113
          ],
          [
            -4.1016306129755513,
            54.782639246555796
          ],
          [
            -4.101812849154717,
            54.782215628219397
          ],
          [
            -4.1022067375237148,
            54.781720379075217
          ],
          [
            -4.1022067375237148,
            54.781720379075217
          ],
          [
            -4.1029635982517005,
            54.781546010111114
          ],
          [
            -4.0980317794316354,
            54.781350016756811
          ],
          [
            -4.0980317794316354,
            54.781350016756811
          ],
          [
            -4.0956349003120875,
            54.78164648161269
          ],
          [
            -4.0919321562729865,
            54.782781816338051
          ],
          [
            -4.0933709584410423,
            54.785808472332327
          ],
          [
            -4.0939657341256028,
            54.787387016110699
          ],
          [
            -4.0978720175196806,
            54.787565482735673
          ],
          [
            -4.0998624000000001,
            54.792131249999997
          ],
          [
            -4.1009059333333333,
            54.793080949999997
          ],
          [
            -4.102087683333334,
            54.793783699999992
          ],
          [
            -4.1037076333333333,
            54.793659883333333
          ],
          [
            -4.10524135,
            54.793978066666661
          ],
          [
            -4.1066659333333329,
            54.794389000000002
          ],
          [
            -4.10765742523059,
            54.795115189872817
          ],
          [
            -4.1073497374645909,
            54.796011128168075
          ],
          [
            -4.1075550360131983,
            54.796910665887147
          ],
          [
            -4.1078042426245087,
            54.797853187200687
          ],
          [
            -4.1075489610728368,
            54.798780798358777
          ],
          [
            -4.107471733333333,
            54.800017499999996
          ],
          [
            -4.1076686333333337,
            54.801252949999999
          ],
          [
            -4.1078852500000007,
            54.80224441666666
          ],
          [
            -4.1072144237703796,
            54.803239366221476
          ],
          [
            -4.1063678961805543,
            54.804104218663142
          ],
          [
            -4.1046138663478562,
            54.804208075926176
          ],
          [
            -4.1025609625366748,
            54.804512722437451
          ],
          [
            -4.1003238254312322,
            54.805038586168038
          ],
          [
            -4.0990424445343416,
            54.806178394856744
          ],
          [
            -4.0977228833333337,
            54.807351383333334
          ],
          [
            -4.0967942833333337,
            54.808582433333335
          ],
          [
            -4.0966199166666666,
            54.809333899999999
          ],
          [
            -4.0964631333333328,
            54.809810433333332
          ],
          [
            -4.0960377000000001,
            54.811022299999998
          ],
          [
            -4.0955256666666671,
            54.811938416666663
          ],
          [
            -4.0946413849654455,
            54.812787690576421
          ],
          [
            -4.0931136762149238,
            54.81307135129623
          ],
          [
            -4.0919126166666659,
            54.813685733333323
          ],
          [
            -4.0922212833333331,
            54.814602433333327
          ],
          [
            -4.0912391878553676,
            54.815337789310334
          ],
          [
            -4.0897725123180368,
            54.815765695276724
          ],
          [
            -4.0881944772985337,
            54.816046470940599
          ],
          [
            -4.0869064320319337,
            54.816572865229965
          ],
          [
            -4.0853501666666672,
            54.816888633333342
          ],
          [
            -4.0844934390863541,
            54.817653906381651
          ],
          [
            -4.083731966666666,
            54.818440216666673
          ],
          [
            -4.0825080374467397,
            54.819026970670656
          ],
          [
            -4.0812724000000005,
            54.819726083333336
          ],
          [
            -4.0809217230517421,
            54.820640799399463
          ],
          [
            -4.080093333333334,
            54.821450133333336
          ],
          [
            -4.0792707666666663,
            54.822276433333343
          ],
          [
            -4.0785003833333331,
            54.823290516666674
          ],
          [
            -4.0782685500000007,
            54.824220950000004
          ],
          [
            -4.0777762166666669,
            54.825365399999995
          ],
          [
            -4.0768345333333338,
            54.826574933333333
          ],
          [
            -4.0757315833333339,
            54.827759883333329
          ],
          [
            -4.0745407833333331,
            54.828803833333325
          ],
          [
            -4.0732100166666667,
            54.829662683333332
          ],
          [
            -4.0723482999999998,
            54.830849183333342
          ],
          [
            -4.0709046666666664,
            54.831755933333334
          ],
          [
            -4.0695724999999996,
            54.832855533333337
          ],
          [
            -4.0687881166666671,
            54.834156283333336
          ],
          [
            -4.0674604333333333,
            54.835436866666669
          ],
          [
            -4.0659206833333332,
            54.836680083333341
          ],
          [
            -4.0647417666666668,
            54.837912683333329
          ],
          [
            -4.0637834166666664,
            54.839122133333326
          ],
          [
            -4.0628823499999998,
            54.840148699999993
          ],
          [
            -4.0623506333333337,
            54.841520216666673
          ],
          [
            -4.0622218500000002,
            54.842862616666665
          ],
          [
            -4.0616007967067826,
            54.843818492937288
          ],
          [
            -4.0597241377707567,
            54.84387612188614
          ],
          [
            -4.0580537906797529,
            54.84373012328156
          ],
          [
            -4.0559935666666673,
            54.8441142
          ],
          [
            -4.058013233333333,
            54.845180900000003
          ],
          [
            -4.0603474999999998,
            54.845618933333334
          ],
          [
            -4.062976533333333,
            54.845853133333335
          ],
          [
            -4.0652619666666672,
            54.846032216666664
          ],
          [
            -4.0663046166666668,
            54.846755749999993
          ],
          [
            -4.0666872166666668,
            54.847780016666675
          ],
          [
            -4.0662553666666668,
            54.848880883333337
          ],
          [
            -4.0664965000000004,
            54.850014499999993
          ],
          [
            -4.0661337,
            54.851029183333338
          ],
          [
            -4.0665674666666671,
            54.852130083333336
          ],
          [
            -4.0664414999999998,
            54.853111766666672
          ],
          [
            -4.0672582333333338,
            54.854253749999998
          ],
          [
            -4.0671878248260196,
            54.85541580328875
          ],
          [
            -4.0668203482209035,
            54.856744268409457
          ],
          [
            -4.0668905999999998,
            54.858274516666675
          ],
          [
            -4.0676996833333332,
            54.859549299999998
          ],
          [
            -4.0678393666666661,
            54.861054083333322
          ],
          [
            -4.0684403379341729,
            54.862496214094016
          ],
          [
            -4.0694391666666672,
            54.863614949999999
          ],
          [
            -4.0704668333333336,
            54.864434866666677
          ],
          [
            -4.0710377500000003,
            54.865563466666664
          ],
          [
            -4.070830616666667,
            54.86674433333333
          ],
          [
            -4.0707387500000003,
            54.867835116666662
          ],
          [
            -4.0706615166666671,
            54.868764416666664
          ],
          [
            -4.0718118666666667,
            54.869411533333341
          ],
          [
            -4.0721914999999997,
            54.871166083333343
          ],
          [
            -4.071104533333334,
            54.872692883333336
          ],
          [
            -4.0697500499999997,
            54.874153116666669
          ],
          [
            -4.0673785833333334,
            54.875817000000005
          ],
          [
            -4.06448125,
            54.877116350000001
          ],
          [
            -4.0615228000000005,
            54.878260016666673
          ],
          [
            -4.0583368833333333,
            54.879487183333339
          ],
          [
            -4.0554170333333328,
            54.880962383333326
          ],
          [
            -4.0534687333333332,
            54.882909850000004
          ],
          [
            -4.0527231666666665,
            54.884877900000006
          ],
          [
            -4.0523259166666667,
            54.886987266666665
          ],
          [
            -4.051796416666666,
            54.888819500000004
          ],
          [
            -4.0512083333333333,
            54.889625700000003
          ],
          [
            -4.0501305833333339,
            54.890509599999994
          ],
          [
            -4.048099933333333,
            54.891879799999998
          ],
          [
            -4.0467889000000001,
            54.89346359999999
          ],
          [
            -4.0458163333333337,
            54.894970716666663
          ],
          [
            -4.0439349,
            54.896521216666663
          ],
          [
            -4.0413502833333332,
            54.8976781
          ],
          [
            -4.0381514999999997,
            54.898782050000001
          ],
          [
            -4.0345623999999995,
            54.900075416666674
          ],
          [
            -4.0314192666666671,
            54.901289933333324
          ],
          [
            -4.0283049333333336,
            54.902530083333339
          ],
          [
            -4.025240366666667,
            54.903705450000004
          ],
          [
            -4.0217663666666663,
            54.904398433333334
          ],
          [
            -4.0181553999999995,
            54.904887266666677
          ],
          [
            -4.0148425166666666,
            54.905368666666668
          ],
          [
            -4.0119122166666674,
            54.906230999999998
          ],
          [
            -4.0089610833333333,
            54.907565883333334
          ],
          [
            -4.0060397000000005,
            54.908913333333338
          ],
          [
            -4.0033192166666671,
            54.910110899999999
          ],
          [
            -4.0001022499999994,
            54.911162833333343
          ],
          [
            -3.9966322833333332,
            54.912424166666668
          ],
          [
            -3.9936351333333335,
            54.913656549999999
          ],
          [
            -3.9902922999999997,
            54.915035899999999
          ],
          [
            -3.9871207833333333,
            54.916350966666677
          ],
          [
            -3.9836509166666665,
            54.917783533333342
          ],
          [
            -3.9804342333333333,
            54.919108766666682
          ],
          [
            -3.9772049666666667,
            54.920276216666664
          ],
          [
            -3.9734582999999994,
            54.921270083333333
          ],
          [
            -3.96949555,
            54.922109783333319
          ],
          [
            -3.9656698333333331,
            54.923146550000006
          ],
          [
            -3.962596833333333,
            54.924456633333328
          ],
          [
            -3.9598530000000003,
            54.925834550000005
          ],
          [
            -3.9572060166666669,
            54.927168733333332
          ],
          [
            -3.9548890166666664,
            54.928336183333336
          ],
          [
            -3.9531752166666667,
            54.929262599999994
          ],
          [
            -3.9520664666666669,
            54.929958033333328
          ],
          [
            -3.950119616666667,
            54.931790100000008
          ],
          [
            -3.9488276666666673,
            54.934130833333327
          ],
          [
            -3.9479771666666661,
            54.936335849999992
          ],
          [
            -3.9470471666666667,
            54.93876075
          ],
          [
            -3.9461061333333332,
            54.941189683333334
          ],
          [
            -3.9451675333333336,
            54.94361636666666
          ],
          [
            -3.9436244499999997,
            54.945653700000001
          ],
          [
            -3.9407198696974377,
            54.947390786306819
          ],
          [
            -3.9369081754720328,
            54.948630137176103
          ],
          [
            -3.9328947406849051,
            54.949847895966442
          ],
          [
            -3.9294095562498246,
            54.950984859482489
          ],
          [
            -3.9266694166666669,
            54.95257203333334
          ],
          [
            -3.9245289500000005,
            54.954327999999997
          ],
          [
            -3.9221484899485461,
            54.955732756910948
          ],
          [
            -3.9202382015136115,
            54.956829507624832
          ],
          [
            -3.9189169810787989,
            54.957588554577228
          ],
          [
            -3.9166455666666673,
            54.958892100000007
          ],
          [
            -3.91396605,
            54.96041695000001
          ],
          [
            -3.9111540166666665,
            54.962025216666675
          ],
          [
            -3.9086558666666669,
            54.963529249999993
          ],
          [
            -3.9062897833333334,
            54.96501270000001
          ],
          [
            -3.9042270499999998,
            54.96656333333334
          ],
          [
            -3.90271225,
            54.968457883333336
          ],
          [
            -3.9008385833333334,
            54.970243283333339
          ],
          [
            -3.8984810666666667,
            54.971898966666672
          ],
          [
            -3.8962802333333335,
            54.9734002
          ],
          [
            -3.8935453500000006,
            54.974857583333339
          ],
          [
            -3.8906259500000004,
            54.976370233333334
          ],
          [
            -3.8874488000000005,
            54.978024633333341
          ],
          [
            -3.8851549666666672,
            54.97968911666667
          ],
          [
            -3.8838880666666662,
            54.981805749999992
          ],
          [
            -3.8831562166666669,
            54.983953700000001
          ],
          [
            -3.8828065999999994,
            54.98596366666667
          ],
          [
            -3.8827877333333336,
            54.988321033333342
          ],
          [
            -3.8831930166666662,
            54.990525449999993
          ],
          [
            -3.8840263666666668,
            54.992768800000007
          ],
          [
            -3.8842459166666665,
            54.994998100000004
          ],
          [
            -3.8826458999999995,
            54.997106883333323
          ],
          [
            -3.8808555833333336,
            54.999264833333342
          ],
          [
            -3.8787123666666665,
            55.000908566666673
          ],
          [
            -3.8764837999999999,
            55.002390283333341
          ],
          [
            -3.8742165666666661,
            55.003676783333333
          ],
          [
            -3.8712985333333334,
            55.00418355
          ],
          [
            -3.8693327666666666,
            55.005172866666662
          ],
          [
            -3.8687453333333339,
            55.006173500000003
          ],
          [
            -3.8681904166666667,
            55.00725383333333
          ],
          [
            -3.8678700833333335,
            55.008133950000001
          ],
          [
            -3.8680391666666667,
            55.009070433333335
          ],
          [
            -3.8676872333333336,
            55.010181216666659
          ],
          [
            -3.8672994666666662,
            55.01109506666667
          ],
          [
            -3.8667444,
            55.012121016666669
          ],
          [
            -3.86607375,
            55.013151699999995
          ],
          [
            -3.8649741666666668,
            55.013982299999995
          ],
          [
            -3.8636978333333336,
            55.014759866666658
          ],
          [
            -3.8626569166666664,
            55.015593249999995
          ],
          [
            -3.8613953333333333,
            55.016370266666669
          ],
          [
            -3.8592305666666666,
            55.017830183333338
          ],
          [
            -3.8569424999999997,
            55.01928745
          ],
          [
            -3.853811083333333,
            55.020285583333333
          ],
          [
            -3.8503134000000001,
            55.021043083333339
          ],
          [
            -3.8475377166666669,
            55.022556416666667
          ],
          [
            -3.8450678333333337,
            55.024184566666662
          ],
          [
            -3.8427522166666668,
            55.025899749999994
          ],
          [
            -3.8402110166666672,
            55.027432850000004
          ],
          [
            -3.8375199166666669,
            55.028655666666666
          ],
          [
            -3.8352174166666666,
            55.030091583333324
          ],
          [
            -3.8347601833333327,
            55.031930733333333
          ],
          [
            -3.83350145,
            55.033270583333326
          ],
          [
            -3.8318675999999998,
            55.034181883333332
          ],
          [
            -3.830504533333333,
            55.034944949999996
          ],
          [
            -3.8294427166666667,
            55.035619700000005
          ],
          [
            -3.8279747833333335,
            55.036264416666675
          ],
          [
            -3.8258894999999993,
            55.037142166666669
          ],
          [
            -3.8228524166666666,
            55.037998683333335
          ],
          [
            -3.819354933333333,
            55.038572516666669
          ],
          [
            -3.8163252000000001,
            55.040005099999995
          ],
          [
            -3.8163252000000001,
            55.040005099999995
          ],
          [
            -3.8127843500000003,
            55.041161966666671
          ],
          [
            -3.8092834,
            55.042119383333329
          ],
          [
            -3.8052612999999997,
            55.043161899999994
          ],
          [
            -3.8013089499999997,
            55.043836200000008
          ],
          [
            -3.7973314333333335,
            55.044182166666658
          ],
          [
            -3.7938013833333333,
            55.044879966666663
          ],
          [
            -3.7908741999999997,
            55.04597343333333
          ],
          [
            -3.7876474500000001,
            55.04723478333333
          ],
          [
            -3.7842855833333338,
            55.048544700000001
          ],
          [
            -3.7806817333333336,
            55.049878549999995
          ],
          [
            -3.7770858500000002,
            55.050565599999999
          ],
          [
            -3.7734606666666672,
            55.050890000000003
          ],
          [
            -3.7699728500000003,
            55.051191016666678
          ],
          [
            -3.7667385833333333,
            55.051470166666661
          ],
          [
            -3.7632072999999999,
            55.05190713333333
          ],
          [
            -3.7601181833333341,
            55.052542333333328
          ],
          [
            -3.7575745833333332,
            55.05290286666667
          ],
          [
            -3.7551888333333334,
            55.052958183333338
          ],
          [
            -3.7530720666666668,
            55.052786500000003
          ],
          [
            -3.7511547499999995,
            55.052874350000003
          ],
          [
            -3.749519433333333,
            55.053007516666668
          ],
          [
            -3.7471255500000002,
            55.053227616666668
          ],
          [
            -3.7446141833333333,
            55.053432166666674
          ],
          [
            -3.742079233333333,
            55.053587016666675
          ],
          [
            -3.7399414499999994,
            55.0539962
          ],
          [
            -3.7366439000000007,
            55.054189866666668
          ],
          [
            -3.7334579999999997,
            55.054242166666668
          ],
          [
            -3.7303757333333332,
            55.054287549999991
          ],
          [
            -3.6309162827308237,
            55.076756564167475
          ],
          [
            -3.6286761266451371,
            55.077479394119898
          ],
          [
            -3.6271157533744813,
            55.07798099877639
          ],
          [
            -3.6255070224800217,
            55.078165934726655
          ],
          [
            -3.6242255485545818,
            55.078769523012511
          ],
          [
            -3.6216692295907222,
            55.079343353924664
          ],
          [
            -3.6188497877218579,
            55.080365682120181
          ],
          [
            -3.6163799638623928,
            55.08197330057633
          ],
          [
            -3.6139552578930241,
            55.083755663970521
          ],
          [
            -3.6115069904934138,
            55.085558656992987
          ],
          [
            -3.609155475845828,
            55.087064843328228
          ],
          [
            -3.6056692082601502,
            55.087996103914541
          ],
          [
            -3.6023028158962682,
            55.087960221228798
          ],
          [
            -3.5995767878476688,
            55.087321504465422
          ],
          [
            -3.5975763116768977,
            55.086732496396223
          ],
          [
            -3.5959329914429055,
            55.086251830140149
          ],
          [
            -3.5944817354120167,
            55.085761327036813
          ],
          [
            -3.5929713483624521,
            55.085392599353248
          ],
          [
            -3.5913204589698084,
            55.084941362405111
          ],
          [
            -3.5893526413726828,
            55.084389447563971
          ],
          [
            -3.5864531833107418,
            55.083590097129139
          ],
          [
            -3.5832475368764758,
            55.082705714139472
          ],
          [
            -3.5813795640183037,
            55.082189056671488
          ],
          [
            -3.5782971558194272,
            55.081332966498799
          ],
          [
            -3.5751598110885148,
            55.080457892848848
          ],
          [
            -3.5722086786326197,
            55.079340760525284
          ],
          [
            -3.5703261911520676,
            55.078922734920127
          ],
          [
            -3.5696594540947619,
            55.079805771350323
          ],
          [
            -3.5693410340078571,
            55.080691296447526
          ],
          [
            -3.5691811420561805,
            55.081593375252162
          ],
          [
            -3.5694353080264527,
            55.082483973319064
          ],
          [
            -3.5697792068138159,
            55.083364452652802
          ],
          [
            -3.5707175553249786,
            55.084085848735725
          ],
          [
            -3.569682099906955,
            55.083408178218072
          ],
          [
            -3.5690830713382384,
            55.081201300725091
          ],
          [
            -3.5694995703220069,
            55.079515902733661
          ],
          [
            -3.5578164166666664,
            55.070155716666669
          ],
          [
            -3.5572853333333332,
            55.069211683333336
          ],
          [
            -3.5554092166666664,
            55.068582916666671
          ],
          [
            -3.5520426833333336,
            55.068567533333336
          ],
          [
            -3.5484334,
            55.068634933333335
          ],
          [
            -3.5448266999999998,
            55.068700850000006
          ],
          [
            -3.5410982833333331,
            55.068732300000001
          ],
          [
            -3.5369762833333329,
            55.068458466666669
          ],
          [
            -3.5332749499999996,
            55.067905000000003
          ],
          [
            -3.529304133333333,
            55.067235366666672
          ],
          [
            -3.5252795666666663,
            55.066777916666666
          ],
          [
            -3.5215226833333331,
            55.066490766666661
          ],
          [
            -3.5174543666666662,
            55.066194616666671
          ],
          [
            -3.513404033333333,
            55.065895716666667
          ],
          [
            -3.5097982499999998,
            55.065543399999989
          ],
          [
            -3.5064183333333339,
            55.065057883333338
          ],
          [
            -3.5031506000000001,
            55.064415949999997
          ],
          [
            -3.4998115000000003,
            55.063679850000007
          ],
          [
            -3.4966938999999999,
            55.062987716666669
          ],
          [
            -3.4935651065566833,
            55.062396107636339
          ],
          [
            -3.4900448684991932,
            55.061711505941204
          ],
          [
            -3.4887334242653356,
            55.06145507315555
          ],
          [
            -3.4864631087668867,
            55.061009689092288
          ],
          [
            -3.482866342473117,
            55.060305601904922
          ],
          [
            -3.4792599410234102,
            55.059583772718725
          ],
          [
            -3.4761587666666665,
            55.058859183333333
          ],
          [
            -3.4735819666666665,
            55.057380799999997
          ],
          [
            -3.4710693833333335,
            55.055799033333336
          ],
          [
            -3.4684692282701706,
            55.054323699761916
          ],
          [
            -3.4657573666666668,
            55.053212783333322
          ],
          [
            -3.4630817833333327,
            55.051835633333326
          ],
          [
            -3.4606227666666665,
            55.050250300000002
          ],
          [
            -3.4580923000000006,
            55.048622866666669
          ],
          [
            -3.4558327833333329,
            55.047186500000002
          ],
          [
            -3.4533878833333338,
            55.046020633333335
          ],
          [
            -3.4505144333333333,
            55.044851950000002
          ],
          [
            -3.447272583333334,
            55.043532583333338
          ],
          [
            -3.4439489499999993,
            55.042203766666667
          ],
          [
            -3.4408634666666673,
            55.041021083333334
          ],
          [
            -3.4380616833333337,
            55.039720233333341
          ],
          [
            -3.4353776000000003,
            55.038335450000005
          ],
          [
            -3.4325305166666671,
            55.03686235
          ],
          [
            -3.4292358499999995,
            55.035525616666668
          ],
          [
            -3.4258796,
            55.034770533333322
          ],
          [
            -3.4219991000000003,
            55.034266449999997
          ],
          [
            -3.4177144666666663,
            55.033733833333322
          ],
          [
            -3.4137340500000004,
            55.033227000000004
          ],
          [
            -3.4101059,
            55.032764433333327
          ],
          [
            -3.40673995,
            55.032294100000009
          ],
          [
            -3.4034455999999995,
            55.03174425000001
          ],
          [
            -3.400859533333334,
            55.03121913333333
          ],
          [
            -3.3998320499999997,
            55.030994866666667
          ],
          [
            -3.3961338999999997,
            55.030081066666661
          ],
          [
            -3.3921608666666665,
            55.028884849999997
          ],
          [
            -3.3888190000000002,
            55.02768416666666
          ],
          [
            -3.3852487833333336,
            55.02640066666666
          ],
          [
            -3.3814383333333331,
            55.025028733333329
          ],
          [
            -3.378019333333333,
            55.02379603333334
          ],
          [
            -3.374771766666667,
            55.022551300000003
          ],
          [
            -3.371585866666666,
            55.021251249999992
          ],
          [
            -3.3684865666666668,
            55.019991849999997
          ],
          [
            -3.3650360333333329,
            55.018803533333333
          ],
          [
            -3.3619887500000005,
            55.017661349999997
          ],
          [
            -3.3587954166666663,
            55.016342416666674
          ],
          [
            -3.3558345999999997,
            55.015143833333333
          ],
          [
            -3.3529272000000003,
            55.013941899999992
          ],
          [
            -3.3499925333333329,
            55.012760533333328
          ],
          [
            -3.34692985,
            55.011707449999989
          ],
          [
            -3.343775916666667,
            55.010755183333337
          ],
          [
            -3.3406194166666667,
            55.009773600000003
          ],
          [
            -3.3371167000000006,
            55.008747933333339
          ],
          [
            -3.3338702666666666,
            55.007860766666667
          ],
          [
            -3.3302907000000004,
            55.006988916666664
          ],
          [
            -3.3266373499999995,
            55.006096766666658
          ],
          [
            -3.32295045,
            55.005172883333337
          ],
          [
            -3.3194422911958053,
            55.004304153464865
          ],
          [
            -3.3158433576681436,
            55.003479568997207
          ],
          [
            -3.3122511875139047,
            55.002600531856281
          ],
          [
            -3.3088080764810957,
            55.001754852222788
          ],
          [
            -3.3054483021403165,
            55.000875500049766
          ],
          [
            -3.3035039325923172,
            55.000301956888968
          ],
          [
            -3.3018563600216098,
            54.999818034535018
          ],
          [
            -3.2985205876671131,
            54.998827042593227
          ],
          [
            -3.2951800540353462,
            54.997923088918405
          ],
          [
            -3.2919057470741797,
            54.997110836226184
          ],
          [
            -3.2888246914061439,
            54.996423931414689
          ],
          [
            -3.2864594064017041,
            54.995991453582498
          ],
          [
            -3.2848872660332886,
            54.99553605826231
          ],
          [
            -3.2834005055425206,
            54.994292498699615
          ],
          [
            -3.2807373298788898,
            54.993507397783794
          ],
          [
            -3.277963473020272,
            54.992699187932502
          ],
          [
            -3.2754532103453831,
            54.991894429394932
          ],
          [
            -3.2734809920503842,
            54.990803480406775
          ],
          [
            -3.271866736294784,
            54.989811472790628
          ],
          [
            -3.2696494098620379,
            54.989472993413877
          ],
          [
            -3.2679864318526382,
            54.988635084142594
          ],
          [
            -3.2668765840649585,
            54.987876230645092
          ],
          [
            -3.2656957015785197,
            54.987246723432193
          ],
          [
            -3.264145888781159,
            54.987062121898305
          ],
          [
            -3.2625317234152034,
            54.987303211403258
          ],
          [
            -3.2609470979584811,
            54.987323688704464
          ],
          [
            -3.2592911710164301,
            54.987307919694558
          ],
          [
            -3.2570279889366605,
            54.987011602861791
          ],
          [
            -3.2561841249358405,
            54.986843014002638
          ],
          [
            -3.2492933542485156,
            54.985838637748095
          ],
          [
            -3.2442371999999997,
            54.98617393333334
          ],
          [
            -3.2430020833333337,
            54.987853349999995
          ],
          [
            -3.241306583333333,
            54.989624533333334
          ],
          [
            -3.2395243499999999,
            54.991099450000007
          ],
          [
            -3.2376260333333335,
            54.992372216666674
          ],
          [
            -3.2356268999999993,
            54.993401033333342
          ],
          [
            -3.2341975000000001,
            54.994157083333334
          ],
          [
            -3.2322572166666665,
            54.994198000000011
          ],
          [
            -3.2300107665377831,
            54.994356122740768
          ],
          [
            -3.2286631666666663,
            54.994965950000008
          ],
          [
            -3.2248318500000002,
            54.994730749999995
          ],
          [
            -3.2207767500000002,
            54.994407716666664
          ],
          [
            -3.2167186666666674,
            54.994032200000007
          ],
          [
            -3.2126812333333334,
            54.993591966666663
          ],
          [
            -3.2104908000000001,
            54.993330366666662
          ],
          [
            -3.2086808333333332,
            54.993096616666662
          ],
          [
            -3.2051255666666663,
            54.992601050000005
          ],
          [
            -3.2013251666666673,
            54.992023033333332
          ],
          [
            -3.1974138833333332,
            54.991392250000004
          ],
          [
            -3.1938353833333339,
            54.990789200000002
          ],
          [
            -3.1899086666666667,
            54.99032050000001
          ],
          [
            -3.1858605500000001,
            54.990345250000004
          ],
          [
            -3.1817939500000003,
            54.990848549999995
          ],
          [
            -3.1775861666666665,
            54.991499566666675
          ],
          [
            -3.1733054333333333,
            54.991938250000004
          ],
          [
            -3.1694441333333336,
            54.992114933333333
          ],
          [
            -3.1652021166666664,
            54.992064383333336
          ],
          [
            -3.1609959333333335,
            54.991884016666674
          ],
          [
            -3.1567807499999998,
            54.991828633333334
          ],
          [
            -3.1525170666666669,
            54.991939683333335
          ],
          [
            -3.1486207499999996,
            54.992017199999999
          ],
          [
            -3.1448224666666666,
            54.99205585
          ],
          [
            -3.1410902000000003,
            54.9920914
          ],
          [
            -3.1370388666666669,
            54.992172033333325
          ],
          [
            -3.1327876833333339,
            54.992335033333333
          ],
          [
            -3.1288360166666669,
            54.992571533333326
          ],
          [
            -3.1249781166666666,
            54.992864250000004
          ],
          [
            -3.1213562833333333,
            54.993129750000001
          ],
          [
            -3.1171974166666661,
            54.992803966666663
          ],
          [
            -3.1128163499999997,
            54.992312133333343
          ],
          [
            -3.1084559666666669,
            54.992786366666664
          ],
          [
            -3.1046027166666668,
            54.993483433333331
          ],
          [
            -3.1007440000000002,
            54.994153383333334
          ],
          [
            -3.0968123999999997,
            54.99479396666667
          ],
          [
            -3.0930754499999997,
            54.995395899999998
          ],
          [
            -3.0895368333333333,
            54.995957550000007
          ],
          [
            -3.0860587999999995,
            54.996536433333326
          ],
          [
            -3.0827876833333336,
            54.997260583333336
          ],
          [
            -3.0794517666666668,
            54.998226866666663
          ],
          [
            -3.0761958666666671,
            54.999090633333324
          ],
          [
            -3.0728007666666666,
            54.999720083333344
          ],
          [
            -3.0693257999999992,
            55.000029399999995
          ],
          [
            -3.0665485000000001,
            55.000138
          ],
          [
            -3.0645362666666673,
            54.999866266666672
          ],
          [
            -3.0623996333333339,
            54.999744416666672
          ],
          [
            -3.0615550000000007,
            54.998409083333343
          ],
          [
            -3.060791566666667,
            54.997488016666658
          ],
          [
            -3.0598395000000003,
            54.996458433333324
          ],
          [
            -3.0589541166666661,
            54.99569266666667
          ],
          [
            -3.0574678666666668,
            54.995058933333333
          ],
          [
            -3.0559389166666668,
            54.9945339
          ],
          [
            -3.054269866666667,
            54.993789233333338
          ],
          [
            -3.0531200333333337,
            54.99284376666666
          ],
          [
            -3.0520304333333335,
            54.992065283333339
          ],
          [
            -3.0504297281057298,
            54.991835786817077
          ],
          [
            -3.048769333333333,
            54.990439600000002
          ],
          [
            -3.0460440500000003,
            54.98943405
          ],
          [
            -3.0429750499999999,
            54.98888753333334
          ],
          [
            -3.0400152333333335,
            54.987831466666663
          ],
          [
            -3.0373337833333336,
            54.986402499999997
          ],
          [
            -3.0344445999999996,
            54.984869433333337
          ],
          [
            -3.0317058000000001,
            54.983594449999991
          ],
          [
            -3.0290917333333329,
            54.982180933333332
          ],
          [
            -3.026396783333333,
            54.980912616666664
          ],
          [
            -3.0236348666666668,
            54.979871083333336
          ],
          [
            -3.0205811666666662,
            54.978881833333332
          ],
          [
            -3.0173250333333339,
            54.977785933333337
          ],
          [
            -3.0140533833333336,
            54.976632866666655
          ],
          [
            -3.0109847833333334,
            54.97544906666667
          ],
          [
            -3.0085850166666668,
            54.974118466666674
          ],
          [
            -3.0065307499999996,
            54.972708283333333
          ],
          [
            -3.0049189666666667,
            54.971300216666663
          ],
          [
            -3.0038992666666662,
            54.969904
          ],
          [
            -3.0039975000000001,
            54.968585500000003
          ],
          [
            -3.003499933333333,
            54.967689566666671
          ],
          [
            -3.0007939499999998,
            54.967065016666659
          ],
          [
            -2.998376554511458,
            54.965567061491676
          ],
          [
            -2.9959501331453917,
            54.963767631728153
          ],
          [
            -2.9935053294945591,
            54.961882005977841
          ],
          [
            -2.9913399240910623,
            54.960141092262724
          ],
          [
            -2.9893859101999025,
            54.958474745999531
          ],
          [
            -2.9876665930096444,
            54.956839048573912
          ],
          [
            -2.9860386833333341,
            54.95498538333333
          ],
          [
            -2.9836753499999995,
            54.953586216666665
          ],
          [
            -2.9817663333333333,
            54.95205845000001
          ],
          [
            -2.9809677166666666,
            54.950311616666674
          ],
          [
            -2.978656140202641,
            54.949015819873907
          ],
          [
            -2.978656140202641,
            54.949015819873907
          ],
          [
            -2.9765687307658917,
            54.947651457389384
          ],
          [
            -2.9742366666666666,
            54.946556383333338
          ],
          [
            -2.9724498500000003,
            54.945154700000003
          ],
          [
            -2.9716753666666667,
            54.94349725
          ],
          [
            -2.971032014782701,
            54.942064429257172
          ],
          [
            -2.9705364209012632,
            54.941171592264119
          ],
          [
            -2.9683746833333338,
            54.940774600000005
          ],
          [
            -2.9669022833333334,
            54.939810450000003
          ],
          [
            -2.9657007333333336,
            54.938771700000004
          ],
          [
            -2.9639874376208333,
            54.937245748813332
          ],
          [
            -2.9624195166666669,
            54.935797916666658
          ],
          [
            -2.961167821653433,
            54.934643046001419
          ],
          [
            -2.9595675166666666,
            54.933200266666667
          ],
          [
            -2.9580267029027225,
            54.931781600826049
          ],
          [
            -2.9556973499999999,
            54.930735249999998
          ],
          [
            -2.9539284666666661,
            54.930045466666655
          ],
          [
            -2.9523757333333331,
            54.929416850000003
          ],
          [
            -2.9517351333333335,
            54.928514833333338
          ],
          [
            -2.9530642,
            54.928040750000008
          ],
          [
            -2.9545966165777346,
            54.927589024637413
          ],
          [
            -2.956856631437649,
            54.927019649775609
          ],
          [
            -2.9599806000000002,
            54.926628566666672
          ],
          [
            -2.9625935999999995,
            54.926187533333326
          ],
          [
            -2.9642057333333338,
            54.925741833333326
          ],
          [
            -2.9638699499999999,
            54.924108049999994
          ],
          [
            -2.9636372500000001,
            54.922478633333334
          ],
          [
            -2.9630752833333331,
            54.921564383333333
          ],
          [
            -2.9631227166666672,
            54.920069449999993
          ],
          [
            -2.9640524499999996,
            54.918370400000001
          ],
          [
            -2.9643749333333336,
            54.916982999999995
          ],
          [
            -2.9654341854141451,
            54.916210770884973
          ],
          [
            -2.9673769999999999,
            54.915981349999996
          ],
          [
            -2.9691130999999999,
            54.915879533333332
          ],
          [
            -2.9690132666666669,
            54.914965283333338
          ],
          [
            -2.9690032666666668,
            54.913807599999998
          ],
          [
            -2.9683481166666668,
            54.911703450000005
          ],
          [
            -2.9685840500000005,
            54.90953918333333
          ],
          [
            -2.9699772333333341,
            54.907606216666665
          ],
          [
            -2.9721955609930633,
            54.906143125900257
          ],
          [
            -2.9752866833333331,
            54.904877683333339
          ],
          [
            -2.9783247172734462,
            54.903739832194475
          ],
          [
            -2.9811958206073075,
            54.90264512814872
          ],
          [
            -2.9837151593238227,
            54.901684963751862
          ],
          [
            -2.9853337333333334,
            54.901231066666668
          ],
          [
            -2.9877005201792639,
            54.899983543759937
          ],
          [
            -2.9894215653526675,
            54.898464239813286
          ],
          [
            -2.9894215653526675,
            54.898464239813286
          ],
          [
            -2.9903762833333332,
            54.897511249999994
          ],
          [
            -2.9914791666666662,
            54.896759683333329
          ],
          [
            -2.9932461333333333,
            54.895280166666666
          ],
          [
            -2.9935877333333338,
            54.893050666666674
          ],
          [
            -2.9931542999999996,
            54.890943533333328
          ],
          [
            -2.9927744666666665,
            54.888663066666673
          ],
          [
            -2.9925605833333329,
            54.886689350000005
          ],
          [
            -2.9923060166666668,
            54.88501793333333
          ],
          [
            -2.9915474499999997,
            54.883520616666665
          ],
          [
            -2.9908876166666665,
            54.882188416666672
          ],
          [
            -2.9907707166666664,
            54.881159633333333
          ],
          [
            -2.9895178333333328,
            54.880584566666656
          ],
          [
            -2.9885718499999996,
            54.879842699999998
          ],
          [
            -2.9874181166666665,
            54.878807383333331
          ],
          [
            -2.9860875333333339,
            54.877655366666673
          ],
          [
            -2.9844911333333326,
            54.87635508333333
          ],
          [
            -2.9821975333333328,
            54.875012500000004
          ],
          [
            -2.9800011333333334,
            54.87410976666667
          ],
          [
            -2.9789622312296413,
            54.873372242576195
          ],
          [
            -2.9805910999999998,
            54.872394666666665
          ],
          [
            -2.9823709884827907,
            54.871387306078006
          ],
          [
            -2.9844271466309888,
            54.870284967055234
          ],
          [
            -2.9868253305816621,
            54.869044125987081
          ],
          [
            -2.9891444963275382,
            54.867883256066293
          ],
          [
            -2.9917423870379385,
            54.866666656020058
          ],
          [
            -2.9945277394625314,
            54.865385102683469
          ],
          [
            -2.9977339333333335,
            54.863883699999995
          ],
          [
            -3.0003503910963416,
            54.862727182137391
          ],
          [
            -3.0032076833333328,
            54.8614435
          ],
          [
            -3.0058982833333339,
            54.860242516666659
          ],
          [
            -3.0084616,
            54.859088066666665
          ],
          [
            -3.010270433333333,
            54.858259166666663
          ],
          [
            -3.0114758833333335,
            54.857613516666675
          ],
          [
            -3.0129385666666666,
            54.857093633333335
          ],
          [
            -3.0151515499999997,
            54.856118216666665
          ],
          [
            -3.0176409499999997,
            54.854998800000004
          ],
          [
            -3.0200122500000002,
            54.853900183333323
          ],
          [
            -3.0224378999999999,
            54.852704383333339
          ],
          [
            -3.0250537999999998,
            54.851550099999997
          ],
          [
            -3.0276623000000003,
            54.850378199999994
          ],
          [
            -3.0303794333333332,
            54.849126433333332
          ],
          [
            -3.0333960166666665,
            54.847902866666665
          ],
          [
            -3.0369324666666673,
            54.8467117
          ],
          [
            -3.0405545333333328,
            54.846036033333334
          ],
          [
            -3.0447184333333337,
            54.845842616666673
          ],
          [
            -3.0485170166666671,
            54.845778666666668
          ],
          [
            -3.0520028666666672,
            54.84573125
          ],
          [
            -3.0541996166666672,
            54.845649683333342
          ],
          [
            -3.0556616166666668,
            54.845335766666658
          ],
          [
            -3.0579772333333333,
            54.843813333333344
          ],
          [
            -3.0607316166666663,
            54.842049749999987
          ],
          [
            -3.063264133333333,
            54.840430849999997
          ],
          [
            -3.0657624166666664,
            54.83902195000001
          ],
          [
            -3.0691760499999994,
            54.838413216666666
          ],
          [
            -3.0720665499999997,
            54.838426533333333
          ],
          [
            -3.0751993666666664,
            54.83739035
          ],
          [
            -3.07776805,
            54.835939700000004
          ],
          [
            -3.0783302166666666,
            54.833878033333335
          ],
          [
            -3.0781490333333337,
            54.832131200000006
          ],
          [
            -3.0807400666666669,
            54.830849433333334
          ],
          [
            -3.0837270999999995,
            54.829794416666665
          ],
          [
            -3.0869080833333338,
            54.828699616666668
          ],
          [
            -3.0902375499999994,
            54.827501233333336
          ],
          [
            -3.0932842000000003,
            54.826384833333336
          ],
          [
            -3.0966657500000001,
            54.825148583333338
          ],
          [
            -3.0996812833333336,
            54.824073699999992
          ],
          [
            -3.1027170000000002,
            54.823008749999993
          ],
          [
            -3.1058865833333336,
            54.821895566666669
          ],
          [
            -3.1087608000000002,
            54.820878949999994
          ],
          [
            -3.1115625833333334,
            54.819888200000001
          ],
          [
            -3.1142519000000002,
            54.818860550000004
          ],
          [
            -3.117075133333334,
            54.817769033333335
          ],
          [
            -3.1201422326190591,
            54.816697859993134
          ],
          [
            -3.1232123435778889,
            54.815628573423837
          ],
          [
            -3.1266201880540438,
            54.814726213920451
          ],
          [
            -3.1294609666666666,
            54.813716750000005
          ],
          [
            -3.1324621930089234,
            54.812571682071436
          ],
          [
            -3.1353952166666668,
            54.811350549999993
          ],
          [
            -3.1383876833333337,
            54.810031549999998
          ],
          [
            -3.1413052000000001,
            54.808689400000006
          ],
          [
            -3.1438831333333339,
            54.807509566666674
          ],
          [
            -3.1465046666666665,
            54.806497400000005
          ],
          [
            -3.1475257027673584,
            54.806124025738804
          ],
          [
            -3.1494425499999994,
            54.805715233333331
          ],
          [
            -3.1523808333333334,
            54.805349750000005
          ],
          [
            -3.1554589499999999,
            54.804619450000004
          ],
          [
            -3.1582483333333329,
            54.803856333333336
          ],
          [
            -3.1606053561924208,
            54.802616970797239
          ],
          [
            -3.1628483333333333,
            54.801201750000004
          ],
          [
            -3.1655720666666669,
            54.799724766666671
          ],
          [
            -3.1684125000000005,
            54.798285749999998
          ],
          [
            -3.1713834666666667,
            54.796916466666673
          ],
          [
            -3.1745493833333329,
            54.795489166666655
          ],
          [
            -3.1777006666666665,
            54.794059850000004
          ],
          [
            -3.1809822833333339,
            54.79257856666667
          ],
          [
            -3.1843365333333331,
            54.79105285
          ],
          [
            -3.1871624166666663,
            54.789605899999998
          ],
          [
            -3.1900964333333333,
            54.788087599999997
          ],
          [
            -3.1927585666666669,
            54.786708016666672
          ],
          [
            -3.1955436166666664,
            54.785121466666673
          ],
          [
            -3.1981063666666669,
            54.783614950000008
          ],
          [
            -3.199988933333334,
            54.782499750000007
          ],
          [
            -3.2005328500000001,
            54.781118433333333
          ],
          [
            -3.2012320000000001,
            54.779981933333332
          ],
          [
            -3.2023353127978194,
            54.779242326815734
          ],
          [
            -3.2042742333333338,
            54.778415333333328
          ],
          [
            -3.2070986166666673,
            54.777927600000005
          ],
          [
            -3.2098992499999999,
            54.777226383333328
          ],
          [
            -3.2126305333333334,
            54.775712616666667
          ],
          [
            -3.2155462499999996,
            54.774117499999996
          ],
          [
            -3.218547,
            54.772527049999987
          ],
          [
            -3.2215269499999999,
            54.770942349999991
          ],
          [
            -3.2242784499999999,
            54.769626950000003
          ],
          [
            -3.2272061666666665,
            54.768925050000007
          ],
          [
            -3.2300910499999995,
            54.767948966666673
          ],
          [
            -3.2321846166666668,
            54.766346116666668
          ],
          [
            -3.2344300000000006,
            54.764672100000006
          ],
          [
            -3.23660025,
            54.763048833333336
          ],
          [
            -3.2393427333333333,
            54.761575516666667
          ],
          [
            -3.2418695166666671,
            54.76020188333333
          ],
          [
            -3.2444745666666668,
            54.758990700000005
          ],
          [
            -3.2469711999999995,
            54.757922049999998
          ],
          [
            -3.2486498000000004,
            54.756589233333337
          ],
          [
            -3.2510950499999995,
            54.755510733333324
          ],
          [
            -3.2542567666666664,
            54.754735333333343
          ],
          [
            -3.2556407166666661,
            54.752804749999996
          ],
          [
            -3.2564397000000005,
            54.750852033333331
          ],
          [
            -3.2586855333333338,
            54.74937061666666
          ],
          [
            -3.2617364999999996,
            54.748575616666663
          ],
          [
            -3.2637122333333339,
            54.748101550000001
          ],
          [
            -3.2649803666666664,
            54.747767233333327
          ],
          [
            -3.2676545000000004,
            54.746454849999992
          ],
          [
            -3.2691114666666667,
            54.744499033333341
          ],
          [
            -3.2698400000000003,
            54.742564183333329
          ],
          [
            -3.2697572802350909,
            54.740751985587742
          ],
          [
            -3.2698600755395208,
            54.739147471982257
          ],
          [
            -3.2712513666666667,
            54.737595849999998
          ],
          [
            -3.2725875499999999,
            54.7364046
          ],
          [
            -3.2735576987596531,
            54.735611192693568
          ],
          [
            -3.2718169999999995,
            54.734166716666678
          ],
          [
            -3.2704912833333331,
            54.732268383333334
          ],
          [
            -3.2690329499999997,
            54.730191333333337
          ],
          [
            -3.267593366666667,
            54.728137133333334
          ],
          [
            -3.2662597833333336,
            54.726209733333327
          ],
          [
            -3.2650361000000006,
            54.724410583333345
          ],
          [
            -3.2639479666666666,
            54.722902216666675
          ],
          [
            -3.26151525,
            54.721792450000002
          ],
          [
            -3.2589897499999996,
            54.720932499999996
          ],
          [
            -3.2562444666666663,
            54.719996699999996
          ],
          [
            -3.2533384500000002,
            54.719001033333342
          ],
          [
            -3.2503654333333336,
            54.717975016666671
          ],
          [
            -3.2476233666666663,
            54.717019550000003
          ],
          [
            -3.24461405,
            54.716058666666676
          ],
          [
            -3.2411753500000002,
            54.715933333333339
          ],
          [
            -3.237857916666667,
            54.715568949999998
          ],
          [
            -3.2354888999999991,
            54.714083233333334
          ],
          [
            -3.2345701833333331,
            54.712182216666662
          ],
          [
            -3.2337808333333338,
            54.710413299999999
          ],
          [
            -3.2325355500000001,
            54.708499366666672
          ],
          [
            -3.231028912482814,
            54.706751208138108
          ],
          [
            -3.2300906006634484,
            54.704620562644116
          ],
          [
            -3.229440766666666,
            54.702622416666664
          ],
          [
            -3.228786466666667,
            54.700708016666681
          ],
          [
            -3.2281051000000001,
            54.698851699999992
          ],
          [
            -3.2269024666666666,
            54.697087633333332
          ],
          [
            -3.2251928333333333,
            54.695406849999998
          ],
          [
            -3.2232246862439951,
            54.693949401827282
          ],
          [
            -3.2211718256357189,
            54.692774255205805
          ],
          [
            -3.2196683740394643,
            54.691462657634538
          ],
          [
            -3.2189703538773595,
            54.690023534814856
          ],
          [
            -3.2184884253007784,
            54.688662112718298
          ],
          [
            -3.2187832333333337,
            54.687262783333338
          ],
          [
            -3.2195830166666668,
            54.685626633333335
          ],
          [
            -3.2191313666666659,
            54.684050766666665
          ],
          [
            -3.2185190166666664,
            54.682822033333338
          ],
          [
            -3.2170731166666666,
            54.681592916666659
          ],
          [
            -3.2153071666666664,
            54.680380900000003
          ],
          [
            -3.2131704500000002,
            54.679390766666671
          ],
          [
            -3.2110495345115053,
            54.678810479590872
          ],
          [
            -3.2089991666666662,
            54.677918583333337
          ],
          [
            -3.2074707499999997,
            54.676868616666667
          ],
          [
            -3.2052642166666665,
            54.676071799999995
          ],
          [
            -3.2030267833333332,
            54.675305183333329
          ],
          [
            -3.2008768666666669,
            54.674578000000004
          ],
          [
            -3.1991328666666665,
            54.673783883333336
          ],
          [
            -3.1972986666666667,
            54.673037499999992
          ],
          [
            -3.1956587666666669,
            54.672379600000006
          ],
          [
            -3.1938110833333333,
            54.671539233333341
          ],
          [
            -3.1921326999999997,
            54.670613450000005
          ],
          [
            -3.19100925,
            54.669420949999996
          ],
          [
            -3.1892414333333332,
            54.668191549999996
          ],
          [
            -3.1890960666666661,
            54.666801799999995
          ],
          [
            -3.1886586333333335,
            54.665534866666661
          ],
          [
            -3.1882319752917558,
            54.664232279783036
          ],
          [
            -3.1882651835067359,
            54.663094403558908
          ],
          [
            -3.1881634991842662,
            54.660937858215547
          ],
          [
            -3.1877973000000002,
            54.659049199999991
          ],
          [
            -3.1870688000000005,
            54.657394366666665
          ],
          [
            -3.1868996002796086,
            54.655497214999514
          ],
          [
            -3.1875281166666669,
            54.653979916666671
          ],
          [
            -3.1880033080866896,
            54.652614220872017
          ],
          [
            -3.1892848065857597,
            54.651542786912401
          ],
          [
            -3.189522204351535,
            54.649463205081688
          ],
          [
            -3.188897868351368,
            54.647546450699146
          ],
          [
            -3.188085755312922,
            54.645834564515397
          ],
          [
            -3.1871988919456489,
            54.644337156560248
          ],
          [
            -3.1872594132305587,
            54.642985643492047
          ],
          [
            -3.188048821902703,
            54.641834919145964
          ],
          [
            -3.1886532833333332,
            54.640521583333339
          ],
          [
            -3.188828266666667,
            54.639210116666661
          ],
          [
            -3.1883771166666661,
            54.638134583333333
          ],
          [
            -3.1871450166666668,
            54.636920833333335
          ],
          [
            -3.1856975500000004,
            54.635750466666664
          ],
          [
            -3.1841028820296251,
            54.634336866598595
          ],
          [
            -3.1830914499999996,
            54.632792633333331
          ],
          [
            -3.1821050000000004,
            54.631419350000002
          ],
          [
            -3.1803081999999998,
            54.630190083333339
          ],
          [
            -3.1777428833333334,
            54.62918775
          ],
          [
            -3.1748251833333336,
            54.628585516666668
          ],
          [
            -3.1724273333333333,
            54.627728633333334
          ],
          [
            -3.1703385166666664,
            54.626376950000001
          ],
          [
            -3.1680630333333331,
            54.625477350000004
          ],
          [
            -3.1656730999999994,
            54.624973583333329
          ],
          [
            -3.163621416666667,
            54.623922016666668
          ],
          [
            -3.1613345499999999,
            54.623248066666669
          ],
          [
            -3.159201616666667,
            54.622562833333326
          ],
          [
            -3.1570803333333335,
            54.621548616666665
          ],
          [
            -3.1551011166666663,
            54.620786583333327
          ],
          [
            -3.1529533333333339,
            54.620141450000006
          ],
          [
            -3.1512701333333335,
            54.619144599999998
          ],
          [
            -3.1494443333333333,
            54.618296183333328
          ],
          [
            -3.1486569166666669,
            54.617008800000001
          ],
          [
            -3.1486037833333329,
            54.615550249999991
          ],
          [
            -3.1476975500000002,
            54.614032600000002
          ],
          [
            -3.1458488833333331,
            54.612980366666669
          ],
          [
            -3.1438998999999996,
            54.611915533333331
          ],
          [
            -3.1422570666666663,
            54.611024999999998
          ],
          [
            -3.1412100777858551,
            54.610352645268968
          ],
          [
            -3.1416536738815903,
            54.609975401841147
          ],
          [
            -3.1418928916984075,
            54.60944546617506
          ],
          [
            -3.1389548999999999,
            54.609263933333345
          ],
          [
            -3.1357048666666665,
            54.60875956666667
          ],
          [
            -3.1322391666666665,
            54.608231216666674
          ],
          [
            -3.1285649166666665,
            54.607746733333336
          ],
          [
            -3.1252664000000001,
            54.607401899999999
          ],
          [
            -3.122198,
            54.607142133333333
          ],
          [
            -3.118925916666667,
            54.606886383333332
          ],
          [
            -3.1157735166666671,
            54.606422766666675
          ],
          [
            -3.1128212,
            54.605558166666668
          ],
          [
            -3.1094902166666665,
            54.605070033333341
          ],
          [
            -3.1059939500000002,
            54.60542006666666
          ],
          [
            -3.103485155037141,
            54.606439079987602
          ],
          [
            -3.1019222476257671,
            54.607651669824307
          ],
          [
            -3.1010507369272378,
            54.608465219745391
          ],
          [
            -3.0996544338375522,
            54.608899803734246
          ],
          [
            -3.0984807223410944,
            54.60955085711484
          ],
          [
            -3.096883566666667,
            54.609824833333342
          ],
          [
            -3.095272,
            54.61014651666666
          ],
          [
            -3.0932551999999998,
            54.610420466666667
          ],
          [
            -3.09150255,
            54.610478633333329
          ],
          [
            -3.0896602500000001,
            54.610353133333341
          ],
          [
            -3.0878026272581605,
            54.610458690788541
          ],
          [
            -3.0864216844989367,
            54.609776625018576
          ],
          [
            -3.0857536587023495,
            54.608413661817274
          ],
          [
            -3.0849437541311766,
            54.607020993838283
          ],
          [
            -3.0832213316117296,
            54.606044381610744
          ],
          [
            -3.0816931319349008,
            54.60580803000714
          ],
          [
            -3.0800380999999994,
            54.605878400000002
          ],
          [
            -3.0785256666666667,
            54.606285966666668
          ],
          [
            -3.0771352333333328,
            54.6072013
          ],
          [
            -3.0747979678358992,
            54.608549414785195
          ],
          [
            -3.076327249056749,
            54.607696243403225
          ],
          [
            -3.0773597512897095,
            54.607024275568122
          ],
          [
            -3.0784506062764962,
            54.606379690223356
          ],
          [
            -3.0798271178364138,
            54.605943817303
          ],
          [
            -3.0828703882786117,
            54.605593250953447
          ],
          [
            -3.0848344512775232,
            54.604872797357572
          ],
          [
            -3.0856555339584912,
            54.605636769323723
          ],
          [
            -3.086254832278132,
            54.606507536968195
          ],
          [
            -3.0888591165304162,
            54.606579823987168
          ],
          [
            -3.0906111349684773,
            54.605730847164168
          ],
          [
            -3.0943897388778159,
            54.603519724227212
          ],
          [
            -3.0984835423138297,
            54.60301023969285
          ],
          [
            -3.0984948166338691,
            54.602901168281157
          ],
          [
            -3.0973465095158383,
            54.603791747777024
          ],
          [
            -3.0939152451492578,
            54.604178535228492
          ],
          [
            -3.0926230649696707,
            54.604736202631479
          ],
          [
            -3.0919620866622846,
            54.60509828291228
          ],
          [
            -3.0907414948962844,
            54.605668544966861
          ],
          [
            -3.0888219621876001,
            54.606536401256918
          ],
          [
            -3.0874274497154395,
            54.606488580393652
          ],
          [
            -3.0856448267209493,
            54.605291069303831
          ],
          [
            -3.0841165209311883,
            54.60512674405151
          ],
          [
            -3.0827789295395669,
            54.605620485514876
          ],
          [
            -3.081172067841166,
            54.605817211773889
          ],
          [
            -3.0797128631639437,
            54.605986776996836
          ],
          [
            -3.0783482719600292,
            54.606423509229025
          ],
          [
            -3.0769736237533416,
            54.607438175858803
          ],
          [
            -3.0748290715588227,
            54.60863722275446
          ]
        ],
        "type" : "LineString"
      },
      "type" : "Feature",
      "properties" : {
        "start" : "2026-04-16T22:00:00Z",
        "end" : "2026-04-17T21:59:59Z",
        "device" : "B9E47AEB-E54C-4563-96B6-06995DD4BC56 (iPhone 16 Pro)",
        "source" : "Geory 5.3.2",
        "type" : "route"
      }
    }
  ]
}