{
  "features" : [
    {
      "type" : "Feature",
      "geometry" : {
        "coordinates" : [
          -4.0978021659256223,
          54.787412446641476
        ],
        "type" : "Point"
      },
      "properties" : {
        "type" : "visit",
        "weather" : "Klarer Himmel (8,4 °C)",
        "source" : "Geory 5.3.2",
        "timestamp" : "2026-04-18T19:57:55Z",
        "rating" : 0,
        "device" : "B9E47AEB-E54C-4563-96B6-06995DD4BC56 (iPhone 16 Pro)",
        "arrival" : "2026-04-18T19:57:55Z",
        "departure" : "2026-04-19T10:32:07Z",
        "duration" : 52451.462507724762,
        "address" : "Kirkcudbright, DG6, Schottland"
      }
    },
    {
      "geometry" : {
        "type" : "Point",
        "coordinates" : [
          -4.434664275878708,
          54.862211615395253
        ]
      },
      "properties" : {
        "type" : "visit",
        "timestamp" : "2026-04-19T11:26:32Z",
        "weather" : "Aufgelockert bewölkt (11,0 °C)",
        "address" : "Newton Stewart, DG8, Schottland",
        "arrival" : "2026-04-19T11:26:32Z",
        "device" : "B9E47AEB-E54C-4563-96B6-06995DD4BC56 (iPhone 16 Pro)",
        "source" : "Geory 5.3.2",
        "departure" : "2026-04-19T11:56:52Z",
        "duration" : 1819.6895370483398,
        "rating" : 0
      },
      "type" : "Feature"
    },
    {
      "properties" : {
        "source" : "Geory 5.3.2",
        "type" : "visit",
        "rating" : 0,
        "timestamp" : "2026-04-19T11:56:53Z",
        "departure" : "2026-04-19T14:28:31Z",
        "address" : "Newton Stewart, DG8, Schottland",
        "arrival" : "2026-04-19T11:56:53Z",
        "weather" : "Aufgelockert bewölkt (11,3 °C)",
        "device" : "B9E47AEB-E54C-4563-96B6-06995DD4BC56 (iPhone 16 Pro)",
        "duration" : 9098.2377729415894
      },
      "type" : "Feature",
      "geometry" : {
        "coordinates" : [
          -4.4351389621347952,
          54.862443006643005
        ],
        "type" : "Point"
      }
    },
    {
      "type" : "Feature",
      "properties" : {
        "weather" : "Bedeckter Himmel (11,7 °C)",
        "type" : "visit",
        "arrival" : "2026-04-19T14:29:22Z",
        "departure" : "2026-04-19T14:47:52Z",
        "address" : "Shangri-La, Harbour Road, Wigtown, Newton Stewart, DG8 9EN, Schottland",
        "rating" : 0,
        "timestamp" : "2026-04-19T14:29:22Z",
        "device" : "B9E47AEB-E54C-4563-96B6-06995DD4BC56 (iPhone 16 Pro)",
        "duration" : 1110.1454467773438,
        "source" : "Geory 5.3.2"
      },
      "geometry" : {
        "coordinates" : [
          -4.4398224856154869,
          54.864921725136377
        ],
        "type" : "Point"
      }
    },
    {
      "geometry" : {
        "type" : "Point",
        "coordinates" : [
          -4.4343552518401959,
          54.862225119884656
        ]
      },
      "properties" : {
        "rating" : 0,
        "type" : "visit",
        "device" : "B9E47AEB-E54C-4563-96B6-06995DD4BC56 (iPhone 16 Pro)",
        "weather" : "Bedeckter Himmel (11,9 °C)",
        "arrival" : "2026-04-19T14:47:53Z",
        "duration" : 13360.878926277161,
        "timestamp" : "2026-04-19T14:47:53Z",
        "source" : "Geory 5.3.2",
        "departure" : "2026-04-19T18:30:34Z",
        "address" : "Newton Stewart, DG8, Schottland"
      },
      "type" : "Feature"
    },
    {
      "geometry" : {
        "coordinates" : [
          -4.4343920944916304,
          54.862256527630862
        ],
        "type" : "Point"
      },
      "properties" : {
        "type" : "visit",
        "arrival" : "2026-04-19T19:38:09Z",
        "weather" : "Klarer Himmel (8,5 °C)",
        "rating" : 0,
        "device" : "B9E47AEB-E54C-4563-96B6-06995DD4BC56 (iPhone 16 Pro)",
        "duration" : 20678.748771190643,
        "departure" : "2026-04-20T01:22:48Z",
        "address" : "Newton Stewart, DG8, Schottland",
        "source" : "Geory 5.3.2",
        "timestamp" : "2026-04-19T19:38:09Z"
      },
      "type" : "Feature"
    },
    {
      "type" : "Feature",
      "geometry" : {
        "type" : "LineString",
        "coordinates" : [
          [
            -4.4343920944916304,
            54.862256527630862
          ],
          [
            -4.43419921344318,
            54.862221824286365
          ],
          [
            -4.4441277852046364,
            54.867388736860704
          ],
          [
            -4.4317575329917371,
            54.864036477199164
          ],
          [
            -4.4305778813834102,
            54.864200966813122
          ],
          [
            -4.4333894895808807,
            54.862662711459869
          ],
          [
            -4.4397783516764076,
            54.865432114392576
          ],
          [
            -4.4344691402543894,
            54.86036272744569
          ],
          [
            -4.4441504666751932,
            54.867393365968915
          ],
          [
            -4.435066035487524,
            54.861321981978335
          ],
          [
            -4.4343552518401959,
            54.862225119884656
          ],
          [
            -4.4398224856154869,
            54.864921725136377
          ],
          [
            -4.4351389621347952,
            54.862443006643005
          ],
          [
            -4.434664275878708,
            54.862211615395253
          ],
          [
            -4.4363197999999997,
            54.863330216666661
          ],
          [
            -4.4376571666666669,
            54.863861583333332
          ],
          [
            -4.4390834538284167,
            54.864227271238732
          ],
          [
            -4.4398872000000003,
            54.865039549999999
          ],
          [
            -4.4398677660685566,
            54.865981520942839
          ],
          [
            -4.4398621703395902,
            54.86690836000416
          ],
          [
            -4.4399663666666669,
            54.867838633333335
          ],
          [
            -4.4412981666666669,
            54.868318349999996
          ],
          [
            -4.442816416666667,
            54.868622383333332
          ],
          [
            -4.4438674666666671,
            54.869420599999998
          ],
          [
            -4.4445378833333331,
            54.870417949999997
          ],
          [
            -4.4453263833333336,
            54.871535499999993
          ],
          [
            -4.4468372309033501,
            54.872313440463721
          ],
          [
            -4.4470224826936056,
            54.87408658854681
          ],
          [
            -4.4471246666666664,
            54.876035783333329
          ],
          [
            -4.4485436635479685,
            54.87757149521034
          ],
          [
            -4.4503783344028642,
            54.878887673744799
          ],
          [
            -4.4520057999999993,
            54.880168516666664
          ],
          [
            -4.453659833333333,
            54.881284116666663
          ],
          [
            -4.4557055166666668,
            54.88239801666667
          ],
          [
            -4.4581284166666668,
            54.88346176666667
          ],
          [
            -4.4592605166666663,
            54.884871933333336
          ],
          [
            -4.4592933499999994,
            54.886414749999993
          ],
          [
            -4.4587871666666663,
            54.887987450000011
          ],
          [
            -4.4584206833333333,
            54.889801999999989
          ],
          [
            -4.4587666833333337,
            54.891638700000009
          ],
          [
            -4.4603517166666666,
            54.893186700000001
          ],
          [
            -4.4622684000000001,
            54.894437100000005
          ],
          [
            -4.4640096833333329,
            54.895645516666676
          ],
          [
            -4.4655397333333333,
            54.897178749999995
          ],
          [
            -4.4659805833333337,
            54.898908400000003
          ],
          [
            -4.4666898833333333,
            54.900558449999998
          ],
          [
            -4.465972083333333,
            54.902193000000004
          ],
          [
            -4.4649758500000001,
            54.903867783333332
          ],
          [
            -4.4646537333333338,
            54.905635783333338
          ],
          [
            -4.4639423499999999,
            54.907572583333327
          ],
          [
            -4.4644968333333326,
            54.909413799999989
          ],
          [
            -4.4643934666666665,
            54.911261716666665
          ],
          [
            -4.4632254333333332,
            54.912987333333326
          ],
          [
            -4.4623125333333329,
            54.914905616666665
          ],
          [
            -4.4623699999999999,
            54.915985799999994
          ],
          [
            -4.4625287500000006,
            54.917550866666666
          ],
          [
            -4.4627056166666668,
            54.919062449999998
          ],
          [
            -4.4628839999999999,
            54.920781783333325
          ],
          [
            -4.4630454166666675,
            54.922454450000004
          ],
          [
            -4.4632271333333335,
            54.924305616666665
          ],
          [
            -4.4634102666666671,
            54.926090216666665
          ],
          [
            -4.4635599333333333,
            54.927923416666665
          ],
          [
            -4.463655216666667,
            54.929485683333333
          ],
          [
            -4.4635336333333333,
            54.930978599999996
          ],
          [
            -4.462594516666667,
            54.932837516666666
          ],
          [
            -4.4625031833333324,
            54.934581283333337
          ],
          [
            -4.4636550999999995,
            54.936087533333328
          ],
          [
            -4.4651919750865261,
            54.937415091547955
          ],
          [
            -4.4664915166666663,
            54.938937350000003
          ],
          [
            -4.4678255166666663,
            54.940435949999994
          ],
          [
            -4.4695225666666669,
            54.941567716666668
          ],
          [
            -4.4714850999999998,
            54.942722466666666
          ],
          [
            -4.4731899166666667,
            54.943841900000002
          ],
          [
            -4.4750645166666665,
            54.945053233333326
          ],
          [
            -4.4760901999999998,
            54.946535849999989
          ],
          [
            -4.4774437833333334,
            54.947979000000004
          ],
          [
            -4.4787037464691855,
            54.949203544786627
          ],
          [
            -4.4768889333333339,
            54.950965349999997
          ],
          [
            -4.4736464000000007,
            54.951830700000002
          ],
          [
            -4.4701062833333332,
            54.952863533333328
          ],
          [
            -4.4664673500000003,
            54.954230016666664
          ],
          [
            -4.4634417333333332,
            54.955665699999997
          ],
          [
            -4.4634417333333332,
            54.955665699999997
          ],
          [
            -4.4603662166666664,
            54.956951116666673
          ],
          [
            -4.4568121999999999,
            54.957367099999999
          ],
          [
            -4.4530068333333332,
            54.956931916666662
          ],
          [
            -4.449873283333333,
            54.955477833333326
          ],
          [
            -4.4473951166666668,
            54.953848883333329
          ],
          [
            -4.4446401666666668,
            54.95204043333333
          ],
          [
            -4.4421571666666662,
            54.950414716666671
          ],
          [
            -4.4396977500000006,
            54.948802499999992
          ],
          [
            -4.4366386333333327,
            54.947171250000004
          ],
          [
            -4.4332685499999993,
            54.94610745
          ],
          [
            -4.4295830166666672,
            54.945172133333337
          ],
          [
            -4.4263963666666664,
            54.944341299999998
          ],
          [
            -4.4233304499999999,
            54.943547166666669
          ],
          [
            -4.4205365666666667,
            54.94266296666666
          ],
          [
            -4.4176632166666669,
            54.941551683333337
          ],
          [
            -4.4153445666666666,
            54.940326383333328
          ],
          [
            -4.4125932166666662,
            54.939019916666666
          ],
          [
            -4.4096824166666666,
            54.937507116666666
          ],
          [
            -4.4079554999999999,
            54.935706083333329
          ],
          [
            -4.4064325666666671,
            54.933617533333333
          ],
          [
            -4.4048734999999999,
            54.931698700000005
          ],
          [
            -4.4031075499999996,
            54.929620566666671
          ],
          [
            -4.4015888999999992,
            54.927694949999989
          ],
          [
            -4.4000004166666669,
            54.925568249999998
          ],
          [
            -4.3984068999999995,
            54.923430016666664
          ],
          [
            -4.3968176999999997,
            54.921298633333329
          ],
          [
            -4.3957395833333326,
            54.919063350000002
          ],
          [
            -4.3950623333333327,
            54.916980066666675
          ],
          [
            -4.3947579166666664,
            54.915626016666664
          ],
          [
            -4.3946253333333338,
            54.914834633333342
          ],
          [
            -4.3944310666666668,
            54.912792533333338
          ],
          [
            -4.3942682166666662,
            54.910852516666672
          ],
          [
            -4.3934347999999996,
            54.908681516666668
          ],
          [
            -4.391983633333334,
            54.906848966666665
          ],
          [
            -4.3902655499999996,
            54.904904433333336
          ],
          [
            -4.3884679333333336,
            54.902896883333341
          ],
          [
            -4.3865967000000001,
            54.90075276666667
          ],
          [
            -4.3852470833333328,
            54.898415016666661
          ],
          [
            -4.3847231333333339,
            54.896293450000002
          ],
          [
            -4.3846327166666663,
            54.894461366666668
          ],
          [
            -4.3844230499999997,
            54.892439083333329
          ],
          [
            -4.3834195000000005,
            54.890284516666661
          ],
          [
            -4.381799,
            54.88824553333334
          ],
          [
            -4.3813730833333331,
            54.885895366666666
          ],
          [
            -4.3812819333333328,
            54.883920000000003
          ],
          [
            -4.3785755833333333,
            54.882148600000001
          ],
          [
            -4.3756733499999996,
            54.880409716666655
          ],
          [
            -4.3736415666666666,
            54.878536733333334
          ],
          [
            -4.3720583,
            54.876735733333334
          ],
          [
            -4.3703488666666663,
            54.8747951
          ],
          [
            -4.3683399666666665,
            54.872762666666659
          ],
          [
            -4.3666825666666664,
            54.87083633333333
          ],
          [
            -4.3654293833333337,
            54.868695883333338
          ],
          [
            -4.3631710999999997,
            54.866750350000004
          ],
          [
            -4.3603585666666662,
            54.865412849999998
          ],
          [
            -4.3569616,
            54.86425384999999
          ],
          [
            -4.3534130333333341,
            54.863026099999999
          ],
          [
            -4.3509637166666666,
            54.861952116666671
          ],
          [
            -4.3500448833333341,
            54.861534466666669
          ],
          [
            -4.3469758500000006,
            54.860115200000003
          ],
          [
            -4.3440187000000003,
            54.858835433333333
          ],
          [
            -4.3405747666666663,
            54.857587283333331
          ],
          [
            -4.3374341333333328,
            54.856597383333337
          ],
          [
            -4.3342956166666662,
            54.85559911666666
          ],
          [
            -4.3306839499999992,
            54.854540583333332
          ],
          [
            -4.3270798833333339,
            54.853494900000008
          ],
          [
            -4.3236205500000002,
            54.852035666666673
          ],
          [
            -4.3202758499999998,
            54.850653283333337
          ],
          [
            -4.3163850333333329,
            54.850093249999993
          ],
          [
            -4.3128755999999999,
            54.850134600000004
          ],
          [
            -4.3098304166666672,
            54.849131000000007
          ],
          [
            -4.3078447166666667,
            54.84729591666666
          ],
          [
            -4.3049993500000001,
            54.845663200000004
          ],
          [
            -4.3016430000000003,
            54.844741966666668
          ],
          [
            -4.2979657000000007,
            54.844525366666666
          ],
          [
            -4.2945106166666669,
            54.84475388333334
          ],
          [
            -4.2915571166666666,
            54.844328016666672
          ],
          [
            -4.2885797499999994,
            54.843830399999987
          ],
          [
            -4.2856823333333329,
            54.844026249999992
          ],
          [
            -4.2824377499999997,
            54.8438789
          ],
          [
            -4.2794498333333335,
            54.843759683333339
          ],
          [
            -4.2762871333333328,
            54.844270166666668
          ],
          [
            -4.2732701999999998,
            54.845175633333341
          ],
          [
            -4.2706754166666663,
            54.846144166666669
          ],
          [
            -4.2676267166666664,
            54.847128000000005
          ],
          [
            -4.2647657499999996,
            54.848459366666674
          ],
          [
            -4.2610870166666661,
            54.849711666666657
          ],
          [
            -4.2585949333333328,
            54.851272433333328
          ],
          [
            -4.2556535833333342,
            54.852335683333337
          ],
          [
            -4.2519722166666671,
            54.852996849999997
          ],
          [
            -4.2486712999999998,
            54.854164016666665
          ],
          [
            -4.2459081833333325,
            54.855146950000005
          ],
          [
            -4.2424783499999998,
            54.855559433333333
          ],
          [
            -4.2394744333333341,
            54.856441533333332
          ],
          [
            -4.2363070333333335,
            54.857583099999999
          ],
          [
            -4.2331195999999993,
            54.858565083333332
          ],
          [
            -4.2306171333333333,
            54.859923566666673
          ],
          [
            -4.2296065499999997,
            54.86177241666666
          ],
          [
            -4.2283796333333337,
            54.863849583333334
          ],
          [
            -4.2258739901286697,
            54.865108736077005
          ],
          [
            -4.22256415399288,
            54.865337473431367
          ],
          [
            -4.2201704001859239,
            54.865329491966214
          ],
          [
            -4.2175576147517804,
            54.865945503736327
          ],
          [
            -4.2157408319654026,
            54.867170032905094
          ],
          [
            -4.2148742773763157,
            54.868747384439487
          ],
          [
            -4.2135985354172156,
            54.870490823807543
          ],
          [
            -4.210686700000001,
            54.872102966666667
          ],
          [
            -4.2068315666666667,
            54.872777600000006
          ],
          [
            -4.2032401000000004,
            54.872471349999991
          ],
          [
            -4.1997287999999999,
            54.87152103333333
          ],
          [
            -4.195890883333333,
            54.870444349999993
          ],
          [
            -4.1923650666666665,
            54.869455733333339
          ],
          [
            -4.1888413833333331,
            54.868476383333338
          ],
          [
            -4.1849350876540647,
            54.867496212293922
          ],
          [
            -4.1816457000000007,
            54.866751449999995
          ],
          [
            -4.1809055166666669,
            54.866594666666664
          ],
          [
            -4.1768862000000002,
            54.865792899999995
          ],
          [
            -4.1732261166666671,
            54.86516506666667
          ],
          [
            -4.1694347333333335,
            54.86448583333334
          ],
          [
            -4.165678016666666,
            54.863750250000002
          ],
          [
            -4.1623638500000002,
            54.863016716666671
          ],
          [
            -4.1598014000000001,
            54.862403216666678
          ],
          [
            -4.1583790839770565,
            54.861872855830335
          ],
          [
            -4.1575269661833172,
            54.860491155601188
          ],
          [
            -4.1564996060886727,
            54.859014577842181
          ],
          [
            -4.1553337499999996,
            54.857608133333336
          ],
          [
            -4.1542963150689696,
            54.856147914918964
          ],
          [
            -4.1534506000000002,
            54.854768349999993
          ],
          [
            -4.152260216666666,
            54.853663283333333
          ],
          [
            -4.1519046000718012,
            54.852635298224435
          ],
          [
            -4.1518767166666661,
            54.851716233333342
          ],
          [
            -4.1518043768358242,
            54.850800634189497
          ],
          [
            -4.1521829333333331,
            54.849754100000006
          ],
          [
            -4.1523703333333337,
            54.848709233333331
          ],
          [
            -4.1527852166666666,
            54.847569116666669
          ],
          [
            -4.1530792166666668,
            54.84657288333333
          ],
          [
            -4.1530352000000006,
            54.845577550000009
          ],
          [
            -4.1522982833333337,
            54.844718583333332
          ],
          [
            -4.150861466666667,
            54.8441829
          ],
          [
            -4.1498453999999994,
            54.843438933333331
          ],
          [
            -4.1479764333333335,
            54.842690249999997
          ],
          [
            -4.1469322833333342,
            54.842337133333331
          ],
          [
            -4.1455191050227782,
            54.841952189142773
          ],
          [
            -4.1440868333333336,
            54.84234743333333
          ],
          [
            -4.1425072499999995,
            54.842644500000006
          ],
          [
            -4.1407285833333338,
            54.842462350000005
          ],
          [
            -4.1393687333333329,
            54.842010233333333
          ],
          [
            -4.1386787333333332,
            54.841179566666675
          ],
          [
            -4.137846183333334,
            54.840367399999998
          ],
          [
            -4.1369739666666669,
            54.839559750000006
          ],
          [
            -4.1364170666666666,
            54.838700633333339
          ],
          [
            -4.1364475833333332,
            54.83772913333334
          ],
          [
            -4.1364679166666667,
            54.836762866666668
          ],
          [
            -4.1368726000000002,
            54.835805633333337
          ],
          [
            -4.1378803500000005,
            54.8350388
          ],
          [
            -4.138581883333333,
            54.834212283333336
          ],
          [
            -4.1389574166666669,
            54.833286766666667
          ],
          [
            -4.1386129666666669,
            54.832320333333335
          ],
          [
            -4.1384592227127621,
            54.83127857428741
          ],
          [
            -4.1385897070761635,
            54.830345393337922
          ],
          [
            -4.1389171000000005,
            54.829374499999993
          ],
          [
            -4.1396889166666666,
            54.828479333333341
          ],
          [
            -4.1402580499999999,
            54.827557466666669
          ],
          [
            -4.1407792166666662,
            54.826427666666667
          ],
          [
            -4.1416190000000004,
            54.825244900000008
          ],
          [
            -4.1422374333333334,
            54.824162916666666
          ],
          [
            -4.1421774999999998,
            54.823240116666661
          ],
          [
            -4.1413073666666662,
            54.82241235
          ],
          [
            -4.1399423666666673,
            54.821678749999997
          ],
          [
            -4.1386022333333328,
            54.821085966666665
          ],
          [
            -4.1370333499999994,
            54.820429766666663
          ],
          [
            -4.1359246833333341,
            54.81975418333333
          ],
          [
            -4.1344059190053573,
            54.819360086509725
          ],
          [
            -4.13273695,
            54.819397966666671
          ],
          [
            -4.1314678885512706,
            54.818829933098478
          ],
          [
            -4.1322165000000002,
            54.817822783333327
          ],
          [
            -4.1325430833333332,
            54.816888216666669
          ],
          [
            -4.132896633333333,
            54.815880249999999
          ],
          [
            -4.1331703321190512,
            54.814959907632925
          ],
          [
            -4.1333122166666669,
            54.813935283333329
          ],
          [
            -4.1336332333333337,
            54.813026166666667
          ],
          [
            -4.1337067833333334,
            54.812086866666675
          ],
          [
            -4.1334861166666661,
            54.811136900000008
          ],
          [
            -4.1315755333333337,
            54.810877416666663
          ],
          [
            -4.1295646833333333,
            54.811062383333336
          ],
          [
            -4.1278614166666667,
            54.811072166666662
          ],
          [
            -4.1258740499999993,
            54.810627400000001
          ],
          [
            -4.1241825087825488,
            54.810351101180274
          ],
          [
            -4.1222655439615696,
            54.810217021633854
          ],
          [
            -4.1203364166666665,
            54.809892133333342
          ],
          [
            -4.1186244166666661,
            54.809263233333333
          ],
          [
            -4.1171327666666668,
            54.808656433333333
          ],
          [
            -4.1156500166666667,
            54.807834266666667
          ],
          [
            -4.1142126166666664,
            54.807052250000005
          ],
          [
            -4.1122182999999994,
            54.806580183333338
          ],
          [
            -4.110365100000001,
            54.806108716666664
          ],
          [
            -4.108641453457694,
            54.805639850533261
          ],
          [
            -4.1070217328181284,
            54.80514186218106
          ],
          [
            -4.1063951723948868,
            54.804184728376399
          ],
          [
            -4.1072669071761094,
            54.803283505010477
          ],
          [
            -4.1080362166666662,
            54.802470466666669
          ],
          [
            -4.1077545166666658,
            54.801420333333333
          ],
          [
            -4.107589479506391,
            54.800234166720657
          ],
          [
            -4.107441463310419,
            54.799285466666667
          ],
          [
            -4.1079376485225794,
            54.798412427689357
          ],
          [
            -4.1078320704686027,
            54.797434708616244
          ],
          [
            -4.1074441586353911,
            54.79653165888292
          ],
          [
            -4.1076558500000004,
            54.795604366666673
          ],
          [
            -4.1075873830615324,
            54.794655319067196
          ],
          [
            -4.1062102499999993,
            54.794196416666665
          ],
          [
            -4.1047747166666664,
            54.79376216666666
          ],
          [
            -4.1031566976242146,
            54.793635711057391
          ],
          [
            -4.1015363666666662,
            54.793556900000006
          ],
          [
            -4.1005717690134196,
            54.792769004292595
          ],
          [
            -4.0998067963172087,
            54.791982523486347
          ],
          [
            -4.0996923836957722,
            54.791055916360563
          ],
          [
            -4.10074111177678,
            54.789643651217055
          ],
          [
            -4.0978021659256223,
            54.787412446641476
          ]
        ]
      },
      "properties" : {
        "start" : "2026-04-18T22:00:00Z",
        "end" : "2026-04-19T21:59:59Z",
        "type" : "route",
        "source" : "Geory 5.3.2",
        "device" : "B9E47AEB-E54C-4563-96B6-06995DD4BC56 (iPhone 16 Pro)"
      }
    }
  ],
  "type" : "FeatureCollection"
}