{
  "features" : [
    {
      "properties" : {
        "arrival" : "2026-04-30T16:56:55Z",
        "rating" : 0,
        "source" : "Geory 5.3.2",
        "departure" : "2026-05-01T10:40:38Z",
        "timestamp" : "2026-04-30T16:56:55Z",
        "address" : "Tranarossan and Melmore Lough SAC, Irland",
        "weather" : "Bedeckter Himmel (14,2 °C)",
        "duration" : 63823.000322818756,
        "device" : "B9E47AEB-E54C-4563-96B6-06995DD4BC56 (iPhone 16 Pro)",
        "type" : "visit"
      },
      "type" : "Feature",
      "geometry" : {
        "type" : "Point",
        "coordinates" : [
          -7.7968387743929606,
          55.223290325245159
        ]
      }
    },
    {
      "geometry" : {
        "type" : "Point",
        "coordinates" : [
          -7.7969617818313282,
          55.225283594903821
        ]
      },
      "type" : "Feature",
      "properties" : {
        "departure" : "2026-05-01T11:12:25Z",
        "duration" : 1906.0002708435059,
        "rating" : 0,
        "source" : "Geory 5.3.2",
        "timestamp" : "2026-05-01T10:40:39Z",
        "weather" : "Bedeckter Himmel (13,7 °C)",
        "address" : "Tranarossan and Melmore Lough SAC, County Donegal, Irland",
        "arrival" : "2026-05-01T10:40:39Z",
        "type" : "visit",
        "device" : "B9E47AEB-E54C-4563-96B6-06995DD4BC56 (iPhone 16 Pro)"
      }
    },
    {
      "geometry" : {
        "coordinates" : [
          -7.8886032621824738,
          55.158641085415454
        ],
        "type" : "Point"
      },
      "type" : "Feature",
      "properties" : {
        "address" : "Ards Forest Park, Ards Forest Park Green Trail, County Donegal, Irland",
        "duration" : 4695.7050158977509,
        "device" : "B9E47AEB-E54C-4563-96B6-06995DD4BC56 (iPhone 16 Pro)",
        "rating" : 0,
        "type" : "visit",
        "timestamp" : "2026-05-01T11:52:36Z",
        "departure" : "2026-05-01T13:10:51Z",
        "weather" : "Bedeckter Himmel (14,4 °C)",
        "arrival" : "2026-05-01T11:52:36Z",
        "source" : "Geory 5.3.2"
      }
    },
    {
      "properties" : {
        "weather" : "Bedeckter Himmel (14,9 °C)",
        "type" : "visit",
        "rating" : 0,
        "source" : "Geory 5.3.2",
        "timestamp" : "2026-05-01T13:45:39Z",
        "device" : "B9E47AEB-E54C-4563-96B6-06995DD4BC56 (iPhone 16 Pro)",
        "duration" : 1622.0000157356262,
        "departure" : "2026-05-01T14:12:41Z",
        "arrival" : "2026-05-01T13:45:39Z",
        "address" : "Ards Forest Park, County Donegal, Irland"
      },
      "type" : "Feature",
      "geometry" : {
        "coordinates" : [
          -7.8646569267972719,
          55.159859036277958
        ],
        "type" : "Point"
      }
    },
    {
      "type" : "Feature",
      "geometry" : {
        "coordinates" : [
          -7.8648333683895846,
          55.16632386305475
        ],
        "type" : "Point"
      },
      "properties" : {
        "duration" : 2182.0000739097595,
        "device" : "B9E47AEB-E54C-4563-96B6-06995DD4BC56 (iPhone 16 Pro)",
        "source" : "Geory 5.3.2",
        "weather" : "Bedeckter Himmel (15,2 °C)",
        "arrival" : "2026-05-01T15:11:34Z",
        "type" : "visit",
        "address" : "Ards Forest Park, Ards Forest Park Green Trail, County Donegal, Irland",
        "timestamp" : "2026-05-01T15:11:34Z",
        "rating" : 0,
        "departure" : "2026-05-01T15:47:56Z"
      }
    },
    {
      "type" : "Feature",
      "geometry" : {
        "type" : "Point",
        "coordinates" : [
          -7.9724868525065027,
          55.183289511275319
        ]
      },
      "properties" : {
        "arrival" : "2026-05-01T16:38:31Z",
        "type" : "visit",
        "rating" : 0,
        "device" : "B9E47AEB-E54C-4563-96B6-06995DD4BC56 (iPhone 16 Pro)",
        "address" : "Main Street, Dunfanaghy, County Donegal, F92 CF59, Irland",
        "duration" : 7725.0249171257019,
        "departure" : "2026-05-01T18:47:16Z",
        "weather" : "Bedeckter Himmel (13,0 °C)",
        "source" : "Geory 5.3.2",
        "timestamp" : "2026-05-01T16:38:31Z"
      }
    },
    {
      "properties" : {
        "weather" : "Bedeckter Himmel (13,0 °C)",
        "departure" : "2026-05-01T19:19:30Z",
        "rating" : 0,
        "address" : "Kill, County Donegal, Irland",
        "duration" : 1517.6979088783264,
        "arrival" : "2026-05-01T18:54:13Z",
        "timestamp" : "2026-05-01T18:54:13Z",
        "device" : "B9E47AEB-E54C-4563-96B6-06995DD4BC56 (iPhone 16 Pro)",
        "type" : "visit",
        "source" : "Geory 5.3.2"
      },
      "type" : "Feature",
      "geometry" : {
        "coordinates" : [
          -7.9553840098167656,
          55.186305132422618
        ],
        "type" : "Point"
      }
    },
    {
      "type" : "Feature",
      "geometry" : {
        "coordinates" : [
          -7.9563281602916955,
          55.18623579046988
        ],
        "type" : "Point"
      },
      "properties" : {
        "address" : "Kill, County Donegal, Irland",
        "duration" : 49641.583130121231,
        "weather" : "Bedeckter Himmel (10,6 °C)",
        "rating" : 0,
        "timestamp" : "2026-05-01T19:38:30Z",
        "source" : "Geory 5.3.2",
        "device" : "B9E47AEB-E54C-4563-96B6-06995DD4BC56 (iPhone 16 Pro)",
        "type" : "visit",
        "arrival" : "2026-05-01T19:38:30Z",
        "departure" : "2026-05-02T09:25:52Z"
      }
    },
    {
      "properties" : {
        "device" : "B9E47AEB-E54C-4563-96B6-06995DD4BC56 (iPhone 16 Pro)",
        "end" : "2026-05-01T21:59:59Z",
        "source" : "Geory 5.3.2",
        "type" : "route",
        "start" : "2026-04-30T22:00:00Z"
      },
      "type" : "Feature",
      "geometry" : {
        "type" : "LineString",
        "coordinates" : [
          [
            -7.9563281602916955,
            55.18623579046988
          ],
          [
            -7.9533793726552133,
            55.186237800343044
          ],
          [
            -7.9533793726552133,
            55.186237800343044
          ],
          [
            -7.9524040575187591,
            55.185595308465828
          ],
          [
            -7.9515889574460115,
            55.184820719087085
          ],
          [
            -7.9504186687087373,
            55.184211529752112
          ],
          [
            -7.9504186687087373,
            55.184211529752112
          ],
          [
            -7.9513390408468796,
            55.184652989625071
          ],
          [
            -7.9553840098167656,
            55.186305132422618
          ],
          [
            -7.9571397382618425,
            55.185704457340044
          ],
          [
            -7.9580556333333332,
            55.184962716666668
          ],
          [
            -7.9592353491342998,
            55.184349495263127
          ],
          [
            -7.9601855998253335,
            55.183625142262457
          ],
          [
            -7.9610689666666659,
            55.182882583333338
          ],
          [
            -7.9619825317005581,
            55.182116597514351
          ],
          [
            -7.9610465166666664,
            55.181083933333333
          ],
          [
            -7.9586831,
            55.1803928
          ],
          [
            -7.9561915999999995,
            55.17988793333334
          ],
          [
            -7.9537039166666661,
            55.179379016666658
          ],
          [
            -7.9511678333333338,
            55.178863749999998
          ],
          [
            -7.9482921788642003,
            55.178191841681794
          ],
          [
            -7.9453148741539641,
            55.177543740954725
          ],
          [
            -7.9428206333333344,
            55.176842933333333
          ],
          [
            -7.9403769666666673,
            55.177148083333336
          ],
          [
            -7.9388840833333321,
            55.177820116666666
          ],
          [
            -7.9410159666666669,
            55.17739366666666
          ],
          [
            -7.9430646666666673,
            55.177206999999996
          ],
          [
            -7.9453701789083508,
            55.17766255508981
          ],
          [
            -7.9475967644135741,
            55.178147881820536
          ],
          [
            -7.9500147166666677,
            55.178357666666678
          ],
          [
            -7.9525795999999991,
            55.178745366666668
          ],
          [
            -7.95557845,
            55.17854255000001
          ],
          [
            -7.9584682000000004,
            55.17869446666667
          ],
          [
            -7.9606890166666666,
            55.179298283333338
          ],
          [
            -7.9624940999999998,
            55.179903666666668
          ],
          [
            -7.9633909333333337,
            55.180676733333335
          ],
          [
            -7.9645976166666665,
            55.18125908333333
          ],
          [
            -7.9645976166666665,
            55.18125908333333
          ],
          [
            -7.9667779333333328,
            55.181287916666662
          ],
          [
            -7.9681997833333336,
            55.181669833333338
          ],
          [
            -7.9700689333333319,
            55.182224250000004
          ],
          [
            -7.9724868525065027,
            55.183289511275319
          ],
          [
            -7.9656363666666667,
            55.182655099999998
          ],
          [
            -7.9633982666666663,
            55.182267066666661
          ],
          [
            -7.9620764000000017,
            55.181640850000001
          ],
          [
            -7.9600029500000007,
            55.180698466666669
          ],
          [
            -7.9573162500000008,
            55.180103733333333
          ],
          [
            -7.9546996333333331,
            55.179570616666659
          ],
          [
            -7.9521273833333339,
            55.179045883333345
          ],
          [
            -7.9495518333333335,
            55.178513099999996
          ],
          [
            -7.9466676000000005,
            55.177893533333325
          ],
          [
            -7.9437637666666667,
            55.177237550000008
          ],
          [
            -7.940678000000001,
            55.177321116666661
          ],
          [
            -7.9376494951406684,
            55.177851982310983
          ],
          [
            -7.9349895088982327,
            55.178320713080304
          ],
          [
            -7.9322887180577464,
            55.177869806753343
          ],
          [
            -7.9300707142035884,
            55.176866621241338
          ],
          [
            -7.928887807834017,
            55.175723702435697
          ],
          [
            -7.9283247979549971,
            55.174570040183305
          ],
          [
            -7.9266249707597289,
            55.173452061631643
          ],
          [
            -7.9246508037130736,
            55.172160974356487
          ],
          [
            -7.9223633547448511,
            55.17094750072642
          ],
          [
            -7.9210362901700933,
            55.169469837893317
          ],
          [
            -7.920865229191266,
            55.167984808634692
          ],
          [
            -7.9211950847979775,
            55.166466923069528
          ],
          [
            -7.9210644739604295,
            55.164892716584959
          ],
          [
            -7.9209051490914479,
            55.163144521952162
          ],
          [
            -7.9207569513970126,
            55.161533487128303
          ],
          [
            -7.9211196472609426,
            55.160187913787667
          ],
          [
            -7.9225850183444591,
            55.159012111784655
          ],
          [
            -7.9240112045762778,
            55.157531933282826
          ],
          [
            -7.9253297966600558,
            55.156105537135581
          ],
          [
            -7.9263592017502642,
            55.154641036537356
          ],
          [
            -7.9273228010890451,
            55.153128639061464
          ],
          [
            -7.9281807989903612,
            55.151852562724443
          ],
          [
            -7.92840415190852,
            55.150784025263455
          ],
          [
            -7.9272222587642895,
            55.150093329497615
          ],
          [
            -7.9256061262898188,
            55.150262851167255
          ],
          [
            -7.9237553235218767,
            55.150619469314826
          ],
          [
            -7.9220188416114272,
            55.150981471751841
          ],
          [
            -7.9202294413085959,
            55.151348664768946
          ],
          [
            -7.9182985469104299,
            55.151703130122606
          ],
          [
            -7.9162175075869632,
            55.152039821378942
          ],
          [
            -7.9145847660570254,
            55.15229638381183
          ],
          [
            -7.913044197728393,
            55.152578170659375
          ],
          [
            -7.9112872822209228,
            55.152821715111983
          ],
          [
            -7.9094519464154569,
            55.152993523683612
          ],
          [
            -7.9074971602780231,
            55.153168771018407
          ],
          [
            -7.9058815593858709,
            55.153326664978664
          ],
          [
            -7.9038710225293585,
            55.153616116938522
          ],
          [
            -7.9022343997656126,
            55.15398408141057
          ],
          [
            -7.9004981517408979,
            55.153964228103156
          ],
          [
            -7.898786982909682,
            55.154204543408909
          ],
          [
            -7.8974307869675249,
            55.154759089228705
          ],
          [
            -7.8964323169523114,
            55.155539930936619
          ],
          [
            -7.8948251480899181,
            55.155674581905942
          ],
          [
            -7.8938595541580341,
            55.155745485556423
          ],
          [
            -7.8929054773306033,
            55.155887868278995
          ],
          [
            -7.8927641074790653,
            55.155923136427049
          ],
          [
            -7.8885451504650348,
            55.159561818743988
          ],
          [
            -7.8870555943085821,
            55.159868676744175
          ],
          [
            -7.8861116047595772,
            55.160598265457864
          ],
          [
            -7.8852408480018452,
            55.161358130706112
          ],
          [
            -7.8839831973680932,
            55.161899631961568
          ],
          [
            -7.8824617954366198,
            55.16214118560179
          ],
          [
            -7.8811213747905029,
            55.162623967728308
          ],
          [
            -7.8804306833425706,
            55.16343171595156
          ],
          [
            -7.8791960387783577,
            55.163992460252366
          ],
          [
            -7.8781900966079803,
            55.164683530352058
          ],
          [
            -7.8769797183495962,
            55.165259567288111
          ],
          [
            -7.8755513009285227,
            55.165631551399628
          ],
          [
            -7.8741013708835954,
            55.165998102802597
          ],
          [
            -7.8725136503957316,
            55.165995256784093
          ],
          [
            -7.8709512694285744,
            55.166106333136916
          ],
          [
            -7.8693526112992762,
            55.166014331878301
          ],
          [
            -7.8648333683895846,
            55.16632386305475
          ],
          [
            -7.8624391962169771,
            55.166369143304621
          ],
          [
            -7.8611088627570682,
            55.165881593549756
          ],
          [
            -7.8605777729974777,
            55.16503168491019
          ],
          [
            -7.8593153812467511,
            55.164486961269148
          ],
          [
            -7.8577481683122192,
            55.164439465438264
          ],
          [
            -7.8567765808554455,
            55.165151435229888
          ],
          [
            -7.8552105900489853,
            55.165078115059025
          ],
          [
            -7.8546623321171953,
            55.164235002930106
          ],
          [
            -7.8548148400012403,
            55.163335340891685
          ],
          [
            -7.8558510846415777,
            55.162650037222477
          ],
          [
            -7.8570123357131374,
            55.162041821954851
          ],
          [
            -7.8576686068932089,
            55.161218538276131
          ],
          [
            -7.85811733007389,
            55.160348631082002
          ],
          [
            -7.8594651886848466,
            55.159877772771303
          ],
          [
            -7.8607318395233907,
            55.159326194952001
          ],
          [
            -7.8626762365420966,
            55.158136965659061
          ],
          [
            -7.8646398642694511,
            55.158405963389171
          ],
          [
            -7.8646569267972719,
            55.159859036277958
          ],
          [
            -7.8672589490396563,
            55.159780803778688
          ],
          [
            -7.8688413216448296,
            55.159893465977333
          ],
          [
            -7.8703935244303596,
            55.160041787213018
          ],
          [
            -7.871956731261438,
            55.159903433144287
          ],
          [
            -7.8731181275408035,
            55.15928347578096
          ],
          [
            -7.8745845135631489,
            55.158765678207295
          ],
          [
            -7.8756157526498232,
            55.158207372488441
          ],
          [
            -7.8768600355639631,
            55.157634760369895
          ],
          [
            -7.8781720361154859,
            55.157140773018199
          ],
          [
            -7.8791387281207266,
            55.156420770070937
          ],
          [
            -7.8807108769441339,
            55.156485369739478
          ],
          [
            -7.8819195816841283,
            55.157160041711712
          ],
          [
            -7.8828557903623366,
            55.157806107592009
          ],
          [
            -7.8829633823831866,
            55.158710137888633
          ],
          [
            -7.8844937947782787,
            55.158504448193831
          ],
          [
            -7.8886032621824738,
            55.158641085415454
          ],
          [
            -7.8945096526553113,
            55.155717484991648
          ],
          [
            -7.8961429500000007,
            55.155658633333331
          ],
          [
            -7.8975277016122902,
            55.154732348107203
          ],
          [
            -7.8992712919552961,
            55.154104283169943
          ],
          [
            -7.9012896359393308,
            55.1540065506045
          ],
          [
            -7.9029459279691094,
            55.153883852439407
          ],
          [
            -7.9044261984654556,
            55.153500842833104
          ],
          [
            -7.9064450478355734,
            55.15330320876069
          ],
          [
            -7.9083106166666672,
            55.153136233333328
          ],
          [
            -7.9102321833333331,
            55.152934066666667
          ],
          [
            -7.9119077833333336,
            55.152785966666677
          ],
          [
            -7.9134254333333329,
            55.152532116666663
          ],
          [
            -7.9149677333333326,
            55.152255766666663
          ],
          [
            -7.9166997500000003,
            55.151977850000002
          ],
          [
            -7.918317533333334,
            55.151724000000002
          ],
          [
            -7.9201874499999994,
            55.151381366666662
          ],
          [
            -7.9218634666666672,
            55.151046449999996
          ],
          [
            -7.9234567666666669,
            55.150711216666664
          ],
          [
            -7.9250082967498603,
            55.150383278138378
          ],
          [
            -7.9265946331386976,
            55.1501537381709
          ],
          [
            -7.9283058999999998,
            55.150204616666663
          ],
          [
            -7.9287108333333345,
            55.14885876666667
          ],
          [
            -7.9293754499999993,
            55.147205566666663
          ],
          [
            -7.9283531666666667,
            55.145738533333329
          ],
          [
            -7.925816049999999,
            55.144884249999997
          ],
          [
            -7.9232572166666673,
            55.144605050000003
          ],
          [
            -7.9214892000000008,
            55.143835350000003
          ],
          [
            -7.9208160666666663,
            55.143479866666667
          ],
          [
            -7.9185463500000006,
            55.142257433333327
          ],
          [
            -7.9166849999999993,
            55.141044549999997
          ],
          [
            -7.9154672500000007,
            55.139439016666664
          ],
          [
            -7.9149545000000003,
            55.137689450000003
          ],
          [
            -7.9150355461219375,
            55.135927772950744
          ],
          [
            -7.9156700708253336,
            55.134405411094903
          ],
          [
            -7.9162565166666656,
            55.132618950000008
          ],
          [
            -7.9151814333333341,
            55.131058249999995
          ],
          [
            -7.9137960666666674,
            55.129640583333334
          ],
          [
            -7.91300735,
            55.128135083333333
          ],
          [
            -7.9129673,
            55.126908100000009
          ],
          [
            -7.912339066666668,
            55.125775433333338
          ],
          [
            -7.9116490833333328,
            55.124674549999988
          ],
          [
            -7.9106255833333323,
            55.123872833333337
          ],
          [
            -7.9093778666666674,
            55.123285000000003
          ],
          [
            -7.9081657166666668,
            55.12270216666667
          ],
          [
            -7.9069974666666676,
            55.122041349999996
          ],
          [
            -7.9057413204953528,
            55.121362541484196
          ],
          [
            -7.9046764499999993,
            55.120304366666673
          ],
          [
            -7.9056055333333326,
            55.119033666666674
          ],
          [
            -7.9062818333333329,
            55.117596883333334
          ],
          [
            -7.9068303999999987,
            55.116300033333324
          ],
          [
            -7.9078067999999995,
            55.114927383333338
          ],
          [
            -7.9082480666666664,
            55.113644666666673
          ],
          [
            -7.906239583333333,
            55.113184383333333
          ],
          [
            -7.9049117166666676,
            55.113769950000005
          ],
          [
            -7.903108388815741,
            55.114608226013289
          ],
          [
            -7.9012562351174704,
            55.115453134813407
          ],
          [
            -7.8996134295362124,
            55.116164877879939
          ],
          [
            -7.8979124333333335,
            55.116832083333342
          ],
          [
            -7.8964495999999995,
            55.11776553333334
          ],
          [
            -7.8949194333333335,
            55.118743449999997
          ],
          [
            -7.8927079333333321,
            55.119381433333338
          ],
          [
            -7.8908129166666656,
            55.119813049999998
          ],
          [
            -7.8890412166666675,
            55.120356883333336
          ],
          [
            -7.8867685333333331,
            55.120866533333341
          ],
          [
            -7.8845361000000009,
            55.121411033333338
          ],
          [
            -7.8827538500000003,
            55.122107700000001
          ],
          [
            -7.8809038333333339,
            55.122804000000002
          ],
          [
            -7.8791383833333324,
            55.123447266666666
          ],
          [
            -7.8769444999999996,
            55.124168083333338
          ],
          [
            -7.8747259500000011,
            55.124658966666658
          ],
          [
            -7.8725749000000009,
            55.125075916666674
          ],
          [
            -7.870448699999999,
            55.125501166666659
          ],
          [
            -7.8684630166666674,
            55.125915766666665
          ],
          [
            -7.8665784666666658,
            55.126303716666669
          ],
          [
            -7.8645841666666669,
            55.126664133333335
          ],
          [
            -7.8624724999999991,
            55.126968400000003
          ],
          [
            -7.8604182499999995,
            55.127275833333336
          ],
          [
            -7.8585145833333341,
            55.127561900000003
          ],
          [
            -7.8565590666666667,
            55.127423933333333
          ],
          [
            -7.8549592999999991,
            55.127275916666669
          ],
          [
            -7.8536422499999992,
            55.126692199999994
          ],
          [
            -7.8536422499999992,
            55.126692199999994
          ],
          [
            -7.8520554000000002,
            55.126293249999996
          ],
          [
            -7.8506937333333333,
            55.127063699999994
          ],
          [
            -7.8512219166666668,
            55.128486050000006
          ],
          [
            -7.8512972166666675,
            55.129582933333324
          ],
          [
            -7.8507694951495051,
            55.130827071544481
          ],
          [
            -7.8486613999999992,
            55.131902049999987
          ],
          [
            -7.8460704666666663,
            55.132399566666663
          ],
          [
            -7.8440655499999989,
            55.133504383333332
          ],
          [
            -7.8419126833333337,
            55.134696116666667
          ],
          [
            -7.8405192999999995,
            55.136010116666668
          ],
          [
            -7.8394469499999992,
            55.137408266666675
          ],
          [
            -7.8384630166666671,
            55.138894133333331
          ],
          [
            -7.8381431575840947,
            55.140374032562285
          ],
          [
            -7.8361616666666665,
            55.141611133333328
          ],
          [
            -7.8339368833333323,
            55.142551033333334
          ],
          [
            -7.8316553666666664,
            55.143493249999999
          ],
          [
            -7.8293224000000006,
            55.14434845000001
          ],
          [
            -7.826971799999999,
            55.145073950000004
          ],
          [
            -7.8244483499999999,
            55.14572543333334
          ],
          [
            -7.822048333333333,
            55.146627516666662
          ],
          [
            -7.8201703333333343,
            55.147862233333335
          ],
          [
            -7.8177061666666665,
            55.148807566666662
          ],
          [
            -7.815966716666666,
            55.150102699999998
          ],
          [
            -7.8155443666666677,
            55.151679016666669
          ],
          [
            -7.8137021833333336,
            55.153096400000003
          ],
          [
            -7.811593900000001,
            55.154268033333331
          ],
          [
            -7.8103348500000003,
            55.154942333333338
          ],
          [
            -7.8093004666666666,
            55.155509616666663
          ],
          [
            -7.8072195500000001,
            55.156631916666655
          ],
          [
            -7.8054790833333341,
            55.157571733333334
          ],
          [
            -7.8040916000000005,
            55.158569633333343
          ],
          [
            -7.8035792499999994,
            55.15975421666667
          ],
          [
            -7.8029841666666666,
            55.161138766666667
          ],
          [
            -7.8023633333333331,
            55.162737966666661
          ],
          [
            -7.801815883333334,
            55.164251066666672
          ],
          [
            -7.8013156666666665,
            55.165693033333341
          ],
          [
            -7.8009025666666671,
            55.167133
          ],
          [
            -7.8006886166666671,
            55.1684707
          ],
          [
            -7.8004437833333329,
            55.169847533333332
          ],
          [
            -7.8000930999999998,
            55.17116406666667
          ],
          [
            -7.7997501999999992,
            55.172393449999994
          ],
          [
            -7.7993587333333343,
            55.173607533333346
          ],
          [
            -7.7986562166666662,
            55.174619566666664
          ],
          [
            -7.7977217666666663,
            55.175437433333336
          ],
          [
            -7.799773305517391,
            55.175451712572361
          ],
          [
            -7.8021164166666663,
            55.175474733333338
          ],
          [
            -7.8045928499999997,
            55.176155000000001
          ],
          [
            -7.8069897000000008,
            55.176792133333322
          ],
          [
            -7.8087753333333332,
            55.177560666666672
          ],
          [
            -7.8097623499999997,
            55.179126100000005
          ],
          [
            -7.8107674499999993,
            55.180706216666671
          ],
          [
            -7.8118243333333339,
            55.182377399999993
          ],
          [
            -7.8126353999999996,
            55.183641533333336
          ],
          [
            -7.8130472666666657,
            55.184552183333338
          ],
          [
            -7.8132729166666666,
            55.184984616666668
          ],
          [
            -7.8136291333333334,
            55.185632966666667
          ],
          [
            -7.8141998333333333,
            55.186676950000006
          ],
          [
            -7.8148953333333342,
            55.187660366666663
          ],
          [
            -7.8154593666666665,
            55.188688716666675
          ],
          [
            -7.8161854500000008,
            55.189612416666655
          ],
          [
            -7.817285216666666,
            55.190270499999997
          ],
          [
            -7.8186130420983382,
            55.190948691391007
          ],
          [
            -7.8198713232723289,
            55.191653107346148
          ],
          [
            -7.819774616666666,
            55.192762166666668
          ],
          [
            -7.820011066666666,
            55.193842549999999
          ],
          [
            -7.8209108911873502,
            55.194688704708348
          ],
          [
            -7.8211732166666668,
            55.19593918333333
          ],
          [
            -7.8207597000000009,
            55.197161733333324
          ],
          [
            -7.8198408729813025,
            55.1980964990695
          ],
          [
            -7.8189733500000003,
            55.199112466666669
          ],
          [
            -7.8182501666666671,
            55.19999039999999
          ],
          [
            -7.8176650591219454,
            55.201196442541836
          ],
          [
            -7.8164181360593394,
            55.201874324783049
          ],
          [
            -7.8160351166666651,
            55.202782766666665
          ],
          [
            -7.8148295793406186,
            55.203622603049965
          ],
          [
            -7.8135828075288583,
            55.204368087362539
          ],
          [
            -7.8133615833333332,
            55.205572716666666
          ],
          [
            -7.8147256166666681,
            55.206378566666672
          ],
          [
            -7.8161854166666673,
            55.206908883333334
          ],
          [
            -7.8177995333333348,
            55.207622266666675
          ],
          [
            -7.8176820000000005,
            55.208668799999998
          ],
          [
            -7.8178000378255836,
            55.209793363391455
          ],
          [
            -7.8179515367835428,
            55.211013612633934
          ],
          [
            -7.817378166666666,
            55.211903833333331
          ],
          [
            -7.8157140333501749,
            55.2117904072445
          ],
          [
            -7.8144898499999993,
            55.212558099999988
          ],
          [
            -7.8144778094648082,
            55.213544372980436
          ],
          [
            -7.8144203833333341,
            55.214499199999999
          ],
          [
            -7.8139904334449035,
            55.215406916666673
          ],
          [
            -7.8140727833333345,
            55.2163714
          ],
          [
            -7.8128871833333333,
            55.216998633333333
          ],
          [
            -7.811610299999999,
            55.217566283333319
          ],
          [
            -7.8104004024880416,
            55.218194714283435
          ],
          [
            -7.8093236666666677,
            55.218937516666664
          ],
          [
            -7.8081476666666667,
            55.219642833333332
          ],
          [
            -7.8071952666666675,
            55.220437599999997
          ],
          [
            -7.8071158531775859,
            55.221343935476078
          ],
          [
            -7.8073716166666678,
            55.222310133333337
          ],
          [
            -7.8066158833333334,
            55.223190200000005
          ],
          [
            -7.8057662891161064,
            55.223989804564205
          ],
          [
            -7.8049366978271113,
            55.224794818660335
          ],
          [
            -7.8040785049450543,
            55.225622859736411
          ],
          [
            -7.8032148738062652,
            55.226444951745052
          ],
          [
            -7.8024205924867109,
            55.22722275310867
          ],
          [
            -7.8012079166666677,
            55.227893083333328
          ],
          [
            -7.7996548142139419,
            55.227595364600838
          ],
          [
            -7.7982228352600096,
            55.226567401523468
          ],
          [
            -7.7969617818313282,
            55.225283594903821
          ],
          [
            -7.7968387743929606,
            55.223290325245159
          ]
        ]
      }
    }
  ],
  "type" : "FeatureCollection"
}