{
  "type" : "FeatureCollection",
  "features" : [
    {
      "type" : "Feature",
      "geometry" : {
        "type" : "Point",
        "coordinates" : [
          -3.3455760634407636,
          58.615518370548493
        ]
      },
      "properties" : {
        "address" : "A836, Dunnet, Thurso, KW14, Schottland",
        "arrival" : "2026-09-27T17:40:08Z",
        "device" : "B9E47AEB-E54C-4563-96B6-06995DD4BC56 (iPhone 16 Pro)",
        "source" : "Geory 5.3.2",
        "departure" : "2026-09-28T09:07:28Z",
        "type" : "visit",
        "timestamp" : "2026-09-27T17:40:08Z",
        "weather" : "Regen (10,2 °C)",
        "rating" : 0,
        "duration" : 55640.479755878448
      }
    },
    {
      "geometry" : {
        "type" : "Point",
        "coordinates" : [
          -3.3458929393090799,
          58.615415936211392
        ]
      },
      "type" : "Feature",
      "properties" : {
        "timestamp" : "2026-09-28T09:10:55Z",
        "type" : "visit",
        "address" : "A836, Dunnet, Thurso, KW14, Schottland",
        "arrival" : "2026-09-28T09:10:55Z",
        "duration" : 2173.3545796871185,
        "weather" : "Klarer Himmel (12,1 °C)",
        "rating" : 0,
        "departure" : "2026-09-28T09:47:09Z",
        "source" : "Geory 5.3.2",
        "device" : "B9E47AEB-E54C-4563-96B6-06995DD4BC56 (iPhone 16 Pro)"
      }
    },
    {
      "properties" : {
        "duration" : 2828.0947029590607,
        "device" : "B9E47AEB-E54C-4563-96B6-06995DD4BC56 (iPhone 16 Pro)",
        "departure" : "2026-09-28T11:30:06Z",
        "type" : "visit",
        "weather" : "Überwiegend bewölkt (12,1 °C)",
        "address" : "A836, Castletown, Thurso, KW14, Schottland",
        "rating" : 0,
        "source" : "Geory 5.3.2",
        "arrival" : "2026-09-28T10:42:58Z",
        "timestamp" : "2026-09-28T10:42:58Z"
      },
      "type" : "Feature",
      "geometry" : {
        "type" : "Point",
        "coordinates" : [
          -3.3752259283467714,
          58.593491083032127
        ]
      }
    },
    {
      "properties" : {
        "weather" : "Bedeckter Himmel (13,2 °C)",
        "source" : "Geory 5.3.2",
        "timestamp" : "2026-09-28T12:03:39Z",
        "device" : "B9E47AEB-E54C-4563-96B6-06995DD4BC56 (iPhone 16 Pro)",
        "type" : "visit",
        "rating" : 0,
        "arrival" : "2026-09-28T12:03:39Z",
        "departure" : "2026-09-28T12:37:00Z",
        "duration" : 2000.7558689117432,
        "address" : "A836, Dunnet, Thurso, KW14, Schottland"
      },
      "type" : "Feature",
      "geometry" : {
        "type" : "Point",
        "coordinates" : [
          -3.3456702621178347,
          58.615557051402455
        ]
      }
    },
    {
      "type" : "Feature",
      "properties" : {
        "arrival" : "2026-09-28T12:50:07Z",
        "type" : "visit",
        "weather" : "Bedeckter Himmel (13,0 °C)",
        "rating" : 0,
        "device" : "B9E47AEB-E54C-4563-96B6-06995DD4BC56 (iPhone 16 Pro)",
        "duration" : 2035.9034841060638,
        "address" : "Dunnet Head Lighthouse, B855, Thurso, W14 8XS, Schottland",
        "source" : "Geory 5.3.2",
        "departure" : "2026-09-28T13:24:03Z",
        "timestamp" : "2026-09-28T12:50:07Z"
      },
      "geometry" : {
        "coordinates" : [
          -3.3764921632056524,
          58.670564384783425
        ],
        "type" : "Point"
      }
    },
    {
      "geometry" : {
        "coordinates" : [
          -3.3719642232298361,
          58.669171317930086
        ],
        "type" : "Point"
      },
      "type" : "Feature",
      "properties" : {
        "duration" : 980.47160482406616,
        "rating" : 0,
        "source" : "Geory 5.3.2",
        "timestamp" : "2026-09-28T13:24:03Z",
        "type" : "visit",
        "address" : "Thurso, KW14, Schottland",
        "device" : "B9E47AEB-E54C-4563-96B6-06995DD4BC56 (iPhone 16 Pro)",
        "arrival" : "2026-09-28T13:24:03Z",
        "departure" : "2026-09-28T13:40:24Z",
        "weather" : "Bedeckter Himmel (12,7 °C)"
      }
    },
    {
      "type" : "Feature",
      "geometry" : {
        "type" : "Point",
        "coordinates" : [
          -3.5172700926166254,
          58.590764177939477
        ]
      },
      "properties" : {
        "duration" : 3710.7093276977539,
        "timestamp" : "2026-09-28T14:20:04Z",
        "departure" : "2026-09-28T15:21:54Z",
        "address" : "1 Millbank Road, Thurso, KW14 8PS, Schottland",
        "device" : "B9E47AEB-E54C-4563-96B6-06995DD4BC56 (iPhone 16 Pro)",
        "source" : "Geory 5.3.2",
        "arrival" : "2026-09-28T14:20:04Z",
        "type" : "visit",
        "rating" : 0,
        "weather" : "Bedeckter Himmel (14,0 °C)"
      }
    },
    {
      "properties" : {
        "duration" : 14643.847490787506,
        "source" : "Geory 5.3.2",
        "timestamp" : "2026-09-28T15:57:11Z",
        "arrival" : "2026-09-28T15:57:11Z",
        "address" : "Thurso, KW14, Schottland",
        "weather" : "Leicht bewölkt (14,6 °C)",
        "type" : "visit",
        "rating" : 0,
        "device" : "B9E47AEB-E54C-4563-96B6-06995DD4BC56 (iPhone 16 Pro)"
      },
      "geometry" : {
        "type" : "Point",
        "coordinates" : [
          -3.9236678999999999,
          58.559297766666667
        ]
      },
      "type" : "Feature"
    },
    {
      "properties" : {
        "source" : "Geory 5.3.2",
        "type" : "visit",
        "address" : "Thurso, KW14, Schottland",
        "timestamp" : "2026-09-28T16:55:15Z",
        "arrival" : "2026-09-28T16:55:15Z",
        "device" : "B9E47AEB-E54C-4563-96B6-06995DD4BC56 (iPhone 16 Pro)",
        "rating" : 0,
        "duration" : 11159.998708724976
      },
      "type" : "Feature",
      "geometry" : {
        "coordinates" : [
          -3.9235652720291796,
          58.559309830978307
        ],
        "type" : "Point"
      }
    },
    {
      "type" : "Feature",
      "geometry" : {
        "coordinates" : [
          [
            -3.9235652720291796,
            58.559309830978307
          ],
          [
            -3.9236678999999999,
            58.559297766666667
          ],
          [
            -3.9236727666666669,
            58.559190050000012
          ],
          [
            -3.9235790537685227,
            58.558290891038034
          ],
          [
            -3.9248467172153201,
            58.557682236062107
          ],
          [
            -3.9255768499999997,
            58.556794533333338
          ],
          [
            -3.9238666833333333,
            58.556415249999993
          ],
          [
            -3.9218381166666667,
            58.555710500000004
          ],
          [
            -3.9197777499999997,
            58.554916550000002
          ],
          [
            -3.9183656999999998,
            58.553726933333337
          ],
          [
            -3.9170969333333336,
            58.552598933333336
          ],
          [
            -3.9158012166666669,
            58.551515366666671
          ],
          [
            -3.9144506666666663,
            58.55051541666667
          ],
          [
            -3.9126535499999999,
            58.54979853333333
          ],
          [
            -3.9106980333333334,
            58.548573333333323
          ],
          [
            -3.9094256166666668,
            58.546911916666673
          ],
          [
            -3.908247733333333,
            58.545333916666671
          ],
          [
            -3.9067797000000004,
            58.54371543333334
          ],
          [
            -3.9043052166666667,
            58.542551033333332
          ],
          [
            -3.9011442499999998,
            58.541969350000002
          ],
          [
            -3.8981200499999997,
            58.542036766666662
          ],
          [
            -3.8952164999999996,
            58.542707733333323
          ],
          [
            -3.8930321333333335,
            58.543884466666668
          ],
          [
            -3.8916779666666668,
            58.54528641666667
          ],
          [
            -3.8908985500000002,
            58.546748333333333
          ],
          [
            -3.8895935333333331,
            58.548245666666659
          ],
          [
            -3.8884215666666671,
            58.549801233333334
          ],
          [
            -3.8871358499999999,
            58.551031716666664
          ],
          [
            -3.8846470500000003,
            58.551637933333332
          ],
          [
            -3.8816627666666665,
            58.55187591666666
          ],
          [
            -3.8788181166666664,
            58.551750433333339
          ],
          [
            -3.8761353833333336,
            58.552272766666661
          ],
          [
            -3.8738571833333331,
            58.55292841666666
          ],
          [
            -3.87110245,
            58.553181849999994
          ],
          [
            -3.8690895689046507,
            58.554303507541711
          ],
          [
            -3.8661948833333337,
            58.554694183333339
          ],
          [
            -3.8629380333333332,
            58.554571383333332
          ],
          [
            -3.8597317166666669,
            58.55478244999999
          ],
          [
            -3.8566201666666662,
            58.554849066666669
          ],
          [
            -3.8536742333333334,
            58.554689866666671
          ],
          [
            -3.8506012999999997,
            58.554210883333319
          ],
          [
            -3.8475027000000002,
            58.554656700000002
          ],
          [
            -3.8449118833333329,
            58.555482016666673
          ],
          [
            -3.8419870166666668,
            58.556161999999993
          ],
          [
            -3.8392331833333335,
            58.556631050000007
          ],
          [
            -3.8365201666666668,
            58.556074283333324
          ],
          [
            -3.8349985166666669,
            58.554736550000008
          ],
          [
            -3.832275633333333,
            58.554496766666674
          ],
          [
            -3.8293295000000001,
            58.554921950000008
          ],
          [
            -3.8262607833333333,
            58.555317683333335
          ],
          [
            -3.8234899333333336,
            58.555699066666662
          ],
          [
            -3.8203999666666668,
            58.556050500000005
          ],
          [
            -3.8177289166666668,
            58.556333499999994
          ],
          [
            -3.8146874333333329,
            58.556319916666673
          ],
          [
            -3.8118895499999996,
            58.556433333333345
          ],
          [
            -3.8091355,
            58.556878000000005
          ],
          [
            -3.806311766666667,
            58.556793966666667
          ],
          [
            -3.8035269,
            58.556690533333331
          ],
          [
            -3.8004049999999996,
            58.556534349999993
          ],
          [
            -3.7976821666666667,
            58.556502166666661
          ],
          [
            -3.7951461833333333,
            58.556685900000005
          ],
          [
            -3.7932876000000002,
            58.55717143333333
          ],
          [
            -3.790616,
            58.557724750000006
          ],
          [
            -3.7889723000000002,
            58.557999966666664
          ],
          [
            -3.7868729666666665,
            58.558353500000003
          ],
          [
            -3.7846789666666667,
            58.558720449999996
          ],
          [
            -3.7824707166666669,
            58.559083199999996
          ],
          [
            -3.7801839000000004,
            58.559186950000004
          ],
          [
            -3.7782871666666669,
            58.559194549999994
          ],
          [
            -3.7764611833333332,
            58.558974549999995
          ],
          [
            -3.7745115666666664,
            58.55903918333334
          ],
          [
            -3.7728753833333335,
            58.559641399999997
          ],
          [
            -3.7712401,
            58.560326066666661
          ],
          [
            -3.7692451666666673,
            58.560711949999991
          ],
          [
            -3.7673266333333335,
            58.560905116666667
          ],
          [
            -3.765538133333334,
            58.560932933333333
          ],
          [
            -3.7636435333333327,
            58.560864016666663
          ],
          [
            -3.7616109333333334,
            58.560825683333327
          ],
          [
            -3.7601149666666669,
            58.562234733333334
          ],
          [
            -3.7585792666666662,
            58.563789550000003
          ],
          [
            -3.7565110500000003,
            58.565158583333336
          ],
          [
            -3.7540571333333337,
            58.566367749999998
          ],
          [
            -3.7515717000000004,
            58.567230566666659
          ],
          [
            -3.7487835166666668,
            58.568197033333334
          ],
          [
            -3.7460680500000003,
            58.569253966666672
          ],
          [
            -3.7436666999999999,
            58.570253683333341
          ],
          [
            -3.7413587166666664,
            58.571197366666667
          ],
          [
            -3.7385434333333336,
            58.572061233333336
          ],
          [
            -3.7356774000000001,
            58.572932533333336
          ],
          [
            -3.7330342999999999,
            58.573954199999989
          ],
          [
            -3.7310994166666669,
            58.575329933333329
          ],
          [
            -3.7302540500000001,
            58.575978733333336
          ],
          [
            -3.729251416666667,
            58.576756166666677
          ],
          [
            -3.7275244500000002,
            58.578098433333331
          ],
          [
            -3.725917766666667,
            58.579381250000004
          ],
          [
            -3.7236128333333331,
            58.580526666666678
          ],
          [
            -3.721019633333333,
            58.581554199999992
          ],
          [
            -3.7182614666666667,
            58.582655250000002
          ],
          [
            -3.7154000333333332,
            58.583809183333337
          ],
          [
            -3.7125904999999997,
            58.58493618333334
          ],
          [
            -3.7097324999999999,
            58.586087500000005
          ],
          [
            -3.706933733333333,
            58.587217499999994
          ],
          [
            -3.7041185666666672,
            58.588338883333336
          ],
          [
            -3.7014630666666668,
            58.589387116666664
          ],
          [
            -3.6986968833333331,
            58.590486433333339
          ],
          [
            -3.6959339999999994,
            58.591593033333325
          ],
          [
            -3.6932880999999997,
            58.592650516666666
          ],
          [
            -3.6908419666666665,
            58.59363175
          ],
          [
            -3.6881503666666666,
            58.594707050000004
          ],
          [
            -3.6856978666666662,
            58.595687699999999
          ],
          [
            -3.6834470166666669,
            58.59660971666667
          ],
          [
            -3.6804230666666666,
            58.59672006666667
          ],
          [
            -3.677247883333334,
            58.596309000000005
          ],
          [
            -3.6742456333333338,
            58.595924866666678
          ],
          [
            -3.6713515499999998,
            58.595571683333333
          ],
          [
            -3.6682664999999997,
            58.595364933333329
          ],
          [
            -3.6653802666666664,
            58.595090799999994
          ],
          [
            -3.6628310000000002,
            58.594464783333322
          ],
          [
            -3.6601216833333337,
            58.594139366666667
          ],
          [
            -3.6582433499999998,
            58.595084916666671
          ],
          [
            -3.6577520666666667,
            58.595495616666661
          ],
          [
            -3.6561680500000007,
            58.595835466666664
          ],
          [
            -3.652916433333333,
            58.596304266666664
          ],
          [
            -3.6495421333333331,
            58.596833749999995
          ],
          [
            -3.6462996333333337,
            58.597376500000003
          ],
          [
            -3.6431117333333334,
            58.597908750000002
          ],
          [
            -3.639957233333333,
            58.598434233333336
          ],
          [
            -3.63679445,
            58.598961016666664
          ],
          [
            -3.6333932166666671,
            58.5995226
          ],
          [
            -3.6303625333333334,
            58.60002346666667
          ],
          [
            -3.6278460166666675,
            58.600900199999991
          ],
          [
            -3.6258308833333333,
            58.602019100000007
          ],
          [
            -3.6230120833333332,
            58.602806266666661
          ],
          [
            -3.6199207499999999,
            58.603141683333327
          ],
          [
            -3.6168794666666666,
            58.603754183333336
          ],
          [
            -3.6134221833333338,
            58.604065166666672
          ],
          [
            -3.6102441999999995,
            58.604211733333344
          ],
          [
            -3.6071787,
            58.604221066666668
          ],
          [
            -3.6042273499999999,
            58.604146333333333
          ],
          [
            -3.6009668333333336,
            58.603947699999999
          ],
          [
            -3.5976045333333331,
            58.603628533333328
          ],
          [
            -3.5945157833333337,
            58.603428783333328
          ],
          [
            -3.5914922166666665,
            58.603641249999995
          ],
          [
            -3.5882236666666674,
            58.603984233333328
          ],
          [
            -3.5854528333333331,
            58.604280400000007
          ],
          [
            -3.5825461833333327,
            58.604363366666668
          ],
          [
            -3.5796355333333341,
            58.604262716666668
          ],
          [
            -3.5767673000000002,
            58.604057366666666
          ],
          [
            -3.5744911000000004,
            58.603540349999996
          ],
          [
            -3.5736565166666669,
            58.602857633333336
          ],
          [
            -3.5730121166666664,
            58.602200266666657
          ],
          [
            -3.5717668608201438,
            58.600802304440514
          ],
          [
            -3.5702932333333335,
            58.599528250000006
          ],
          [
            -3.567614016666667,
            58.598937100000001
          ],
          [
            -3.5646929999999997,
            58.598672900000004
          ],
          [
            -3.5615776166666668,
            58.598391366666661
          ],
          [
            -3.5586876333333333,
            58.598125566666674
          ],
          [
            -3.5558248000000003,
            58.597893450000008
          ],
          [
            -3.5530157666666669,
            58.598167666666662
          ],
          [
            -3.5502647833333336,
            58.598013300000005
          ],
          [
            -3.5477006333333327,
            58.597667133333331
          ],
          [
            -3.5449882000000001,
            58.597807416666669
          ],
          [
            -3.5423678500000007,
            58.598038799999998
          ],
          [
            -3.539909366666667,
            58.59825193333333
          ],
          [
            -3.5374137500000002,
            58.598402433333327
          ],
          [
            -3.5351182500000005,
            58.598264616666661
          ],
          [
            -3.5330850166666661,
            58.598087116666662
          ],
          [
            -3.5311396166666671,
            58.597915533333328
          ],
          [
            -3.5294387166666668,
            58.597627466666673
          ],
          [
            -3.527729733333334,
            58.597161666666672
          ],
          [
            -3.5260986000000001,
            58.596633883333332
          ],
          [
            -3.5246240166666665,
            58.596095016666673
          ],
          [
            -3.5229056833333332,
            58.595587899999998
          ],
          [
            -3.5213301333333331,
            58.595079050000002
          ],
          [
            -3.5205350833333333,
            58.594649683333337
          ],
          [
            -3.521110433333333,
            58.594188600000003
          ],
          [
            -3.5215266606028273,
            58.593279555565843
          ],
          [
            -3.5194252264091661,
            58.592427715671619
          ],
          [
            -3.5172700926166254,
            58.590764177939477
          ],
          [
            -3.5172370166666669,
            58.591421566666668
          ],
          [
            -3.5155214166666666,
            58.591770133333334
          ],
          [
            -3.5139027999999999,
            58.592252800000004
          ],
          [
            -3.5125519166666663,
            58.592934833333324
          ],
          [
            -3.5113073000000008,
            58.593673900000013
          ],
          [
            -3.5097913833333334,
            58.594589516666673
          ],
          [
            -3.5084735833333331,
            58.59535618333333
          ],
          [
            -3.5065282833333336,
            58.595440850000003
          ],
          [
            -3.5046584166666661,
            58.594670383333337
          ],
          [
            -3.5022656333333337,
            58.594154016666671
          ],
          [
            -3.499248933333333,
            58.593855883333333
          ],
          [
            -3.4964785833333338,
            58.593222866666672
          ],
          [
            -3.4938767333333338,
            58.592355883333326
          ],
          [
            -3.4904940333333334,
            58.592384433333336
          ],
          [
            -3.4869665499999996,
            58.592497833333326
          ],
          [
            -3.4833638999999992,
            58.592648966666665
          ],
          [
            -3.4801802333333334,
            58.592773699999995
          ],
          [
            -3.4767085333333334,
            58.59290219999999
          ],
          [
            -3.4732458333333334,
            58.593026750000007
          ],
          [
            -3.4701902333333332,
            58.593131966666675
          ],
          [
            -3.4669202166666668,
            58.593255366666668
          ],
          [
            -3.4636874500000006,
            58.59336953333333
          ],
          [
            -3.4603347166666674,
            58.593482183333329
          ],
          [
            -3.4568721833333331,
            58.593598800000002
          ],
          [
            -3.4538367999999999,
            58.593696733333338
          ],
          [
            -3.4505370166666665,
            58.593790916666663
          ],
          [
            -3.4471038623746248,
            58.593919343231498
          ],
          [
            -3.4437744166666668,
            58.59402583333334
          ],
          [
            -3.4410053333333335,
            58.594132933333334
          ],
          [
            -3.4388445833333328,
            58.594204683333324
          ],
          [
            -3.436735302269375,
            58.594293197337365
          ],
          [
            -3.4339572800290967,
            58.594392010284402
          ],
          [
            -3.4307706106763516,
            58.594509246515827
          ],
          [
            -3.4275101588989259,
            58.594632790774781
          ],
          [
            -3.4242548632308289,
            58.594748320118292
          ],
          [
            -3.4209495230390701,
            58.594863947871254
          ],
          [
            -3.4177509259869399,
            58.59497494776965
          ],
          [
            -3.4146115207002454,
            58.595085833581706
          ],
          [
            -3.4115565543557218,
            58.595189139660754
          ],
          [
            -3.4085577833333334,
            58.59529251666666
          ],
          [
            -3.4055430499999999,
            58.59535833333333
          ],
          [
            -3.402755233333334,
            58.59540483333334
          ],
          [
            -3.4004635666666663,
            58.595437999999994
          ],
          [
            -3.3980933000000006,
            58.594986599999991
          ],
          [
            -3.3961230833333329,
            58.594396783333337
          ],
          [
            -3.394152366666666,
            58.593810033333334
          ],
          [
            -3.3924249333333334,
            58.593292450000007
          ],
          [
            -3.3908623333333328,
            58.59281803333333
          ],
          [
            -3.3893551999999998,
            58.59237916666666
          ],
          [
            -3.3876423666666664,
            58.59184428333333
          ],
          [
            -3.3858556833333338,
            58.591284166666675
          ],
          [
            -3.3843252833333337,
            58.590796383333334
          ],
          [
            -3.3827074333333331,
            58.59131816666666
          ],
          [
            -3.3816560999999998,
            58.592143283333343
          ],
          [
            -3.3796858666666671,
            58.592648666666669
          ],
          [
            -3.3774102288319034,
            58.59326805633183
          ],
          [
            -3.3748154666666665,
            58.593529216666674
          ],
          [
            -3.3724655333333335,
            58.592977583333344
          ],
          [
            -3.3694019666666661,
            58.593435933333332
          ],
          [
            -3.3694019666666661,
            58.593435933333332
          ],
          [
            -3.3662582833333339,
            58.594019966666671
          ],
          [
            -3.3629761333333335,
            58.594494183333332
          ],
          [
            -3.360102466666667,
            58.595316350000004
          ],
          [
            -3.3575385666666664,
            58.596275499999997
          ],
          [
            -3.3548613999999999,
            58.597423116666668
          ],
          [
            -3.3526234499999994,
            58.598609633333332
          ],
          [
            -3.3508927833333333,
            58.599904783333336
          ],
          [
            -3.3494791333333334,
            58.601461566666664
          ],
          [
            -3.3481372833333332,
            58.603105766666673
          ],
          [
            -3.3468199999999992,
            58.604640450000005
          ],
          [
            -3.345415866666666,
            58.606108083333325
          ],
          [
            -3.3441207833333335,
            58.60763596666667
          ],
          [
            -3.3436149500000001,
            58.609124383333331
          ],
          [
            -3.3430521666666664,
            58.610677699999997
          ],
          [
            -3.343180966666667,
            58.612359616666659
          ],
          [
            -3.3436248833333337,
            58.613847883333335
          ],
          [
            -3.3441392166666666,
            58.615153499999998
          ],
          [
            -3.3455003666666667,
            58.616129883333329
          ],
          [
            -3.3463236333333337,
            58.617147099999997
          ],
          [
            -3.3465638333333336,
            58.618392616666668
          ],
          [
            -3.3455326000000003,
            58.619514933333335
          ],
          [
            -3.34449525,
            58.620586599999989
          ],
          [
            -3.3435525666666668,
            58.621549000000009
          ],
          [
            -3.3434783000000001,
            58.622524566666662
          ],
          [
            -3.3450089434030947,
            58.623045510262514
          ],
          [
            -3.3446640229530287,
            58.624110130883217
          ],
          [
            -3.3453563666666666,
            58.62519185
          ],
          [
            -3.3463793499999999,
            58.626284900000002
          ],
          [
            -3.3470453999999998,
            58.627519349999993
          ],
          [
            -3.3477066,
            58.628800466666675
          ],
          [
            -3.3483285166666672,
            58.629928383333336
          ],
          [
            -3.349053566666667,
            58.631200366666661
          ],
          [
            -3.3496734318977959,
            58.632368114671415
          ],
          [
            -3.3498707271210635,
            58.633395254872632
          ],
          [
            -3.3490854333333338,
            58.634562716666672
          ],
          [
            -3.3483120290652924,
            58.635597358475202
          ],
          [
            -3.347446066666667,
            58.636808900000005
          ],
          [
            -3.3465230666666663,
            58.638105066666668
          ],
          [
            -3.3456732833333329,
            58.6393287
          ],
          [
            -3.3448364666666661,
            58.640462600000006
          ],
          [
            -3.3431006833333337,
            58.641050116666676
          ],
          [
            -3.3419185912725644,
            58.641707973825348
          ],
          [
            -3.3425874446428754,
            58.642613146462473
          ],
          [
            -3.3433049826190309,
            58.643486735689692
          ],
          [
            -3.3440026244303245,
            58.644436629784813
          ],
          [
            -3.3445818358395334,
            58.645291286670393
          ],
          [
            -3.3455595230527848,
            58.646140804738039
          ],
          [
            -3.346478098606755,
            58.647127623697621
          ],
          [
            -3.3474228115249871,
            58.647973462632237
          ],
          [
            -3.3491505151994829,
            58.647979937391383
          ],
          [
            -3.3510161782502146,
            58.648221093668916
          ],
          [
            -3.3527909500000002,
            58.648420266666669
          ],
          [
            -3.3547003499999999,
            58.648625283333331
          ],
          [
            -3.3564020471119287,
            58.648795102114669
          ],
          [
            -3.3582198333333335,
            58.649071233333338
          ],
          [
            -3.3598004666666665,
            58.649541849999999
          ],
          [
            -3.3614001000000004,
            58.650139666666668
          ],
          [
            -3.3628456833333331,
            58.650858083333326
          ],
          [
            -3.3645896666666668,
            58.651381549999996
          ],
          [
            -3.3658836333333331,
            58.652010599999997
          ],
          [
            -3.3674156833333333,
            58.65272938333333
          ],
          [
            -3.3686192166666662,
            58.653842000000004
          ],
          [
            -3.3698363666666666,
            58.654972383333337
          ],
          [
            -3.3710564666666674,
            58.656124716666667
          ],
          [
            -3.371919866666667,
            58.656969183333331
          ],
          [
            -3.3736488314027184,
            58.657507209868015
          ],
          [
            -3.3755805884457959,
            58.657403171401405
          ],
          [
            -3.3759583833333333,
            58.658415683333338
          ],
          [
            -3.3741726833333328,
            58.65904711666667
          ],
          [
            -3.3724070000000004,
            58.659630783333327
          ],
          [
            -3.3712411333333336,
            58.660305933333333
          ],
          [
            -3.3715392666666664,
            58.661360933333327
          ],
          [
            -3.3728895333333337,
            58.66226485
          ],
          [
            -3.3737398833333332,
            58.663226699999996
          ],
          [
            -3.3745499000000003,
            58.664080383333342
          ],
          [
            -3.3754829102856423,
            58.665104668421982
          ],
          [
            -3.3761552747948529,
            58.666051188680498
          ],
          [
            -3.3762720666666666,
            58.666949916666667
          ],
          [
            -3.3748882333333334,
            58.66748801666666
          ],
          [
            -3.3769983333333329,
            58.668703033333337
          ],
          [
            -3.3765936667149257,
            58.670593597568178
          ],
          [
            -3.3719642232298361,
            58.669171317930086
          ],
          [
            -3.3764921632056524,
            58.670564384783425
          ],
          [
            -3.377021758755808,
            58.669508442846151
          ],
          [
            -3.3769691166666669,
            58.668605366666661
          ],
          [
            -3.3754586333333334,
            58.668086366666664
          ],
          [
            -3.3748748278488092,
            58.66716848407183
          ],
          [
            -3.3765388910402434,
            58.666910822982977
          ],
          [
            -3.3761391999999999,
            58.665972733333334
          ],
          [
            -3.3753718666666668,
            58.664917666666661
          ],
          [
            -3.3744085333333333,
            58.663877966666661
          ],
          [
            -3.3735276666666665,
            58.662928283333336
          ],
          [
            -3.3723591999999996,
            58.661928283333324
          ],
          [
            -3.3714109644170622,
            58.661151806670638
          ],
          [
            -3.3716581286089888,
            58.660128674178601
          ],
          [
            -3.3731415126885262,
            58.659455764086637
          ],
          [
            -3.3749338270172862,
            58.658866945348713
          ],
          [
            -3.3764743333333334,
            58.658185766666669
          ],
          [
            -3.3753895333333332,
            58.6573536
          ],
          [
            -3.3731757166666663,
            58.657449166666659
          ],
          [
            -3.3717858666666665,
            58.656724183333338
          ],
          [
            -3.3706111333333335,
            58.655620066666671
          ],
          [
            -3.3694585500000001,
            58.654546233333335
          ],
          [
            -3.3683488333333336,
            58.653503633333337
          ],
          [
            -3.3674494499999996,
            58.652675416666675
          ],
          [
            -3.3659612499999998,
            58.652012016666674
          ],
          [
            -3.3643757833333332,
            58.651300883333342
          ],
          [
            -3.3626333833333328,
            58.650756633333337
          ],
          [
            -3.361264433333333,
            58.650024966666663
          ],
          [
            -3.3596458000000005,
            58.649472950000003
          ],
          [
            -3.3579523333333339,
            58.648971883333331
          ],
          [
            -3.3560658833333328,
            58.648729033333332
          ],
          [
            -3.353932733333334,
            58.648522333333325
          ],
          [
            -3.3519773333333336,
            58.648301433333337
          ],
          [
            -3.3500452166666674,
            58.6480532
          ],
          [
            -3.3483353500000002,
            58.647842633333326
          ],
          [
            -3.3467702166666671,
            58.647355216666668
          ],
          [
            -3.3460337999999998,
            58.64653928333334
          ],
          [
            -3.3450614333333335,
            58.645715833333334
          ],
          [
            -3.344374933333333,
            58.644862033333325
          ],
          [
            -3.3437491333333336,
            58.643929016666668
          ],
          [
            -3.3430024166666672,
            58.643043133333343
          ],
          [
            -3.3423422333333335,
            58.642164133333338
          ],
          [
            -3.3428406794710006,
            58.641142561101248
          ],
          [
            -3.3437578841413353,
            58.640992044177089
          ],
          [
            -3.3449908823131551,
            58.640337943262686
          ],
          [
            -3.3458257760507428,
            58.639168492590471
          ],
          [
            -3.3466167959786315,
            58.638032297853897
          ],
          [
            -3.3474447996300323,
            58.636861512721403
          ],
          [
            -3.3482476989101095,
            58.635779472069935
          ],
          [
            -3.3490381612982807,
            58.63468124187829
          ],
          [
            -3.3498014011532047,
            58.633605987188396
          ],
          [
            -3.3498598990533757,
            58.632594582388627
          ],
          [
            -3.3492965075100178,
            58.631548580399198
          ],
          [
            -3.3486548756498222,
            58.630464903131106
          ],
          [
            -3.3480444467198862,
            58.629346881062418
          ],
          [
            -3.3475073666666666,
            58.628400466666669
          ],
          [
            -3.3469876333333333,
            58.627380966666671
          ],
          [
            -3.3464187333333331,
            58.626303049999997
          ],
          [
            -3.3454599890769106,
            58.625233691906047
          ],
          [
            -3.3446989500000002,
            58.624334949999998
          ],
          [
            -3.3449755333333333,
            58.623416716666661
          ],
          [
            -3.3441208594933736,
            58.622579219036297
          ],
          [
            -3.3435743499999999,
            58.621666949999991
          ],
          [
            -3.3443654333333335,
            58.620812466666671
          ],
          [
            -3.3453064666666665,
            58.619843016666664
          ],
          [
            -3.3456702621178347,
            58.615557051402455
          ],
          [
            -3.3493228823564105,
            58.610277043548713
          ],
          [
            -3.3498076661554679,
            58.609257450987513
          ],
          [
            -3.3505802756127383,
            58.608161986639296
          ],
          [
            -3.3535179780677642,
            58.604976134461168
          ],
          [
            -3.3547599146811127,
            58.603786185508376
          ],
          [
            -3.3556315558848295,
            58.602899114293649
          ],
          [
            -3.3556315558848295,
            58.602899114293649
          ],
          [
            -3.358128517403435,
            58.601231067230302
          ],
          [
            -3.3588290026254732,
            58.600314598318356
          ],
          [
            -3.3599091685976425,
            58.599604481681041
          ],
          [
            -3.3609203519254653,
            58.598780396976395
          ],
          [
            -3.3662391416686916,
            58.596208337826688
          ],
          [
            -3.3701674534482016,
            58.595072501230916
          ],
          [
            -3.3712642620716693,
            58.594413676953607
          ],
          [
            -3.3752259283467714,
            58.593491083032127
          ],
          [
            -3.3704622223060636,
            58.594694710654643
          ],
          [
            -3.3705438684478066,
            58.594703833282772
          ],
          [
            -3.3686017112867508,
            58.595094135996803
          ],
          [
            -3.3678278268189854,
            58.595452271832848
          ],
          [
            -3.3662215097599124,
            58.595866072817657
          ],
          [
            -3.364833530785686,
            58.596430861239767
          ],
          [
            -3.3633245050506244,
            58.596979192944488
          ],
          [
            -3.3605386355208422,
            58.598604832284416
          ],
          [
            -3.3563164207928362,
            58.60156288727098
          ],
          [
            -3.3563184292877049,
            58.601564964139243
          ],
          [
            -3.3563070411192926,
            58.60157444364706
          ],
          [
            -3.3536945998659018,
            58.602447608628907
          ],
          [
            -3.3537656896493582,
            58.603876257329809
          ],
          [
            -3.3531945455357661,
            58.604737698902063
          ],
          [
            -3.3523219496242156,
            58.605792775958292
          ],
          [
            -3.3523219496242156,
            58.605792775958292
          ],
          [
            -3.3500575622090034,
            58.607887069598483
          ],
          [
            -3.3492411245847036,
            58.608947348594342
          ],
          [
            -3.3480937426540409,
            58.609889219633487
          ],
          [
            -3.346923839023173,
            58.611439546071757
          ],
          [
            -3.3465951577954343,
            58.612520057258301
          ],
          [
            -3.3463432251350276,
            58.613829953430674
          ],
          [
            -3.3458929393090799,
            58.615415936211392
          ],
          [
            -3.3455760634407636,
            58.615518370548493
          ]
        ],
        "type" : "LineString"
      },
      "properties" : {
        "device" : "B9E47AEB-E54C-4563-96B6-06995DD4BC56 (iPhone 16 Pro)",
        "type" : "route",
        "end" : "2026-09-28T20:01:06Z",
        "start" : "2026-09-27T23:00:00Z",
        "source" : "Geory 5.3.2"
      }
    }
  ]
}