{
  "features" : [
    {
      "type" : "Feature",
      "geometry" : {
        "coordinates" : [
          -5.0158165908323724,
          55.747069531717351
        ],
        "type" : "Point"
      },
      "properties" : {
        "rating" : 0,
        "address" : "Isle Of Bute, PA20, Schottland",
        "duration" : 57092.99941444397,
        "timestamp" : "2026-05-12T17:06:13Z",
        "arrival" : "2026-05-12T17:06:13Z",
        "type" : "visit",
        "departure" : "2026-05-13T08:57:46Z",
        "weather" : "Regen (10,3 °C)",
        "source" : "Geory 5.3.2",
        "device" : "B9E47AEB-E54C-4563-96B6-06995DD4BC56 (iPhone 16 Pro)"
      }
    },
    {
      "properties" : {
        "departure" : "2026-05-13T09:53:13Z",
        "address" : "Isle Of Bute, PA20, Schottland",
        "timestamp" : "2026-05-13T09:12:05Z",
        "weather" : "Aufgelockert bewölkt (8,9 °C)",
        "rating" : 0,
        "source" : "Geory 5.3.2",
        "type" : "visit",
        "device" : "B9E47AEB-E54C-4563-96B6-06995DD4BC56 (iPhone 16 Pro)",
        "duration" : 2467.8805711269379,
        "arrival" : "2026-05-13T09:12:05Z"
      },
      "type" : "Feature",
      "geometry" : {
        "coordinates" : [
          -5.0201573769112224,
          55.79052744411365
        ],
        "type" : "Point"
      }
    },
    {
      "geometry" : {
        "coordinates" : [
          -5.0185969059921396,
          55.78827727024855
        ],
        "type" : "Point"
      },
      "properties" : {
        "departure" : "2026-05-13T10:13:34Z",
        "type" : "visit",
        "weather" : "Aufgelockert bewölkt (9,8 °C)",
        "duration" : 1185.0545253753662,
        "device" : "B9E47AEB-E54C-4563-96B6-06995DD4BC56 (iPhone 16 Pro)",
        "address" : "Isle Of Bute, PA20, Schottland",
        "arrival" : "2026-05-13T09:53:49Z",
        "timestamp" : "2026-05-13T09:53:49Z",
        "rating" : 0,
        "source" : "Geory 5.3.2"
      },
      "type" : "Feature"
    },
    {
      "type" : "Feature",
      "properties" : {
        "rating" : 0,
        "duration" : 10366.928845882416,
        "address" : "Laundry Brae Cottage, Mount Stuart Dr, Mount Stuart, Rothesay, Isle Of Bute, PA20 9LR, Schottland",
        "timestamp" : "2026-05-13T11:23:57Z",
        "arrival" : "2026-05-13T11:23:57Z",
        "weather" : "Aufgelockert bewölkt (10,5 °C)",
        "source" : "Geory 5.3.2",
        "device" : "B9E47AEB-E54C-4563-96B6-06995DD4BC56 (iPhone 16 Pro)",
        "departure" : "2026-05-13T14:16:43Z",
        "type" : "visit"
      },
      "geometry" : {
        "type" : "Point",
        "coordinates" : [
          -5.0192661796520515,
          55.791390446942643
        ]
      }
    },
    {
      "type" : "Feature",
      "geometry" : {
        "type" : "Point",
        "coordinates" : [
          -5.1584626832879126,
          55.920783379386307
        ]
      },
      "properties" : {
        "departure" : "2026-05-13T15:11:56Z",
        "rating" : 0,
        "source" : "Geory 5.3.2",
        "arrival" : "2026-05-13T14:51:12Z",
        "duration" : 1243.7016944885254,
        "type" : "visit",
        "weather" : "Überwiegend bewölkt (11,6 °C)",
        "address" : "Isle Of Bute, PA20, Schottland",
        "timestamp" : "2026-05-13T14:51:12Z",
        "device" : "B9E47AEB-E54C-4563-96B6-06995DD4BC56 (iPhone 16 Pro)"
      }
    },
    {
      "type" : "Feature",
      "properties" : {
        "rating" : 0,
        "address" : "Glendaruel Caravan Park, Glendaruel, Colintraive, PA22 3AB, Schottland",
        "departure" : "2026-05-14T10:43:39Z",
        "arrival" : "2026-05-13T15:32:03Z",
        "type" : "visit",
        "timestamp" : "2026-05-13T15:32:03Z",
        "weather" : "Überwiegend bewölkt (9,6 °C)",
        "source" : "Geory 5.3.2",
        "device" : "B9E47AEB-E54C-4563-96B6-06995DD4BC56 (iPhone 16 Pro)",
        "duration" : 69095.983559131622
      },
      "geometry" : {
        "type" : "Point",
        "coordinates" : [
          -5.2110104482093353,
          56.033711176062837
        ]
      }
    },
    {
      "type" : "Feature",
      "geometry" : {
        "coordinates" : [
          [
            -5.2110104482093353,
            56.033711176062837
          ],
          [
            -5.2107065793092033,
            56.033067034214604
          ],
          [
            -5.2093709666666674,
            56.03253316666666
          ],
          [
            -5.2079327500000003,
            56.032115750000003
          ],
          [
            -5.2063616000000001,
            56.03177573333334
          ],
          [
            -5.2050695999999999,
            56.030478766666661
          ],
          [
            -5.2051633999999991,
            56.029041683333325
          ],
          [
            -5.2055288999999991,
            56.027448050000004
          ],
          [
            -5.205985590850311,
            56.025880268000073
          ],
          [
            -5.2063367999999999,
            56.024316349999992
          ],
          [
            -5.2067241333333341,
            56.022620466666666
          ],
          [
            -5.2074422500000006,
            56.021030850000002
          ],
          [
            -5.2087154,
            56.019349933333331
          ],
          [
            -5.2099523999999988,
            56.017751916666676
          ],
          [
            -5.2111643833333323,
            56.016304716666667
          ],
          [
            -5.2125070500000001,
            56.01463811666666
          ],
          [
            -5.2129670999999993,
            56.012924133333335
          ],
          [
            -5.2128930000000002,
            56.011268966666663
          ],
          [
            -5.212855516666667,
            56.009623349999991
          ],
          [
            -5.213127916666668,
            56.008043749999999
          ],
          [
            -5.2135703500000004,
            56.006397766666666
          ],
          [
            -5.2140112000000007,
            56.004774366666666
          ],
          [
            -5.2145314166666665,
            56.002953766666664
          ],
          [
            -5.2149268000000006,
            56.001030350000001
          ],
          [
            -5.214256716666668,
            55.99940306666668
          ],
          [
            -5.2116839666666674,
            55.998403599999996
          ],
          [
            -5.2088555000000003,
            55.99793566666667
          ],
          [
            -5.2066127166666663,
            55.996731966666665
          ],
          [
            -5.2060971833333323,
            55.995770333333333
          ],
          [
            -5.2057815833333336,
            55.994900016666669
          ],
          [
            -5.2036757000000007,
            55.99354790000001
          ],
          [
            -5.2005639499999994,
            55.992911383333329
          ],
          [
            -5.1974525833333329,
            55.992821400000004
          ],
          [
            -5.1942865000000005,
            55.992179233333339
          ],
          [
            -5.1915676333333334,
            55.991156950000004
          ],
          [
            -5.1883561333333335,
            55.990645033333344
          ],
          [
            -5.1853792333333333,
            55.990029183333341
          ],
          [
            -5.1826522500000003,
            55.989090366666673
          ],
          [
            -5.1803000499999996,
            55.987845116666655
          ],
          [
            -5.1781801833333327,
            55.98605968333333
          ],
          [
            -5.1769158500000012,
            55.984150766666666
          ],
          [
            -5.1764230333333332,
            55.982408700000001
          ],
          [
            -5.1766031646948925,
            55.98059743007267
          ],
          [
            -5.1771607255453702,
            55.978737746093138
          ],
          [
            -5.1777317629476407,
            55.976830406834956
          ],
          [
            -5.1785861716544188,
            55.974805746076626
          ],
          [
            -5.1798179183382551,
            55.973071400400848
          ],
          [
            -5.1812384536568148,
            55.971569106267218
          ],
          [
            -5.1825822993856621,
            55.970195566859061
          ],
          [
            -5.1842990464388494,
            55.96898485149763
          ],
          [
            -5.1859682114602563,
            55.967757501739328
          ],
          [
            -5.1863871662335725,
            55.966076183596499
          ],
          [
            -5.1862955733699163,
            55.964470947467916
          ],
          [
            -5.185160558694573,
            55.962787869751736
          ],
          [
            -5.184802033730775,
            55.960750730848723
          ],
          [
            -5.1846265285095674,
            55.958788754334456
          ],
          [
            -5.1841843437077459,
            55.957264090047794
          ],
          [
            -5.184007822978276,
            55.95657872584885
          ],
          [
            -5.1837191108829419,
            55.954415729346834
          ],
          [
            -5.183762051870044,
            55.952356829477836
          ],
          [
            -5.1833922598303417,
            55.950463139346404
          ],
          [
            -5.182518679862568,
            55.94861219561254
          ],
          [
            -5.181621729322611,
            55.946704907692528
          ],
          [
            -5.1787678431648834,
            55.945496178246415
          ],
          [
            -5.1753964276892974,
            55.945644536200263
          ],
          [
            -5.1724561420438686,
            55.946159972895714
          ],
          [
            -5.1693892582664027,
            55.945691307264433
          ],
          [
            -5.1673169357713773,
            55.94402245262291
          ],
          [
            -5.1661312994073638,
            55.942315396681252
          ],
          [
            -5.1654086050976211,
            55.940566516271353
          ],
          [
            -5.1655761687106994,
            55.938818377284548
          ],
          [
            -5.1649894384511912,
            55.937405881345072
          ],
          [
            -5.164302889321462,
            55.935828083638548
          ],
          [
            -5.1643377162042556,
            55.934064845632498
          ],
          [
            -5.1637648027784175,
            55.932402839055541
          ],
          [
            -5.1624309755343383,
            55.931050999804654
          ],
          [
            -5.1604502283826461,
            55.930104147428949
          ],
          [
            -5.158812872739297,
            55.928890337538959
          ],
          [
            -5.1575216470265195,
            55.927683555513852
          ],
          [
            -5.1556616166666664,
            55.926355866666668
          ],
          [
            -5.1548275138763797,
            55.925432241114088
          ],
          [
            -5.153698433997314,
            55.92428866448148
          ],
          [
            -5.1526669622306871,
            55.923393558149215
          ],
          [
            -5.1534543629416403,
            55.923302019592661
          ],
          [
            -5.155370945672435,
            55.922861636914639
          ],
          [
            -5.1566809531550879,
            55.922215320324796
          ],
          [
            -5.1584626832879126,
            55.920783379386307
          ],
          [
            -5.1581755833333336,
            55.919658349999992
          ],
          [
            -5.1574132999999991,
            55.918545916666666
          ],
          [
            -5.1565914333333334,
            55.917350783333326
          ],
          [
            -5.1556872166666663,
            55.916101733333335
          ],
          [
            -5.1541979666666666,
            55.915116616666673
          ],
          [
            -5.1518574666666668,
            55.914302716666668
          ],
          [
            -5.1490855999999994,
            55.913566199999991
          ],
          [
            -5.1471377,
            55.912191966666661
          ],
          [
            -5.1454401000000001,
            55.910621416666665
          ],
          [
            -5.1436923666666665,
            55.909230999999998
          ],
          [
            -5.1418940666666666,
            55.907676166666668
          ],
          [
            -5.1399777833333324,
            55.906164916666668
          ],
          [
            -5.1378237833333333,
            55.904985133333334
          ],
          [
            -5.1354001166666663,
            55.903748833333346
          ],
          [
            -5.1331142999999999,
            55.902546866666668
          ],
          [
            -5.1309868530397917,
            55.901325062779442
          ],
          [
            -5.1287960500000001,
            55.900119600000004
          ],
          [
            -5.1266131833333333,
            55.899033716666665
          ],
          [
            -5.1244826166666666,
            55.897977833333336
          ],
          [
            -5.1221973499999995,
            55.897094216666666
          ],
          [
            -5.1199591666666668,
            55.895875050000001
          ],
          [
            -5.1181080833333334,
            55.894624350000008
          ],
          [
            -5.1161072666666669,
            55.893478716666671
          ],
          [
            -5.1141375833333331,
            55.892440633333344
          ],
          [
            -5.1117893333333333,
            55.891462566666661
          ],
          [
            -5.1091564500000004,
            55.890780383333336
          ],
          [
            -5.106874416666666,
            55.889980850000001
          ],
          [
            -5.1045251166666663,
            55.889401866666667
          ],
          [
            -5.1021428499999999,
            55.888987416666666
          ],
          [
            -5.1000297999999997,
            55.88853945000001
          ],
          [
            -5.0982242666666675,
            55.888046500000009
          ],
          [
            -5.0961081166666666,
            55.887230083333336
          ],
          [
            -5.0941344500000003,
            55.885984216666671
          ],
          [
            -5.092559333333333,
            55.884715866666667
          ],
          [
            -5.0908324166666663,
            55.883438216666676
          ],
          [
            -5.0889651666666671,
            55.882481916666663
          ],
          [
            -5.0869702999999999,
            55.881428116666662
          ],
          [
            -5.0858459999999992,
            55.880082166666675
          ],
          [
            -5.0849283500000002,
            55.878845416666671
          ],
          [
            -5.0839492499999999,
            55.877535250000001
          ],
          [
            -5.0830460333333329,
            55.876315333333331
          ],
          [
            -5.0823240166666661,
            55.875075083333336
          ],
          [
            -5.0817533333333325,
            55.873749349999997
          ],
          [
            -5.0812720166666674,
            55.872377733333337
          ],
          [
            -5.081308107427791,
            55.871146018662287
          ],
          [
            -5.0821843962175519,
            55.870292442202505
          ],
          [
            -5.0830536132167685,
            55.869524262594254
          ],
          [
            -5.0843733843788783,
            55.868548546220687
          ],
          [
            -5.0862409813891123,
            55.86761945945095
          ],
          [
            -5.0889238115479971,
            55.866979602898063
          ],
          [
            -5.0913825665819781,
            55.866549959912078
          ],
          [
            -5.0926942319559831,
            55.86535942164295
          ],
          [
            -5.0925992504793518,
            55.863688503664534
          ],
          [
            -5.0920280012416406,
            55.862547215146449
          ],
          [
            -5.0908761,
            55.861409299999998
          ],
          [
            -5.0885275833333337,
            55.860982700000008
          ],
          [
            -5.0865439999999991,
            55.860727716666659
          ],
          [
            -5.0846457166666665,
            55.860257749999995
          ],
          [
            -5.0826719666666662,
            55.859944666666657
          ],
          [
            -5.0809393499999995,
            55.860076449999994
          ],
          [
            -5.0794167333333329,
            55.860430799999996
          ],
          [
            -5.0774312333333338,
            55.860535833333344
          ],
          [
            -5.0750926000000005,
            55.860294066666668
          ],
          [
            -5.0730589333333329,
            55.860064799999996
          ],
          [
            -5.07148135,
            55.859872116666672
          ],
          [
            -5.0698797166666667,
            55.859043583333339
          ],
          [
            -5.0687063666666674,
            55.858291499999993
          ],
          [
            -5.0677202666666661,
            55.85740271666667
          ],
          [
            -5.0664072666666673,
            55.856834933333324
          ],
          [
            -5.0650006000000003,
            55.856312766666662
          ],
          [
            -5.063699699999999,
            55.855499933333341
          ],
          [
            -5.0627915666666672,
            55.854572516666664
          ],
          [
            -5.0626761166666663,
            55.853281249999995
          ],
          [
            -5.0627197666666666,
            55.85205868333334
          ],
          [
            -5.0626646000000006,
            55.850894100000005
          ],
          [
            -5.0627664000000001,
            55.849902833333331
          ],
          [
            -5.0630009000000005,
            55.848946133333328
          ],
          [
            -5.0633030666666663,
            55.847710083333332
          ],
          [
            -5.0630317666666667,
            55.846672999999996
          ],
          [
            -5.0628422166666667,
            55.845296016666666
          ],
          [
            -5.0627147166666662,
            55.844065233333339
          ],
          [
            -5.0624564000000003,
            55.842860766666675
          ],
          [
            -5.0621002166666669,
            55.841795216666668
          ],
          [
            -5.0614504,
            55.840924616666669
          ],
          [
            -5.0606538333333333,
            55.840105999999999
          ],
          [
            -5.0596701333333334,
            55.839335766666665
          ],
          [
            -5.0585434166666667,
            55.838662783333334
          ],
          [
            -5.0573049666666661,
            55.838034499999999
          ],
          [
            -5.0557039333333336,
            55.837813016666665
          ],
          [
            -5.0540897000000005,
            55.83767018333333
          ],
          [
            -5.0524492333333333,
            55.837623733333338
          ],
          [
            -5.0509301666666673,
            55.837952166666675
          ],
          [
            -5.0495160166666668,
            55.838910083333339
          ],
          [
            -5.0482189500000008,
            55.839847049999996
          ],
          [
            -5.0468847166666668,
            55.840803083333334
          ],
          [
            -5.0456248499999994,
            55.841479416666665
          ],
          [
            -5.0437866666666666,
            55.841952300000003
          ],
          [
            -5.0419712333333333,
            55.842746683333338
          ],
          [
            -5.0402411166666674,
            55.843410333333338
          ],
          [
            -5.0384767833333335,
            55.843999516666663
          ],
          [
            -5.0365866000000006,
            55.844335616666662
          ],
          [
            -5.0343222333333335,
            55.844465183333327
          ],
          [
            -5.0321850166666664,
            55.844717599999996
          ],
          [
            -5.0308882000000006,
            55.844810599999995
          ],
          [
            -5.0298481000000006,
            55.844773699999998
          ],
          [
            -5.027720883333334,
            55.844631399999997
          ],
          [
            -5.0261505166666662,
            55.843667116666666
          ],
          [
            -5.0245496349614669,
            55.842815698611346
          ],
          [
            -5.0244231066176992,
            55.841622562115184
          ],
          [
            -5.0241415999890666,
            55.840541711515314
          ],
          [
            -5.024525253684585,
            55.839207150597858
          ],
          [
            -5.0247970246447586,
            55.837750420105635
          ],
          [
            -5.0250280673501875,
            55.836512800487903
          ],
          [
            -5.0254341603765402,
            55.835426492352582
          ],
          [
            -5.0254507000450905,
            55.834231802865823
          ],
          [
            -5.0254346354020205,
            55.83320325644867
          ],
          [
            -5.025033363495484,
            55.832232919169066
          ],
          [
            -5.0246115739059238,
            55.831000535852105
          ],
          [
            -5.0248509168352395,
            55.829581351124503
          ],
          [
            -5.0251596833333334,
            55.828280466666669
          ],
          [
            -5.0249851666666663,
            55.827009116666673
          ],
          [
            -5.0238704666666676,
            55.826127583333331
          ],
          [
            -5.0223384166666669,
            55.825619000000003
          ],
          [
            -5.0225252583203304,
            55.824505075450091
          ],
          [
            -5.0230167460785573,
            55.823183970838691
          ],
          [
            -5.0234660201691623,
            55.822046965730145
          ],
          [
            -5.0237993927480336,
            55.820711811358997
          ],
          [
            -5.0240975333333333,
            55.819151750000003
          ],
          [
            -5.0243416166666659,
            55.817752933333331
          ],
          [
            -5.0238037333333327,
            55.816341083333327
          ],
          [
            -5.0234357333333337,
            55.815013499999999
          ],
          [
            -5.0228454666666664,
            55.813808916666659
          ],
          [
            -5.0218073000000008,
            55.812586516666663
          ],
          [
            -5.0216406633078101,
            55.811381833674048
          ],
          [
            -5.0222636633893813,
            55.810218244360101
          ],
          [
            -5.0233298633282271,
            55.809257813127608
          ],
          [
            -5.0236870842999606,
            55.80816781487178
          ],
          [
            -5.0233658833333337,
            55.807167833333338
          ],
          [
            -5.0244366166666676,
            55.805936900000006
          ],
          [
            -5.0258820833333333,
            55.804634583333332
          ],
          [
            -5.0269991166666665,
            55.803232016666669
          ],
          [
            -5.0273159333333339,
            55.801654183333326
          ],
          [
            -5.0276109828770172,
            55.799889642357243
          ],
          [
            -5.0286711191305455,
            55.798614580952048
          ],
          [
            -5.0296092122394489,
            55.797721354019998
          ],
          [
            -5.0305905779558673,
            55.797003581969051
          ],
          [
            -5.0312763461898582,
            55.795792697838621
          ],
          [
            -5.0317464996685715,
            55.794525437923774
          ],
          [
            -5.0321556717554401,
            55.793425796341737
          ],
          [
            -5.0332276957697166,
            55.792465833905247
          ],
          [
            -5.0338773745380161,
            55.791334703785843
          ],
          [
            -5.0354549358272447,
            55.790529688188229
          ],
          [
            -5.0368105582527107,
            55.789346631246097
          ],
          [
            -5.0380758623910893,
            55.788267317556283
          ],
          [
            -5.0395653687810027,
            55.787445425522741
          ],
          [
            -5.0398635166666663,
            55.786250433333336
          ],
          [
            -5.0398291666666664,
            55.785282116666664
          ],
          [
            -5.0392432670576159,
            55.784319798577144
          ],
          [
            -5.0374877037999486,
            55.783578585470735
          ],
          [
            -5.0360233666666669,
            55.782891233333338
          ],
          [
            -5.0338705974912852,
            55.782973661344634
          ],
          [
            -5.0320314166666664,
            55.783070466666672
          ],
          [
            -5.0293915977056525,
            55.783230828277929
          ],
          [
            -5.0274140999999997,
            55.783344100000008
          ],
          [
            -5.0255585333333332,
            55.783477266666658
          ],
          [
            -5.0235204333333332,
            55.783591216666672
          ],
          [
            -5.0213302999999998,
            55.783714283333325
          ],
          [
            -5.0192659169426426,
            55.783573457355494
          ],
          [
            -5.0179937261526524,
            55.78285855640982
          ],
          [
            -5.0167014781295656,
            55.782309080586749
          ],
          [
            -5.0153334595880059,
            55.781728507367113
          ],
          [
            -5.0139489531118517,
            55.781058744006273
          ],
          [
            -5.0130358070040151,
            55.780292639760532
          ],
          [
            -5.013407327997859,
            55.781202155829007
          ],
          [
            -5.0143618667714183,
            55.781924080078838
          ],
          [
            -5.0155946112251373,
            55.782601538743137
          ],
          [
            -5.0163525764246781,
            55.783448106615388
          ],
          [
            -5.0168469359096362,
            55.784362476968418
          ],
          [
            -5.0173137236688028,
            55.785236497482167
          ],
          [
            -5.0181743252615378,
            55.786038461902535
          ],
          [
            -5.0193446624954223,
            55.786726334972613
          ],
          [
            -5.0192661796520515,
            55.791390446942643
          ],
          [
            -5.0193000249399207,
            55.795511687777228
          ],
          [
            -5.0194564206305721,
            55.7964132042394
          ],
          [
            -5.0192182825405274,
            55.797317717910474
          ],
          [
            -5.018099372905259,
            55.797978103560261
          ],
          [
            -5.0169533819177978,
            55.798627886462036
          ],
          [
            -5.015614198936535,
            55.799117353278746
          ],
          [
            -5.0146535582349312,
            55.798397570306079
          ],
          [
            -5.0138094630349528,
            55.797629180427357
          ],
          [
            -5.0134462936003947,
            55.796747977563442
          ],
          [
            -5.013466384669238,
            55.795382116829245
          ],
          [
            -5.0133719561332493,
            55.791318389373444
          ],
          [
            -5.0135181665962163,
            55.790414649683022
          ],
          [
            -5.0135440893376391,
            55.789510354835443
          ],
          [
            -5.013516910771223,
            55.788606406524053
          ],
          [
            -5.0132192650898322,
            55.787714930129859
          ],
          [
            -5.0127187999939018,
            55.786849493626093
          ],
          [
            -5.0133937657287282,
            55.787833038618352
          ],
          [
            -5.0185969059921396,
            55.78827727024855
          ],
          [
            -5.0201573769112224,
            55.79052744411365
          ],
          [
            -5.0209110300296595,
            55.791124481515013
          ],
          [
            -5.0210746406642901,
            55.79175993668612
          ],
          [
            -5.0212830789979375,
            55.79269842916684
          ],
          [
            -5.0214956242517506,
            55.793597092327673
          ],
          [
            -5.0217199454165868,
            55.794562304939028
          ],
          [
            -5.0219592446930603,
            55.795529228276905
          ],
          [
            -5.022506392494698,
            55.796397490420915
          ],
          [
            -5.0230555615281469,
            55.797266320683619
          ],
          [
            -5.0235078046664121,
            55.798150784162388
          ],
          [
            -5.0239821163429621,
            55.79905458513479
          ],
          [
            -5.0243392383828329,
            55.799978219398149
          ],
          [
            -5.0244934405481469,
            55.800933517960104
          ],
          [
            -5.0247039421531596,
            55.801833757622077
          ],
          [
            -5.0250221473004792,
            55.80275490720787
          ],
          [
            -5.025378359661298,
            55.803777195229991
          ],
          [
            -5.0257999333333334,
            55.804709699999997
          ],
          [
            -5.026993,
            55.803501099999991
          ],
          [
            -5.0273442833333331,
            55.802216366666663
          ],
          [
            -5.0274331833333328,
            55.800956499999998
          ],
          [
            -5.0277683333333325,
            55.799737083333333
          ],
          [
            -5.028785833333334,
            55.798584799999993
          ],
          [
            -5.0302000666666666,
            55.797402833333344
          ],
          [
            -5.0312316999999993,
            55.796242116666654
          ],
          [
            -5.0317023833333332,
            55.794963716666672
          ],
          [
            -5.0321069666666665,
            55.793838750000006
          ],
          [
            -5.0326208999999995,
            55.792973783333338
          ],
          [
            -5.0335517333333337,
            55.79219518333332
          ],
          [
            -5.0341643000967595,
            55.791200217158917
          ],
          [
            -5.0359019357816068,
            55.790258771420582
          ],
          [
            -5.0371729429850012,
            55.789152188258775
          ],
          [
            -5.0383391333333334,
            55.788223416666668
          ],
          [
            -5.0398883038137479,
            55.787086904527477
          ],
          [
            -5.0399315367684521,
            55.785752657077005
          ],
          [
            -5.0407649061287527,
            55.784385380001034
          ],
          [
            -5.0419175166666665,
            55.782947533333328
          ],
          [
            -5.0416695000000002,
            55.781456366666667
          ],
          [
            -5.0412216666666669,
            55.779878233333328
          ],
          [
            -5.0408071764678377,
            55.778519826622237
          ],
          [
            -5.0402979928324001,
            55.777173218498397
          ],
          [
            -5.0394085166666667,
            55.776022883333326
          ],
          [
            -5.0385061666666662,
            55.774940233333332
          ],
          [
            -5.0382519411069007,
            55.773775420869377
          ],
          [
            -5.0384696849889616,
            55.772612266706986
          ],
          [
            -5.0388160470961036,
            55.771487389447422
          ],
          [
            -5.0388923474821397,
            55.770468525493712
          ],
          [
            -5.0388074333333339,
            55.7694306
          ],
          [
            -5.0388169591227694,
            55.768252328653084
          ],
          [
            -5.0388496374304532,
            55.766880463574672
          ],
          [
            -5.0392678046088326,
            55.76550841291246
          ],
          [
            -5.0397321989967532,
            55.76449196042087
          ],
          [
            -5.0401501275523177,
            55.763576118841563
          ],
          [
            -5.0382314948707503,
            55.763015293984253
          ],
          [
            -5.0360003654212537,
            55.762791841908466
          ],
          [
            -5.0338577679735117,
            55.762361557984981
          ],
          [
            -5.0323190345035682,
            55.7615890449418
          ],
          [
            -5.0319677653282344,
            55.760446605336007
          ],
          [
            -5.03215990467681,
            55.759095224988314
          ],
          [
            -5.0323061905494209,
            55.75803871115103
          ],
          [
            -5.0324519362306273,
            55.757018889225293
          ],
          [
            -5.0326473607046687,
            55.755673001366461
          ],
          [
            -5.0327616615174167,
            55.75443485978235
          ],
          [
            -5.0320982999999995,
            55.753470216666663
          ],
          [
            -5.0305638530762176,
            55.753125693180678
          ],
          [
            -5.029214566666667,
            55.752635033333341
          ],
          [
            -5.0279235333333334,
            55.752081966666672
          ],
          [
            -5.0265910424683593,
            55.751505807898475
          ],
          [
            -5.025099098701717,
            55.751000214207174
          ],
          [
            -5.0238332719046257,
            55.750437380305137
          ],
          [
            -5.0224378695286624,
            55.749504288532208
          ],
          [
            -5.0215302151115591,
            55.74903959447132
          ],
          [
            -5.0158165908323724,
            55.747069531717351
          ]
        ],
        "type" : "LineString"
      },
      "properties" : {
        "device" : "B9E47AEB-E54C-4563-96B6-06995DD4BC56 (iPhone 16 Pro)",
        "source" : "Geory 5.3.2",
        "end" : "2026-05-13T21:59:59Z",
        "start" : "2026-05-12T22:00:00Z",
        "type" : "route"
      }
    }
  ],
  "type" : "FeatureCollection"
}