{
  "features" : [
    {
      "type" : "Feature",
      "properties" : {
        "weather" : "Bedeckter Himmel (13,5 °C)",
        "device" : "B9E47AEB-E54C-4563-96B6-06995DD4BC56 (iPhone 16 Pro)",
        "departure" : "2026-05-25T11:31:05Z",
        "timestamp" : "2026-05-24T16:38:22Z",
        "source" : "Geory 5.3.2",
        "duration" : 67962.000690460205,
        "arrival" : "2026-05-24T16:38:22Z",
        "address" : "Isle Of Mull, PA66, Schottland",
        "rating" : 0,
        "type" : "visit"
      },
      "geometry" : {
        "coordinates" : [
          -6.3660721065847987,
          56.306386215041471
        ],
        "type" : "Point"
      }
    },
    {
      "type" : "Feature",
      "geometry" : {
        "type" : "Point",
        "coordinates" : [
          -6.3675638359721862,
          56.325285393661161
        ]
      },
      "properties" : {
        "type" : "visit",
        "timestamp" : "2026-05-25T12:04:12Z",
        "weather" : "Bedeckter Himmel (15,9 °C)",
        "address" : "Bayview, Fionnphort, Isle Of Mull, PA66 6BL, Schottland",
        "arrival" : "2026-05-25T12:04:12Z",
        "device" : "B9E47AEB-E54C-4563-96B6-06995DD4BC56 (iPhone 16 Pro)",
        "source" : "Geory 5.3.2",
        "duration" : 2216.6731886863708,
        "departure" : "2026-05-25T12:41:09Z",
        "rating" : 0
      }
    },
    {
      "type" : "Feature",
      "geometry" : {
        "type" : "Point",
        "coordinates" : [
          -6.3937614347789937,
          56.331502389047785
        ]
      },
      "properties" : {
        "address" : "Am Fuaran, Isle Of Iona, PA76 6SJ, Schottland",
        "arrival" : "2026-05-25T12:46:38Z",
        "rating" : 0,
        "source" : "Geory 5.3.2",
        "departure" : "2026-05-25T15:17:14Z",
        "device" : "B9E47AEB-E54C-4563-96B6-06995DD4BC56 (iPhone 16 Pro)",
        "weather" : "Bedeckter Himmel (16,0 °C)",
        "type" : "visit",
        "duration" : 9036.7568409442902,
        "timestamp" : "2026-05-25T12:46:38Z"
      }
    },
    {
      "geometry" : {
        "type" : "Point",
        "coordinates" : [
          -6.3661175774015284,
          56.306360703754073
        ]
      },
      "properties" : {
        "device" : "B9E47AEB-E54C-4563-96B6-06995DD4BC56 (iPhone 16 Pro)",
        "type" : "visit",
        "departure" : "2026-05-25T19:54:48Z",
        "weather" : "Überwiegend bewölkt (11,9 °C)",
        "source" : "Geory 5.3.2",
        "duration" : 15393.840334892273,
        "address" : "Isle Of Mull, PA66, Schottland",
        "timestamp" : "2026-05-25T15:38:14Z",
        "arrival" : "2026-05-25T15:38:14Z",
        "rating" : 0
      },
      "type" : "Feature"
    },
    {
      "properties" : {
        "timestamp" : "2026-05-25T19:56:12Z",
        "type" : "visit",
        "departure" : "2026-05-26T07:59:23Z",
        "source" : "Geory 5.3.2",
        "rating" : 0,
        "device" : "B9E47AEB-E54C-4563-96B6-06995DD4BC56 (iPhone 16 Pro)",
        "weather" : "Klarer Himmel (12,1 °C)",
        "duration" : 43391.659500598907,
        "address" : "Isle Of Mull, PA66, Schottland",
        "arrival" : "2026-05-25T19:56:12Z"
      },
      "geometry" : {
        "type" : "Point",
        "coordinates" : [
          -6.3661036367899504,
          56.306359138984959
        ]
      },
      "type" : "Feature"
    },
    {
      "type" : "Feature",
      "geometry" : {
        "type" : "LineString",
        "coordinates" : [
          [
            -6.3661036367899504,
            56.306359138984959
          ],
          [
            -6.3661175774015284,
            56.306360703754073
          ],
          [
            -6.3653104967467717,
            56.306648751886648
          ],
          [
            -6.3642749963510026,
            56.307160480719922
          ],
          [
            -6.3633039804411986,
            56.307924307331014
          ],
          [
            -6.3637250366360654,
            56.308815283686236
          ],
          [
            -6.3645083559617825,
            56.3096474385938
          ],
          [
            -6.364677350721375,
            56.310542677798772
          ],
          [
            -6.3643844156280895,
            56.311439415208788
          ],
          [
            -6.3647966330433947,
            56.312358907488878
          ],
          [
            -6.3647308311213351,
            56.313316084202583
          ],
          [
            -6.3643911703598688,
            56.314229897159805
          ],
          [
            -6.3651320861820473,
            56.315042463942959
          ],
          [
            -6.3660674274975779,
            56.315853417273622
          ],
          [
            -6.3668107761832058,
            56.316704708148379
          ],
          [
            -6.3675408482498481,
            56.317541723280954
          ],
          [
            -6.3680441562284917,
            56.318437615559404
          ],
          [
            -6.3684886637177121,
            56.319338728137687
          ],
          [
            -6.368754982598765,
            56.32027471291439
          ],
          [
            -6.3680400031355582,
            56.321085760911132
          ],
          [
            -6.3673847231289109,
            56.321936186324727
          ],
          [
            -6.3665345870802312,
            56.322760594110797
          ],
          [
            -6.3661487438966287,
            56.325142656993918
          ],
          [
            -6.3692877464187614,
            56.325388086951605
          ],
          [
            -6.3693482335170781,
            56.325383026664596
          ],
          [
            -6.3700697011777931,
            56.325824554328982
          ],
          [
            -6.3685182864546253,
            56.32548298176193
          ],
          [
            -6.3707010193479157,
            56.326240493771124
          ],
          [
            -6.3684314498778347,
            56.325484215889695
          ],
          [
            -6.3684314498778347,
            56.325484215889695
          ],
          [
            -6.3937614347789937,
            56.331502389047785
          ],
          [
            -6.3861680757917174,
            56.329442991870451
          ],
          [
            -6.3846426320778775,
            56.32910159811756
          ],
          [
            -6.3831537743833646,
            56.328730517825505
          ],
          [
            -6.3816235109803925,
            56.328371345057946
          ],
          [
            -6.3675638359721862,
            56.325285393661161
          ],
          [
            -6.3562672468783425,
            56.323751115974652
          ],
          [
            -6.3545749484695913,
            56.323814963987751
          ],
          [
            -6.3529367151705189,
            56.323706924614029
          ],
          [
            -6.3513216743122447,
            56.323537780034862
          ],
          [
            -6.349688848755811,
            56.323674005726225
          ],
          [
            -6.3487034044192585,
            56.324403548479552
          ],
          [
            -6.3474089301055887,
            56.324941528244139
          ],
          [
            -6.3457564208648307,
            56.324998116372818
          ],
          [
            -6.3441163484104628,
            56.324808548875751
          ],
          [
            -6.342494666498415,
            56.324648739803798
          ],
          [
            -6.3408486974625564,
            56.324545473445845
          ],
          [
            -6.3393258828836778,
            56.324898625479413
          ],
          [
            -6.3396082368528095,
            56.325791427046305
          ],
          [
            -6.3396722321308152,
            56.327347759246926
          ],
          [
            -6.340647677270451,
            56.329037856819028
          ],
          [
            -6.3404767007892104,
            56.328139361656994
          ],
          [
            -6.3396804089251351,
            56.327353869726743
          ],
          [
            -6.3396503364238814,
            56.326449749723615
          ],
          [
            -6.339665200702072,
            56.325551153317782
          ],
          [
            -6.3396672844671595,
            56.32464996678867
          ],
          [
            -6.3413520462869704,
            56.32459411543902
          ],
          [
            -6.3429776860432483,
            56.3246280626892
          ],
          [
            -6.3445336054834041,
            56.324896381377442
          ],
          [
            -6.3461559860257548,
            56.325007399962914
          ],
          [
            -6.3477905896829601,
            56.324847874320078
          ],
          [
            -6.3490524310159566,
            56.324238836007488
          ],
          [
            -6.3500869877670043,
            56.323470450412515
          ],
          [
            -6.3515342285949368,
            56.32354314082793
          ],
          [
            -6.3531819195773247,
            56.323733944899651
          ],
          [
            -6.3548199889632553,
            56.323802029075729
          ],
          [
            -6.3564582804589982,
            56.323714732856835
          ],
          [
            -6.3580983913025371,
            56.323693897079359
          ],
          [
            -6.3596395576118052,
            56.323971580469191
          ],
          [
            -6.3610763096750969,
            56.324428650815001
          ],
          [
            -6.362575811830693,
            56.324764967121091
          ],
          [
            -6.364231056218923,
            56.324890271881749
          ],
          [
            -6.3651588614487711,
            56.324748468812622
          ],
          [
            -6.3654527952868971,
            56.324297003388736
          ],
          [
            -6.3660051676736131,
            56.323416123303311
          ],
          [
            -6.3668001112960901,
            56.322568388383054
          ],
          [
            -6.3675497693461018,
            56.321738723321808
          ],
          [
            -6.3682605744842968,
            56.320915790463822
          ],
          [
            -6.3687016527938978,
            56.320048559985445
          ],
          [
            -6.3683805297051288,
            56.31912407294692
          ],
          [
            -6.3678957454266918,
            56.318233238554335
          ],
          [
            -6.3674010563010706,
            56.317360027731233
          ],
          [
            -6.3666361490362391,
            56.316533245579372
          ],
          [
            -6.3659010159520451,
            56.315701407891609
          ],
          [
            -6.3647916652825867,
            56.314965202801936
          ],
          [
            -6.3644381194754915,
            56.314057717428788
          ],
          [
            -6.3649185646172368,
            56.313150993278903
          ],
          [
            -6.3647232647375862,
            56.312248887623085
          ],
          [
            -6.36434116280026,
            56.311315942340599
          ],
          [
            -6.3647448744547335,
            56.310438625858708
          ],
          [
            -6.3644467299660272,
            56.309537588121543
          ],
          [
            -6.3633233774009206,
            56.307774957480397
          ],
          [
            -6.3660721065847987,
            56.306386215041471
          ]
        ]
      },
      "properties" : {
        "source" : "Geory 5.3.2",
        "type" : "route",
        "start" : "2026-05-24T22:00:00Z",
        "end" : "2026-05-25T21:59:59Z",
        "device" : "B9E47AEB-E54C-4563-96B6-06995DD4BC56 (iPhone 16 Pro)"
      }
    }
  ],
  "type" : "FeatureCollection"
}