{
  "features" : [
    {
      "type" : "Feature",
      "geometry" : {
        "coordinates" : [
          -5.1454735428747185,
          54.864575332437703
        ],
        "type" : "Point"
      },
      "properties" : {
        "address" : "European Long Distance Path Two, Portpatrick, Stranraer, DG9, Schottland",
        "duration" : 43601.999859333038,
        "weather" : "Aufgelockert bewölkt (8,7 °C)",
        "rating" : 0,
        "timestamp" : "2026-04-20T20:05:47Z",
        "source" : "Geory 5.3.2",
        "device" : "B9E47AEB-E54C-4563-96B6-06995DD4BC56 (iPhone 16 Pro)",
        "type" : "visit",
        "arrival" : "2026-04-20T20:05:47Z",
        "departure" : "2026-04-21T08:12:29Z"
      }
    },
    {
      "geometry" : {
        "coordinates" : [
          -5.0693771840231445,
          54.968386012514436
        ],
        "type" : "Point"
      },
      "type" : "Feature",
      "properties" : {
        "weather" : "Leicht bewölkt (8,4 °C)",
        "departure" : "2026-04-21T09:04:57Z",
        "rating" : 0,
        "address" : "Stranraer, DG9, Schottland",
        "duration" : 1440.0028247833252,
        "arrival" : "2026-04-21T08:40:57Z",
        "timestamp" : "2026-04-21T08:40:57Z",
        "device" : "B9E47AEB-E54C-4563-96B6-06995DD4BC56 (iPhone 16 Pro)",
        "type" : "visit",
        "source" : "Geory 5.3.2"
      }
    },
    {
      "properties" : {
        "address" : "Loch Ryan Port, DG9, Schottland",
        "departure" : "2026-04-21T09:56:25Z",
        "weather" : "Leicht bewölkt (9,4 °C)",
        "arrival" : "2026-04-21T09:33:47Z",
        "rating" : 0,
        "source" : "Geory 5.3.2",
        "device" : "B9E47AEB-E54C-4563-96B6-06995DD4BC56 (iPhone 16 Pro)",
        "timestamp" : "2026-04-21T09:33:47Z",
        "duration" : 1358.0013270378113,
        "type" : "visit"
      },
      "type" : "Feature",
      "geometry" : {
        "coordinates" : [
          -5.034458735329876,
          54.983792402814956
        ],
        "type" : "Point"
      }
    },
    {
      "properties" : {
        "weather" : "Bedeckter Himmel (10,2 °C)",
        "type" : "visit",
        "arrival" : "2026-04-21T13:18:43Z",
        "departure" : "2026-04-21T13:47:41Z",
        "address" : "215 Castle Road, Antrim, BT41 2EB, Nordirland",
        "rating" : 0,
        "timestamp" : "2026-04-21T13:18:43Z",
        "device" : "B9E47AEB-E54C-4563-96B6-06995DD4BC56 (iPhone 16 Pro)",
        "duration" : 1738.6968524456024,
        "source" : "Geory 5.3.2"
      },
      "geometry" : {
        "coordinates" : [
          -6.305470855157747,
          54.745141898407709
        ],
        "type" : "Point"
      },
      "type" : "Feature"
    },
    {
      "geometry" : {
        "type" : "Point",
        "coordinates" : [
          -6.6774323663445116,
          54.839694604882162
        ]
      },
      "type" : "Feature",
      "properties" : {
        "rating" : 0,
        "type" : "visit",
        "device" : "B9E47AEB-E54C-4563-96B6-06995DD4BC56 (iPhone 16 Pro)",
        "weather" : "Bedeckter Himmel (10,9 °C)",
        "arrival" : "2026-04-21T14:11:58Z",
        "duration" : 1900.9962160587311,
        "timestamp" : "2026-04-21T14:11:58Z",
        "source" : "Geory 5.3.2",
        "departure" : "2026-04-21T14:43:39Z",
        "address" : "26–32 Tobermore Road, Maghera, BT46, Nordirland"
      }
    },
    {
      "properties" : {
        "source" : "Geory 5.3.2",
        "type" : "visit",
        "rating" : 0,
        "timestamp" : "2026-04-21T16:15:08Z",
        "arrival" : "2026-04-21T16:15:08Z",
        "departure" : "2026-04-22T10:20:57Z",
        "address" : "R241, Shrove, Greencastle, County Donegal, Irland",
        "weather" : "Überwiegend bewölkt (13,0 °C)",
        "device" : "B9E47AEB-E54C-4563-96B6-06995DD4BC56 (iPhone 16 Pro)",
        "duration" : 65148.807610034943
      },
      "type" : "Feature",
      "geometry" : {
        "type" : "Point",
        "coordinates" : [
          -6.9289543785294407,
          55.226978553317544
        ]
      }
    },
    {
      "type" : "Feature",
      "geometry" : {
        "type" : "LineString",
        "coordinates" : [
          [
            -6.9289543785294407,
            55.226978553317544
          ],
          [
            -6.9352149333333335,
            55.222833800000011
          ],
          [
            -6.9362797666666669,
            55.221844999999995
          ],
          [
            -6.9377129500000008,
            55.220905516666662
          ],
          [
            -6.9386800022354445,
            55.22006271846422
          ],
          [
            -6.9402731833333329,
            55.2191951
          ],
          [
            -6.9424742000000004,
            55.218407250000006
          ],
          [
            -6.9452908833333327,
            55.217494533333337
          ],
          [
            -6.9473127666666663,
            55.216908966666672
          ],
          [
            -6.9495490833333333,
            55.2161531
          ],
          [
            -6.9514455166666664,
            55.215585033333333
          ],
          [
            -6.9533880500000009,
            55.214814300000008
          ],
          [
            -6.9551922000000017,
            55.213914366666657
          ],
          [
            -6.9570681999999993,
            55.213203666666665
          ],
          [
            -6.9593383333333332,
            55.212249966666668
          ],
          [
            -6.9620771238953614,
            55.211376767923319
          ],
          [
            -6.9646676591619832,
            55.210615114810132
          ],
          [
            -6.9668570877945761,
            55.209850741397325
          ],
          [
            -6.9685844333333327,
            55.208714783333335
          ],
          [
            -6.9702044336476332,
            55.207666949810076
          ],
          [
            -6.9720688189302376,
            55.207038817060216
          ],
          [
            -6.9740528961010364,
            55.206451753971336
          ],
          [
            -6.9760382429686931,
            55.20593815431176
          ],
          [
            -6.9776290736836621,
            55.205500317350577
          ],
          [
            -6.9790140516980497,
            55.20497484260612
          ],
          [
            -6.9793727569928175,
            55.203869956432015
          ],
          [
            -6.9807462221839653,
            55.203428471082766
          ],
          [
            -6.9822840157281689,
            55.203684220573834
          ],
          [
            -6.9842986999999992,
            55.20389866666666
          ],
          [
            -6.9863564098488498,
            55.203608329534745
          ],
          [
            -6.9891005333333336,
            55.202608083333338
          ],
          [
            -6.9917799166666663,
            55.201889550000004
          ],
          [
            -6.9947075214985146,
            55.200743191037631
          ],
          [
            -6.9975711000000009,
            55.200197966666671
          ],
          [
            -7.000716933333333,
            55.199722766666675
          ],
          [
            -7.0034549263593666,
            55.198841333370581
          ],
          [
            -7.0059031833333334,
            55.197768266666664
          ],
          [
            -7.0086304976350373,
            55.197424737780231
          ],
          [
            -7.0112373353251449,
            55.197747860356174
          ],
          [
            -7.0137828666666664,
            55.197361666666666
          ],
          [
            -7.0157369910785006,
            55.196143524967852
          ],
          [
            -7.0175434796658633,
            55.194699069377506
          ],
          [
            -7.0196119321830484,
            55.193441669449612
          ],
          [
            -7.02278395,
            55.192660116666666
          ],
          [
            -7.0257796333333333,
            55.192115083333327
          ],
          [
            -7.0285972499999998,
            55.1913014
          ],
          [
            -7.0314231833333336,
            55.190658933333332
          ],
          [
            -7.0339538666666677,
            55.190121799999993
          ],
          [
            -7.0362190166666663,
            55.189680566666667
          ],
          [
            -7.0382330833333331,
            55.189352116666676
          ],
          [
            -7.0398863,
            55.189046416666663
          ],
          [
            -7.0412266672675585,
            55.188572965402109
          ],
          [
            -7.0426791333333334,
            55.188205733333341
          ],
          [
            -7.0448421333333329,
            55.188589950000008
          ],
          [
            -7.0471080833333346,
            55.188249716666661
          ],
          [
            -7.0491785499999988,
            55.187254800000005
          ],
          [
            -7.0511141166666675,
            55.186034883333335
          ],
          [
            -7.0529101333333335,
            55.185063199999995
          ],
          [
            -7.054240616666668,
            55.183839066666664
          ],
          [
            -7.0565959666666673,
            55.183052966666672
          ],
          [
            -7.0582365833333327,
            55.182144749999999
          ],
          [
            -7.0607857000000012,
            55.181690533333331
          ],
          [
            -7.0633714999999997,
            55.18088474999999
          ],
          [
            -7.0660270166666672,
            55.179798416666671
          ],
          [
            -7.0686265333333331,
            55.178563266666671
          ],
          [
            -7.0709799666666662,
            55.1774986
          ],
          [
            -7.0735807864675415,
            55.176452095716023
          ],
          [
            -7.0766219499999998,
            55.175602416666671
          ],
          [
            -7.0799757804307166,
            55.174837166407606
          ],
          [
            -7.0834519266332752,
            55.174072766211381
          ],
          [
            -7.086498173763319,
            55.17342535795359
          ],
          [
            -7.0895114908831296,
            55.172924677657356
          ],
          [
            -7.0921938841422252,
            55.172427832373437
          ],
          [
            -7.0948541641147722,
            55.172075360047131
          ],
          [
            -7.0972876820535555,
            55.171743858205204
          ],
          [
            -7.099643959017012,
            55.171689608180721
          ],
          [
            -7.1019488107695965,
            55.171491187450158
          ],
          [
            -7.1037273333333344,
            55.170861416666668
          ],
          [
            -7.1051387247560953,
            55.169499068741942
          ],
          [
            -7.1066253340614427,
            55.167959020102522
          ],
          [
            -7.1081177028827964,
            55.166585278256605
          ],
          [
            -7.1097934529034355,
            55.165327803457821
          ],
          [
            -7.1121733493496722,
            55.164502000450831
          ],
          [
            -7.1148064868864269,
            55.163992557758441
          ],
          [
            -7.1172790615643295,
            55.163938506699679
          ],
          [
            -7.1202075017030158,
            55.163823909913681
          ],
          [
            -7.1227023937070326,
            55.163169272748711
          ],
          [
            -7.1227023937070326,
            55.163169272748711
          ],
          [
            -7.125137023299378,
            55.162665751262736
          ],
          [
            -7.127563472954864,
            55.162269060995769
          ],
          [
            -7.1297859201857294,
            55.161629722109119
          ],
          [
            -7.1316344826707656,
            55.160766587534191
          ],
          [
            -7.1334490203370553,
            55.159970345766716
          ],
          [
            -7.1353048367296212,
            55.158756257676629
          ],
          [
            -7.1372337076118768,
            55.1574841230156
          ],
          [
            -7.1401093778623927,
            55.156181334902563
          ],
          [
            -7.1433282897705626,
            55.154780735227369
          ],
          [
            -7.1463775155196458,
            55.15379834620137
          ],
          [
            -7.1494125499999992,
            55.152931383333325
          ],
          [
            -7.1515948797116771,
            55.152065122661298
          ],
          [
            -7.1537293073333581,
            55.151089751490055
          ],
          [
            -7.1563295666666669,
            55.150172783333325
          ],
          [
            -7.1586218333333322,
            55.149373050000001
          ],
          [
            -7.1604331000000006,
            55.148057699999995
          ],
          [
            -7.1631393333333326,
            55.146611833333324
          ],
          [
            -7.1661096333333347,
            55.145393883333327
          ],
          [
            -7.1686572666666661,
            55.144108783333337
          ],
          [
            -7.1714699999999993,
            55.142675866666664
          ],
          [
            -7.1739956833333336,
            55.141158516666671
          ],
          [
            -7.1765480000000004,
            55.13964073333333
          ],
          [
            -7.1796822000000002,
            55.137862266666659
          ],
          [
            -7.1814625833333334,
            55.136520466666667
          ],
          [
            -7.1837234666666667,
            55.134873799999994
          ],
          [
            -7.1861732666666667,
            55.133282716666663
          ],
          [
            -7.1886973666666654,
            55.131938033333334
          ],
          [
            -7.1907868370667796,
            55.130574886961348
          ],
          [
            -7.1918297166666667,
            55.129366583333329
          ],
          [
            -7.1923467333333324,
            55.128313633333335
          ],
          [
            -7.1934250000000004,
            55.126452450000002
          ],
          [
            -7.1950200999999998,
            55.124776700000005
          ],
          [
            -7.1970355500000007,
            55.123415166666675
          ],
          [
            -7.1994761333333335,
            55.122044350000003
          ],
          [
            -7.2023843000000003,
            55.120369500000002
          ],
          [
            -7.204821616666667,
            55.118490500000014
          ],
          [
            -7.2066964000000011,
            55.116413616666662
          ],
          [
            -7.2082612885631026,
            55.11422618702084
          ],
          [
            -7.2094563585194935,
            55.112027937197958
          ],
          [
            -7.2109314666666666,
            55.109850083333335
          ],
          [
            -7.2132829166666657,
            55.107826800000005
          ],
          [
            -7.2154556333333328,
            55.105970033333335
          ],
          [
            -7.21784625,
            55.104021500000002
          ],
          [
            -7.2211450499999996,
            55.102343533333332
          ],
          [
            -7.2240139999999995,
            55.100807333333329
          ],
          [
            -7.2265776279817455,
            55.099257194825704
          ],
          [
            -7.2290349756538115,
            55.097464881166559
          ],
          [
            -7.2312477417417211,
            55.095879398915258
          ],
          [
            -7.2333839103813169,
            55.094343512737446
          ],
          [
            -7.2357171239323241,
            55.0926635707754
          ],
          [
            -7.2380207000000008,
            55.090974433333336
          ],
          [
            -7.2400856833333327,
            55.089595583333328
          ],
          [
            -7.2429371550396482,
            55.088031700144569
          ],
          [
            -7.2455274641533167,
            55.086599609674693
          ],
          [
            -7.2482040246764718,
            55.085108796632703
          ],
          [
            -7.2508773217985167,
            55.083631704768514
          ],
          [
            -7.2542326584539065,
            55.082440648835735
          ],
          [
            -7.2575509806008958,
            55.081496146841957
          ],
          [
            -7.2598375524503069,
            55.080021210544508
          ],
          [
            -7.2617262220349401,
            55.078464623504196
          ],
          [
            -7.2632673795823601,
            55.076996155401112
          ],
          [
            -7.2646079337973983,
            55.075506034946713
          ],
          [
            -7.2660969666666668,
            55.074154783333334
          ],
          [
            -7.2675892754313374,
            55.072565077829381
          ],
          [
            -7.2677853833333339,
            55.071949966666672
          ],
          [
            -7.268383683333334,
            55.07102938333334
          ],
          [
            -7.2686815500000002,
            55.069965016666657
          ],
          [
            -7.2688597166666655,
            55.068987083333333
          ],
          [
            -7.2690452499999996,
            55.067959450000004
          ],
          [
            -7.2692007166666679,
            55.067010433333344
          ],
          [
            -7.2694548333333326,
            55.066072883333327
          ],
          [
            -7.2699068833333342,
            55.065191533333341
          ],
          [
            -7.2707706666666656,
            55.064221250000003
          ],
          [
            -7.2730571166666662,
            55.06335923333333
          ],
          [
            -7.274151016666667,
            55.061790383333332
          ],
          [
            -7.2754487999999995,
            55.06014308333333
          ],
          [
            -7.2759719999999994,
            55.05940136666667
          ],
          [
            -7.2764831166666664,
            55.058459283333335
          ],
          [
            -7.2773115833333337,
            55.056848733333332
          ],
          [
            -7.2781959333333344,
            55.055103350000003
          ],
          [
            -7.2796106833333338,
            55.053576116666662
          ],
          [
            -7.281431033333333,
            55.052200833333337
          ],
          [
            -7.2835113999999992,
            55.050815666666658
          ],
          [
            -7.2857017666666666,
            55.049617300000001
          ],
          [
            -7.2880611000000002,
            55.048371899999999
          ],
          [
            -7.2905101000000005,
            55.047132933333323
          ],
          [
            -7.2927993333333321,
            55.045875883333338
          ],
          [
            -7.295079883333333,
            55.044677350000001
          ],
          [
            -7.2972655999999994,
            55.043496916666662
          ],
          [
            -7.2997447999999991,
            55.042340899999999
          ],
          [
            -7.3022512166666669,
            55.041221049999997
          ],
          [
            -7.3043630333333347,
            55.040273899999995
          ],
          [
            -7.3058297333333337,
            55.039090016666663
          ],
          [
            -7.3072278500000003,
            55.037718699999999
          ],
          [
            -7.3085403603231143,
            55.036413905216136
          ],
          [
            -7.3094877,
            55.035176166666666
          ],
          [
            -7.3103540077546372,
            55.034171077935966
          ],
          [
            -7.3117524500000002,
            55.033338683333341
          ],
          [
            -7.3128738999999987,
            55.032669933333331
          ],
          [
            -7.3109425666666672,
            55.031888883333338
          ],
          [
            -7.3089114166666667,
            55.030951599999995
          ],
          [
            -7.3070805000000005,
            55.030034433333334
          ],
          [
            -7.3064860333333339,
            55.029635333333331
          ],
          [
            -7.3056948833333326,
            55.028881466666661
          ],
          [
            -7.3051062,
            55.027501283333336
          ],
          [
            -7.3052140666666672,
            55.02595766666667
          ],
          [
            -7.3049897666666679,
            55.024712449999996
          ],
          [
            -7.3044144239429967,
            55.023775633064169
          ],
          [
            -7.3035048666666667,
            55.022914299999997
          ],
          [
            -7.3023826166666668,
            55.021853999999998
          ],
          [
            -7.3006845333333334,
            55.020933600000006
          ],
          [
            -7.2981241166666662,
            55.020174449999999
          ],
          [
            -7.2954674499999994,
            55.01939054999999
          ],
          [
            -7.2927816999999999,
            55.018595233333329
          ],
          [
            -7.2899148333333343,
            55.017726416666669
          ],
          [
            -7.2878855500000013,
            55.016510850000003
          ],
          [
            -7.2866661833333337,
            55.014931833333335
          ],
          [
            -7.2852894166666653,
            55.013383166666671
          ],
          [
            -7.2825593333333343,
            55.011727216666671
          ],
          [
            -7.2796280000000007,
            55.010736950000002
          ],
          [
            -7.2782978666666667,
            55.009914349999995
          ],
          [
            -7.2783627833333329,
            55.008955100000001
          ],
          [
            -7.2770227166666661,
            55.00842178333334
          ],
          [
            -7.2760438500000006,
            55.007225633333341
          ],
          [
            -7.2752103666666654,
            55.005198783333327
          ],
          [
            -7.2751388833333337,
            55.003312533333343
          ],
          [
            -7.2753505166666663,
            55.001563033333333
          ],
          [
            -7.2757277333333343,
            55.000118783333335
          ],
          [
            -7.2760204333333345,
            54.999193916666677
          ],
          [
            -7.2764717499999998,
            54.998330050000007
          ],
          [
            -7.2773100833333331,
            54.99695943333333
          ],
          [
            -7.278593233333333,
            54.995439100000006
          ],
          [
            -7.279760266666667,
            54.994376949999996
          ],
          [
            -7.2807898999999994,
            54.993615166666665
          ],
          [
            -7.2819398999999994,
            54.992868999999999
          ],
          [
            -7.2841361666666673,
            54.991718749999997
          ],
          [
            -7.2864370333333337,
            54.990785733333333
          ],
          [
            -7.2893083666666678,
            54.989925849999992
          ],
          [
            -7.2920532833333329,
            54.989358883333331
          ],
          [
            -7.2946353833333344,
            54.988940066666657
          ],
          [
            -7.296353672391338,
            54.988651815845472
          ],
          [
            -7.2977333666666668,
            54.98818643333334
          ],
          [
            -7.2969187,
            54.987410799999999
          ],
          [
            -7.2961958666666673,
            54.986391783333325
          ],
          [
            -7.2954230833333327,
            54.985463433333337
          ],
          [
            -7.2945131000000005,
            54.984616016666664
          ],
          [
            -7.2929627833333335,
            54.983578266666669
          ],
          [
            -7.2909051666666658,
            54.982523433333334
          ],
          [
            -7.2884738999999996,
            54.981299833333331
          ],
          [
            -7.2859565833333324,
            54.980019749999997
          ],
          [
            -7.2837759333333336,
            54.978899883333327
          ],
          [
            -7.281836600000001,
            54.97809556666666
          ],
          [
            -7.2789093120309527,
            54.977194803689954
          ],
          [
            -7.2758004333333339,
            54.976569733333328
          ],
          [
            -7.2730516480605942,
            54.976394481127201
          ],
          [
            -7.2704011666666659,
            54.976355216666661
          ],
          [
            -7.2679358000000001,
            54.976403533333325
          ],
          [
            -7.2661236833333325,
            54.976478950000001
          ],
          [
            -7.2634442499999992,
            54.976004166666669
          ],
          [
            -7.2609020166666678,
            54.975013833333335
          ],
          [
            -7.2585903180189106,
            54.974341509902942
          ],
          [
            -7.2563156833333347,
            54.973395933333329
          ],
          [
            -7.2549168333333345,
            54.971660300000003
          ],
          [
            -7.2531202666666674,
            54.969759750000001
          ],
          [
            -7.2512667166666667,
            54.96758453333333
          ],
          [
            -7.2493877666666666,
            54.965304266666671
          ],
          [
            -7.2474024166666675,
            54.962987900000009
          ],
          [
            -7.2452711166666672,
            54.960984416666662
          ],
          [
            -7.2430446833333333,
            54.959027416666672
          ],
          [
            -7.2406129333333329,
            54.956875633333333
          ],
          [
            -7.2377897333333339,
            54.954865699999999
          ],
          [
            -7.2343505499999994,
            54.952883050000011
          ],
          [
            -7.2313054000000001,
            54.951340966666677
          ],
          [
            -7.2279488499999998,
            54.949641133333337
          ],
          [
            -7.224605266666666,
            54.947951883333324
          ],
          [
            -7.2212658333333328,
            54.946277133333325
          ],
          [
            -7.218360566666667,
            54.944387416666657
          ],
          [
            -7.2166905833333335,
            54.942002283333345
          ],
          [
            -7.2156991833333342,
            54.939767916666668
          ],
          [
            -7.2141866333333322,
            54.937680616666661
          ],
          [
            -7.2117933499999989,
            54.93555361666666
          ],
          [
            -7.2086865666666675,
            54.933705933333336
          ],
          [
            -7.2051582666666665,
            54.932153
          ],
          [
            -7.2015789666666672,
            54.930601166666676
          ],
          [
            -7.1979554500000003,
            54.929069900000002
          ],
          [
            -7.1942240833333342,
            54.9276427
          ],
          [
            -7.1904882500000005,
            54.926224766666671
          ],
          [
            -7.186768166666667,
            54.924817883333333
          ],
          [
            -7.182869675946459,
            54.923685935287693
          ],
          [
            -7.1787147093241552,
            54.922839689158359
          ],
          [
            -7.1743383057789494,
            54.92217106528151
          ],
          [
            -7.1699271973047924,
            54.921512875951741
          ],
          [
            -7.1655081666666662,
            54.921019016666662
          ],
          [
            -7.1610830999999999,
            54.92068136666667
          ],
          [
            -7.1570282716231928,
            54.920403575213584
          ],
          [
            -7.1525784676906881,
            54.920116222173263
          ],
          [
            -7.1481626,
            54.92033146666666
          ],
          [
            -7.1440380000000001,
            54.921282016666666
          ],
          [
            -7.1406904666666664,
            54.922609266666662
          ],
          [
            -7.1379214666666675,
            54.92350905
          ],
          [
            -7.1367923000000006,
            54.923764600000005
          ],
          [
            -7.1324940500000009,
            54.924503199999997
          ],
          [
            -7.1282993999999995,
            54.925343900000009
          ],
          [
            -7.1240151833333343,
            54.926031116666678
          ],
          [
            -7.1196496333333341,
            54.926469099999998
          ],
          [
            -7.1151990666666665,
            54.926675049999993
          ],
          [
            -7.1107722500000001,
            54.926830133333333
          ],
          [
            -7.1063145500000005,
            54.927016950000009
          ],
          [
            -7.1018414333333348,
            54.927225383333344
          ],
          [
            -7.0973819500000008,
            54.927526966666662
          ],
          [
            -7.0930240333333341,
            54.927899433333337
          ],
          [
            -7.088682266666666,
            54.928240133333333
          ],
          [
            -7.0839817999999992,
            54.928438499999992
          ],
          [
            -7.0796392000000008,
            54.928429666666666
          ],
          [
            -7.0751355166666672,
            54.928231516666663
          ],
          [
            -7.0706805333333334,
            54.927846550000005
          ],
          [
            -7.0663260000000001,
            54.927288583333329
          ],
          [
            -7.0619972500000001,
            54.926625950000002
          ],
          [
            -7.0575335666666659,
            54.926294183333326
          ],
          [
            -7.0530587666666671,
            54.926317966666659
          ],
          [
            -7.0486654166666671,
            54.926660949999999
          ],
          [
            -7.0442510333333344,
            54.926893216666663
          ],
          [
            -7.0397862,
            54.926871900000002
          ],
          [
            -7.0353752000000007,
            54.92659428333333
          ],
          [
            -7.0309325666666673,
            54.926239283333345
          ],
          [
            -7.026488416666667,
            54.92588203333333
          ],
          [
            -7.0220488000000012,
            54.925519466666671
          ],
          [
            -7.0176356166666665,
            54.925152300000008
          ],
          [
            -7.0176356166666665,
            54.925152300000008
          ],
          [
            -7.0131651999999987,
            54.924872199999996
          ],
          [
            -7.0086920333333333,
            54.924703550000004
          ],
          [
            -7.0042283999999997,
            54.924559416666668
          ],
          [
            -6.9997813000000013,
            54.924408183333327
          ],
          [
            -6.9953504666666673,
            54.924253450000002
          ],
          [
            -6.9913129666666674,
            54.92411791666666
          ],
          [
            -6.9876550500000008,
            54.924002933333327
          ],
          [
            -6.9850856666666674,
            54.923889099999997
          ],
          [
            -6.9833530018789549,
            54.923800499507109
          ],
          [
            -6.9799326666666666,
            54.923608533333336
          ],
          [
            -6.9758313333333337,
            54.92326525
          ],
          [
            -6.9714510166666663,
            54.922806099999995
          ],
          [
            -6.9675101833333342,
            54.922349516666664
          ],
          [
            -6.9631659666666659,
            54.921786400000009
          ],
          [
            -6.9590530666666668,
            54.920806466666669
          ],
          [
            -6.9550154666666666,
            54.919720683333331
          ],
          [
            -6.9508881666666662,
            54.918755133333327
          ],
          [
            -6.9465773666666664,
            54.918127933333331
          ],
          [
            -6.9421634000000001,
            54.917778299999988
          ],
          [
            -6.937703850000001,
            54.917755066666658
          ],
          [
            -6.9336689666666667,
            54.917965433333336
          ],
          [
            -6.9292883666666665,
            54.918453216666663
          ],
          [
            -6.9252726833333327,
            54.918788283333335
          ],
          [
            -6.9244897833333328,
            54.918787933333334
          ],
          [
            -6.921041633333334,
            54.918510133333328
          ],
          [
            -6.9174721333333329,
            54.917836433333335
          ],
          [
            -6.9146220333333339,
            54.917356733333321
          ],
          [
            -6.9121830000000006,
            54.916902183333328
          ],
          [
            -6.909564183333333,
            54.915958400000001
          ],
          [
            -6.9060991833333336,
            54.914999999999992
          ],
          [
            -6.9028024166666668,
            54.913768683333338
          ],
          [
            -6.8991306000000003,
            54.912758866666678
          ],
          [
            -6.8951135500000005,
            54.911776533333324
          ],
          [
            -6.8908800999999995,
            54.910985100000005
          ],
          [
            -6.8869728500000011,
            54.910316399999992
          ],
          [
            -6.8826899666666668,
            54.909594616666659
          ],
          [
            -6.8784696666666667,
            54.90872361666667
          ],
          [
            -6.8743097666666664,
            54.907800333333334
          ],
          [
            -6.870116949999999,
            54.906938416666662
          ],
          [
            -6.865664016666666,
            54.90675396666667
          ],
          [
            -6.8616447833333325,
            54.90704611666667
          ],
          [
            -6.8572416333333335,
            54.906909449999993
          ],
          [
            -6.8532074500000002,
            54.906513949999997
          ],
          [
            -6.8487710333333327,
            54.906214566666662
          ],
          [
            -6.8448441000000004,
            54.905621450000005
          ],
          [
            -6.8408039,
            54.904550299999997
          ],
          [
            -6.8368109166666668,
            54.903407450000003
          ],
          [
            -6.8331725666666676,
            54.902359049999994
          ],
          [
            -6.8290269333333331,
            54.901441800000008
          ],
          [
            -6.8246176833333347,
            54.901083733333337
          ],
          [
            -6.8201453499999998,
            54.900969966666665
          ],
          [
            -6.8161188333333333,
            54.900713566666674
          ],
          [
            -6.8153397833333331,
            54.900590133333331
          ],
          [
            -6.8120526833333335,
            54.89969769999999
          ],
          [
            -6.8087675333333344,
            54.897972300000006
          ],
          [
            -6.8059966166666657,
            54.895962166666671
          ],
          [
            -6.8029008666666657,
            54.894119449999998
          ],
          [
            -6.7992204499999991,
            54.892678199999999
          ],
          [
            -6.7957273666666671,
            54.891603133333341
          ],
          [
            -6.7923203000000001,
            54.890167450000007
          ],
          [
            -6.7906964166666661,
            54.888007299999991
          ],
          [
            -6.7907498499999992,
            54.885813499999998
          ],
          [
            -6.7909257833333339,
            54.883395050000004
          ],
          [
            -6.7909654500000007,
            54.881221933333336
          ],
          [
            -6.790393083333333,
            54.878884183333334
          ],
          [
            -6.7893055666666662,
            54.876782749999997
          ],
          [
            -6.7881799999999997,
            54.874825733333338
          ],
          [
            -6.7865154500000004,
            54.872719899999993
          ],
          [
            -6.7842207833333346,
            54.870746616666672
          ],
          [
            -6.7819733333333332,
            54.868584599999998
          ],
          [
            -6.7805403833333324,
            54.866373400000001
          ],
          [
            -6.7794644166666673,
            54.864217183333331
          ],
          [
            -6.777532083333333,
            54.862183016666663
          ],
          [
            -6.7750864499999999,
            54.860720883333336
          ],
          [
            -6.772391166666667,
            54.859629566666676
          ],
          [
            -6.7694528666666676,
            54.858461383333328
          ],
          [
            -6.7664247166666671,
            54.857291199999999
          ],
          [
            -6.7631234000000013,
            54.8562856
          ],
          [
            -6.7599505166666667,
            54.855491083333327
          ],
          [
            -6.7563497166666666,
            54.854837633333332
          ],
          [
            -6.7526765333333323,
            54.854230716666677
          ],
          [
            -6.7513273000000007,
            54.854008233333332
          ],
          [
            -6.7489626166666676,
            54.853603599999992
          ],
          [
            -6.7456365333333341,
            54.852973516666665
          ],
          [
            -6.7423872166666659,
            54.852285783333336
          ],
          [
            -6.7392502666666667,
            54.851556950000003
          ],
          [
            -6.7358148833333349,
            54.850740733333339
          ],
          [
            -6.7323223833333339,
            54.849910666666666
          ],
          [
            -6.7288102166666661,
            54.849071050000006
          ],
          [
            -6.72519285,
            54.848214966666667
          ],
          [
            -6.7219782333333349,
            54.847455616666672
          ],
          [
            -6.7187223499999993,
            54.846687083333336
          ],
          [
            -6.7151935666666667,
            54.845862933333336
          ],
          [
            -6.7119209666666659,
            54.845074049999994
          ],
          [
            -6.7083749666666659,
            54.844230166666662
          ],
          [
            -6.7046193333333335,
            54.84334916666667
          ],
          [
            -6.7012058666666672,
            54.842546683333332
          ],
          [
            -6.6975511666666669,
            54.841690833333331
          ],
          [
            -6.6938333833333328,
            54.84067701666666
          ],
          [
            -6.6906477166666658,
            54.839589633333333
          ],
          [
            -6.6878217166666669,
            54.838473800000003
          ],
          [
            -6.6855299327640241,
            54.837571102996449
          ],
          [
            -6.6840157333333323,
            54.837058449999994
          ],
          [
            -6.6830451239241908,
            54.835965516606379
          ],
          [
            -6.6813890423463613,
            54.835753442827098
          ],
          [
            -6.679758866666667,
            54.836894633333337
          ],
          [
            -6.6790882680343699,
            54.838109790723394
          ],
          [
            -6.6779480391314925,
            54.83932694309307
          ],
          [
            -6.6774323663445116,
            54.839694604882162
          ],
          [
            -6.6837400000000002,
            54.83683473333334
          ],
          [
            -6.6808828500000006,
            54.835976049999999
          ],
          [
            -6.6776362833333334,
            54.835131733333334
          ],
          [
            -6.6745410499999993,
            54.834377266666657
          ],
          [
            -6.6715735999999994,
            54.833650783333326
          ],
          [
            -6.6683889166666672,
            54.83289941666667
          ],
          [
            -6.6655810166666658,
            54.832211666666673
          ],
          [
            -6.6628250166666669,
            54.831429583333325
          ],
          [
            -6.6598394166666672,
            54.830435433333335
          ],
          [
            -6.6567324500000007,
            54.829207799999999
          ],
          [
            -6.6533793833333332,
            54.827616233333345
          ],
          [
            -6.6502087333333337,
            54.825817533333336
          ],
          [
            -6.6471413666666672,
            54.823960466666662
          ],
          [
            -6.6440601333333325,
            54.822114633333328
          ],
          [
            -6.6408550166666656,
            54.82032876666667
          ],
          [
            -6.6373850500000007,
            54.81871894999999
          ],
          [
            -6.6373850500000007,
            54.81871894999999
          ],
          [
            -6.6341357499999996,
            54.817318683333326
          ],
          [
            -6.6306306166666671,
            54.815740033333334
          ],
          [
            -6.6276970500000001,
            54.814175449999993
          ],
          [
            -6.6247913833333332,
            54.812351683333326
          ],
          [
            -6.6224196666666666,
            54.810525049999995
          ],
          [
            -6.6203065999999993,
            54.808724366666674
          ],
          [
            -6.6182830999999993,
            54.806986199999997
          ],
          [
            -6.6162501666666662,
            54.805222799999996
          ],
          [
            -6.6139933333333332,
            54.803257200000004
          ],
          [
            -6.6114696833333335,
            54.801237700000001
          ],
          [
            -6.6088750166666674,
            54.799507416666664
          ],
          [
            -6.6058405999999996,
            54.797790683333339
          ],
          [
            -6.6026951333333335,
            54.796069233333334
          ],
          [
            -6.5994395333333333,
            54.794280750000013
          ],
          [
            -6.5965208833333326,
            54.792682166666658
          ],
          [
            -6.593741416666667,
            54.79116153333333
          ],
          [
            -6.591084566666666,
            54.789708833333329
          ],
          [
            -6.5884941333333336,
            54.788288133333324
          ],
          [
            -6.5860256666666652,
            54.786800800000009
          ],
          [
            -6.5836332666666664,
            54.784992083333329
          ],
          [
            -6.5816112166666656,
            54.783002349999997
          ],
          [
            -6.5801447333333334,
            54.781090049999989
          ],
          [
            -6.5789624,
            54.778976533333328
          ],
          [
            -6.5782579333333331,
            54.776952066666674
          ],
          [
            -6.5776102500000002,
            54.775035583333327
          ],
          [
            -6.5767291999999999,
            54.773363100000005
          ],
          [
            -6.5759508999999996,
            54.772202299999996
          ],
          [
            -6.5757010999999999,
            54.771206050000004
          ],
          [
            -6.5741156166666679,
            54.771088883333334
          ],
          [
            -6.5708437166666673,
            54.770484350000004
          ],
          [
            -6.5666823499999998,
            54.770240349999995
          ],
          [
            -6.5626519666666656,
            54.770108666666665
          ],
          [
            -6.5582484333333335,
            54.769966449999991
          ],
          [
            -6.5538358999999993,
            54.76983396666666
          ],
          [
            -6.5493975166666658,
            54.769777049999995
          ],
          [
            -6.5449613500000003,
            54.769793433333341
          ],
          [
            -6.5405079500000003,
            54.769915516666671
          ],
          [
            -6.5361436666666668,
            54.770322066666665
          ],
          [
            -6.5318432166666662,
            54.770927733333345
          ],
          [
            -6.5278849666666661,
            54.772079516666658
          ],
          [
            -6.5239491341856537,
            54.773227477882791
          ],
          [
            -6.5196600351786849,
            54.773762199310127
          ],
          [
            -6.5155530529381434,
            54.773959985417591
          ],
          [
            -6.5114937333333334,
            54.774038100000013
          ],
          [
            -6.5071229499999994,
            54.773573083333339
          ],
          [
            -6.503124604189173,
            54.772475660151862
          ],
          [
            -6.5001495999999994,
            54.770916233333338
          ],
          [
            -6.497295750000001,
            54.768856166666666
          ],
          [
            -6.4945149499999992,
            54.767115400000002
          ],
          [
            -6.4917494166666661,
            54.7654414
          ],
          [
            -6.4893946333333341,
            54.76358588333332
          ],
          [
            -6.4868909666666656,
            54.761535666666667
          ],
          [
            -6.4833957166666663,
            54.760034899999994
          ],
          [
            -6.4796573952351064,
            54.759177491742783
          ],
          [
            -6.4760229943325589,
            54.758814013754197
          ],
          [
            -6.4718592294685369,
            54.759261719312327
          ],
          [
            -6.4683832822052789,
            54.759870038243662
          ],
          [
            -6.4648316663786938,
            54.760262356345073
          ],
          [
            -6.4615685061886685,
            54.760114783594055
          ],
          [
            -6.4590763283194406,
            54.759687524736357
          ],
          [
            -6.4575276176197027,
            54.75932508352092
          ],
          [
            -6.4551101666666666,
            54.7577645
          ],
          [
            -6.4537509499999999,
            54.755868499999998
          ],
          [
            -6.4525616833333324,
            54.753760449999994
          ],
          [
            -6.4510603499999997,
            54.751944866666662
          ],
          [
            -6.4497156333333328,
            54.750630866666675
          ],
          [
            -6.4490921999999999,
            54.749794116666664
          ],
          [
            -6.4476530499999996,
            54.748893799999998
          ],
          [
            -6.4451940166666661,
            54.747545333333328
          ],
          [
            -6.4420356833333337,
            54.746347266666668
          ],
          [
            -6.4384634000000007,
            54.745048516666671
          ],
          [
            -6.434907616666667,
            54.743749250000008
          ],
          [
            -6.431297100000001,
            54.742524116666665
          ],
          [
            -6.4279894333333321,
            54.741717933333334
          ],
          [
            -6.4256351941580796,
            54.741299680598843
          ],
          [
            -6.4217248666666666,
            54.740914133333341
          ],
          [
            -6.4173206999999994,
            54.740845350000001
          ],
          [
            -6.412860499999999,
            54.741014033333343
          ],
          [
            -6.4084300333333344,
            54.740901349999994
          ],
          [
            -6.4040262000000006,
            54.740523883333331
          ],
          [
            -6.3996434333333339,
            54.740055200000008
          ],
          [
            -6.3952345666666668,
            54.73968691666667
          ],
          [
            -6.3907932999999995,
            54.739629366666662
          ],
          [
            -6.3868010500000008,
            54.739349633333333
          ],
          [
            -6.3824400333333342,
            54.738803633333326
          ],
          [
            -6.3784353333333348,
            54.738433783333328
          ],
          [
            -6.3739978000000006,
            54.738378449999992
          ],
          [
            -6.3695841333333325,
            54.738635883333338
          ],
          [
            -6.3655635833333326,
            54.738925883333337
          ],
          [
            -6.3611544666666671,
            54.739248583333328
          ],
          [
            -6.3571532333333343,
            54.739538883333339
          ],
          [
            -6.3527357333333327,
            54.739847200000007
          ],
          [
            -6.3484636000000005,
            54.74014076666667
          ],
          [
            -6.3442221666666665,
            54.740463066666678
          ],
          [
            -6.3400021833333327,
            54.740762283333332
          ],
          [
            -6.3361769333333333,
            54.741063500000003
          ],
          [
            -6.3323872166666657,
            54.741482550000001
          ],
          [
            -6.3285972499999996,
            54.741900049999998
          ],
          [
            -6.3247897499999999,
            54.742233900000009
          ],
          [
            -6.3210108500000004,
            54.742483049999997
          ],
          [
            -6.3173145833333324,
            54.74265711666667
          ],
          [
            -6.3137405000000006,
            54.742759033333343
          ],
          [
            -6.3102963333333335,
            54.742807249999998
          ],
          [
            -6.3070730862432676,
            54.742802986621321
          ],
          [
            -6.3038652340770964,
            54.742767325338086
          ],
          [
            -6.3009768980597585,
            54.742635239366919
          ],
          [
            -6.2986157333333326,
            54.742522600000001
          ],
          [
            -6.296786383333334,
            54.741932416666671
          ],
          [
            -6.2949863084072204,
            54.742339506575647
          ],
          [
            -6.2954703526317894,
            54.743236217876898
          ],
          [
            -6.2962669511520764,
            54.74406824521165
          ],
          [
            -6.2981587500000007,
            54.744407466666672
          ],
          [
            -6.3002496121975815,
            54.744926708235631
          ],
          [
            -6.305470855157747,
            54.745141898407709
          ],
          [
            -6.2346653666666674,
            54.744794199999994
          ],
          [
            -6.132619833333333,
            54.719996916666666
          ],
          [
            -6.0254237166666673,
            54.697311000000006
          ],
          [
            -5.9383818833333333,
            54.661151266666671
          ],
          [
            -5.9141804429829641,
            54.629611522240246
          ],
          [
            -5.0387520666666674,
            54.985887333333331
          ],
          [
            -5.8587977151955801,
            54.649458704646754
          ],
          [
            -5.8578747111483063,
            54.650214105126523
          ],
          [
            -5.8569785361124209,
            54.650991417698499
          ],
          [
            -5.8560482615172855,
            54.651742345044845
          ],
          [
            -5.85504476169816,
            54.652496355968893
          ],
          [
            -5.8541211934210482,
            54.653253414222142
          ],
          [
            -5.8531886436289993,
            54.654049500194127
          ],
          [
            -5.8522496627397711,
            54.654816417975972
          ],
          [
            -5.8513515182934803,
            54.655568417410343
          ],
          [
            -5.8504259542615848,
            54.656300679565959
          ],
          [
            -5.8494948640710334,
            54.657049384967785
          ],
          [
            -5.8485637253917613,
            54.657832077625116
          ],
          [
            -5.8477415261804353,
            54.65859612250555
          ],
          [
            -5.8468814416640562,
            54.659388319696575
          ],
          [
            -5.8459625386037812,
            54.66014968097889
          ],
          [
            -5.8449826259582549,
            54.660942662012381
          ],
          [
            -5.8440694619322757,
            54.661742229534916
          ],
          [
            -5.843216072862857,
            54.662495826289351
          ],
          [
            -5.8422955291852787,
            54.663224861842203
          ],
          [
            -5.8414158376451271,
            54.663972886371326
          ],
          [
            -5.8405211521767226,
            54.664710146908327
          ],
          [
            -5.839573168988422,
            54.665477071071756
          ],
          [
            -5.8385467667905564,
            54.666233229063259
          ],
          [
            -5.8667884854806385,
            54.689566420656263
          ],
          [
            -5.8667884854806385,
            54.689566420656263
          ],
          [
            -5.8303664042693457,
            54.671955321897947
          ],
          [
            -5.8128553338381987,
            54.68050695740186
          ],
          [
            -5.803609678163868,
            54.684226020537103
          ],
          [
            -5.7940608656314163,
            54.687800086761634
          ],
          [
            -5.7838903664932664,
            54.691181339349313
          ],
          [
            -5.7728490337729665,
            54.694246610245813
          ],
          [
            -5.7715474256152897,
            54.694604140280767
          ],
          [
            -5.7699739893209294,
            54.695023779468642
          ],
          [
            -5.7685321418245774,
            54.695383900623085
          ],
          [
            -5.7670818478975328,
            54.695734434187173
          ],
          [
            -5.7656493289591833,
            54.696129244260177
          ],
          [
            -5.764196122390854,
            54.696478889973285
          ],
          [
            -5.7627536595226925,
            54.696851640011182
          ],
          [
            -5.7612772024989392,
            54.697229002739121
          ],
          [
            -5.7597770775596855,
            54.697643260979177
          ],
          [
            -5.7582727931122255,
            54.698022714476579
          ],
          [
            -5.7455530539234898,
            54.701151098186862
          ],
          [
            -5.7440474000887178,
            54.701526685567131
          ],
          [
            -5.7424769174094035,
            54.701870287336185
          ],
          [
            -5.7409956512151705,
            54.702275808962227
          ],
          [
            -5.7409956512151705,
            54.702275808962227
          ],
          [
            -5.7320464218842959,
            54.704379243949731
          ],
          [
            -5.7305808361954211,
            54.704733533219695
          ],
          [
            -5.7290488591349975,
            54.7051209936593
          ],
          [
            -5.7275862926284278,
            54.705538390749403
          ],
          [
            -5.7206558770051741,
            54.707365649223561
          ],
          [
            -5.7192013154043178,
            54.707746433390113
          ],
          [
            -5.7177706130636716,
            54.708109953398392
          ],
          [
            -5.7163706066960618,
            54.708524174950398
          ],
          [
            -5.7149532581041314,
            54.70895089072792
          ],
          [
            -5.7135706721308512,
            54.709399523176977
          ],
          [
            -5.7122381752528337,
            54.709863615398632
          ],
          [
            -5.7109160261635816,
            54.710359364751447
          ],
          [
            -5.7096125294707418,
            54.710894625597703
          ],
          [
            -5.7083406143367741,
            54.711476752367211
          ],
          [
            -5.7071876299526174,
            54.71209456567199
          ],
          [
            -5.7060832941949204,
            54.712752866535432
          ],
          [
            -5.7049993972957127,
            54.71342546725149
          ],
          [
            -5.7039124251506736,
            54.714090144636558
          ],
          [
            -5.7027155117175043,
            54.714765948790124
          ],
          [
            -5.701607594926557,
            54.715462537115798
          ],
          [
            -5.7005130239185835,
            54.716144827307275
          ],
          [
            -5.6993471600149714,
            54.716845328905748
          ],
          [
            -5.6983406846073441,
            54.717532872750404
          ],
          [
            -5.6972649435108833,
            54.718241286753461
          ],
          [
            -5.6962610976590691,
            54.71895534208408
          ],
          [
            -5.6896728699374997,
            54.722979552264896
          ],
          [
            -5.6886374783032982,
            54.723668191882766
          ],
          [
            -5.6875092166133188,
            54.724342364256046
          ],
          [
            -5.6863819625839866,
            54.725042912452771
          ],
          [
            -5.6853506888706331,
            54.725714637347934
          ],
          [
            -5.6836984124098606,
            54.726898414920903
          ],
          [
            -5.6836984124098606,
            54.726898414920903
          ],
          [
            -5.034458735329876,
            54.983792402814956
          ],
          [
            -5.0343055999999997,
            54.983635500000013
          ],
          [
            -5.0338237500000007,
            54.982769300000001
          ],
          [
            -5.0329311666666658,
            54.982009566666662
          ],
          [
            -5.0321648000000003,
            54.981204933333323
          ],
          [
            -5.0306388999999996,
            54.980839583333328
          ],
          [
            -5.0296709166666673,
            54.979877766666668
          ],
          [
            -5.0294327500000007,
            54.978523083333322
          ],
          [
            -5.02943885,
            54.977300566666656
          ],
          [
            -5.0294412833333331,
            54.976103200000004
          ],
          [
            -5.0287577500000005,
            54.974890933333342
          ],
          [
            -5.0275559166666657,
            54.974272383333336
          ],
          [
            -5.0259185000000004,
            54.973900216666671
          ],
          [
            -5.0244163666666664,
            54.97346044999999
          ],
          [
            -5.0231369166666671,
            54.972818099999998
          ],
          [
            -5.0219397333333342,
            54.972127800000003
          ],
          [
            -5.0207253999999999,
            54.971450666666669
          ],
          [
            -5.0194950500000006,
            54.970769833333335
          ],
          [
            -5.0182920333333341,
            54.969735716666676
          ],
          [
            -5.0174956666666661,
            54.968703033333334
          ],
          [
            -5.0174956666666661,
            54.968703033333334
          ],
          [
            -5.0163825166666669,
            54.967652383333345
          ],
          [
            -5.0152708000000006,
            54.966756866666678
          ],
          [
            -5.0144547499999996,
            54.965761350000008
          ],
          [
            -5.0134650333333326,
            54.964615566666666
          ],
          [
            -5.0124234333333337,
            54.963491833333336
          ],
          [
            -5.0119191833333332,
            54.962210866666659
          ],
          [
            -5.0112263500000003,
            54.960980333333332
          ],
          [
            -5.0104365,
            54.959647166666677
          ],
          [
            -5.0094136333333337,
            54.95796785000001
          ],
          [
            -5.007793716666666,
            54.956095866666665
          ],
          [
            -5.0060325333333324,
            54.954338666666672
          ],
          [
            -5.0050634333333335,
            54.952176216666672
          ],
          [
            -5.0048871166666666,
            54.949979583333331
          ],
          [
            -5.0039778666666663,
            54.947976183333338
          ],
          [
            -5.0028362666666677,
            54.946062033333327
          ],
          [
            -5.0015160999999999,
            54.944121166666669
          ],
          [
            -5.0000474499999994,
            54.942112950000002
          ],
          [
            -4.9980275166666663,
            54.940117583333326
          ],
          [
            -4.9959650333333334,
            54.938039616666671
          ],
          [
            -4.9939436000000006,
            54.936004500000003
          ],
          [
            -4.9917682500000007,
            54.933797850000005
          ],
          [
            -4.9897348666666668,
            54.931747683333327
          ],
          [
            -4.9878570666666668,
            54.929724416666673
          ],
          [
            -4.9871310666666666,
            54.9276476
          ],
          [
            -4.9877482833333335,
            54.925552583333335
          ],
          [
            -4.9890701158519946,
            54.923702287748043
          ],
          [
            -4.9901816908294974,
            54.921948776010787
          ],
          [
            -4.9902442166666665,
            54.920539066666663
          ],
          [
            -4.9901715500000003,
            54.920004400000003
          ],
          [
            -4.990665347568231,
            54.918033693425642
          ],
          [
            -4.991738200480901,
            54.916174433023997
          ],
          [
            -4.9934506120330857,
            54.914511323612729
          ],
          [
            -4.9953270839858837,
            54.913190146033088
          ],
          [
            -4.9975236166666672,
            54.91200396666666
          ],
          [
            -4.9997935097670041,
            54.911039654603684
          ],
          [
            -5.0014514099425815,
            54.910323959641445
          ],
          [
            -5.003355946880232,
            54.909653198998605
          ],
          [
            -5.0051245065942851,
            54.909077910007284
          ],
          [
            -5.0067232999999991,
            54.908510916666671
          ],
          [
            -5.008536283333334,
            54.9079038
          ],
          [
            -5.0102890666666662,
            54.907310549999998
          ],
          [
            -5.0121045332338063,
            54.906817384895518
          ],
          [
            -5.0141634589733002,
            54.906266724906516
          ],
          [
            -5.0162413086633313,
            54.905710984223376
          ],
          [
            -5.0179057040587338,
            54.905267499433741
          ],
          [
            -5.0198545833333332,
            54.90540810000001
          ],
          [
            -5.0214753833333328,
            54.905710266666667
          ],
          [
            -5.0230932728523587,
            54.905531156391341
          ],
          [
            -5.0247602666666662,
            54.905438466666659
          ],
          [
            -5.0263216999999996,
            54.905463083333338
          ],
          [
            -5.0250150666666658,
            54.905423199999994
          ],
          [
            -5.0262719999999996,
            54.905503633333332
          ],
          [
            -5.0277257166666667,
            54.905892683333335
          ],
          [
            -5.0296482666666664,
            54.90587488333334
          ],
          [
            -5.0313068833333334,
            54.905882233333323
          ],
          [
            -5.0328132000000005,
            54.906196916666673
          ],
          [
            -5.034262383333334,
            54.906664166666658
          ],
          [
            -5.035412766666667,
            54.907298083333338
          ],
          [
            -5.0361190000000011,
            54.908139666666663
          ],
          [
            -5.036768416666666,
            54.909000416666672
          ],
          [
            -5.0375047500000001,
            54.9099334
          ],
          [
            -5.0387500999999997,
            54.910702733333331
          ],
          [
            -5.0403889166666662,
            54.911290549999997
          ],
          [
            -5.0419699333333332,
            54.911610833333334
          ],
          [
            -5.0441824333333329,
            54.91205466666667
          ],
          [
            -5.0462857833333334,
            54.912734500000006
          ],
          [
            -5.0481828499999999,
            54.913368516666672
          ],
          [
            -5.0505151833333333,
            54.914132799999997
          ],
          [
            -5.0532650333333331,
            54.914856066666665
          ],
          [
            -5.0561586833333338,
            54.915740716666669
          ],
          [
            -5.0591891000000002,
            54.916737300000008
          ],
          [
            -5.0618833500000004,
            54.917865533333334
          ],
          [
            -5.0638228666666665,
            54.919514883333342
          ],
          [
            -5.0653485999999992,
            54.921056250000007
          ],
          [
            -5.0673421833333334,
            54.922438499999998
          ],
          [
            -5.069973533333334,
            54.923465033333336
          ],
          [
            -5.0723115333333331,
            54.924398349999997
          ],
          [
            -5.0739121166666674,
            54.925007666666666
          ],
          [
            -5.0746022499999999,
            54.925264950000006
          ],
          [
            -5.0768392166666665,
            54.92604991666667
          ],
          [
            -5.0780932833333328,
            54.926623849999999
          ],
          [
            -5.0770003186356103,
            54.927976614186178
          ],
          [
            -5.0756294832363649,
            54.929417996123838
          ],
          [
            -5.0743626960299508,
            54.93079685073694
          ],
          [
            -5.0734247195658453,
            54.931879448939725
          ],
          [
            -5.0719753629453841,
            54.933034193797319
          ],
          [
            -5.069831797464218,
            54.933778646026951
          ],
          [
            -5.0695170299723848,
            54.93550656209154
          ],
          [
            -5.0695499449370844,
            54.937145356491641
          ],
          [
            -5.0700216166666676,
            54.938785666666668
          ],
          [
            -5.0705327499999999,
            54.940690750000002
          ],
          [
            -5.0705004500000008,
            54.942444533333344
          ],
          [
            -5.070034549999999,
            54.944105533333335
          ],
          [
            -5.0702822166666666,
            54.945943583333339
          ],
          [
            -5.0709575333333339,
            54.947548750000003
          ],
          [
            -5.071715066666667,
            54.949126099999994
          ],
          [
            -5.0720677333333333,
            54.950650416666669
          ],
          [
            -5.0711039666666666,
            54.952190450000003
          ],
          [
            -5.0703797466225522,
            54.953773023134424
          ],
          [
            -5.0710607999999997,
            54.955595049999999
          ],
          [
            -5.0717197833333332,
            54.956946716666671
          ],
          [
            -5.0734794166666672,
            54.957965299999998
          ],
          [
            -5.075032516666667,
            54.959233516666671
          ],
          [
            -5.0748805833333339,
            54.960860333333329
          ],
          [
            -5.0748616000000002,
            54.962317200000008
          ],
          [
            -5.0751897064524023,
            54.963325363851283
          ],
          [
            -5.0750336333333337,
            54.964634183333331
          ],
          [
            -5.0750669499999992,
            54.965250016666673
          ],
          [
            -5.0754245166666667,
            54.965875050000008
          ],
          [
            -5.0759999000000002,
            54.967058700000003
          ],
          [
            -5.0762966833333332,
            54.968142033333336
          ],
          [
            -5.075830541504823,
            54.9690048018536
          ],
          [
            -5.0749250520643594,
            54.968224686963495
          ],
          [
            -5.0739939008212724,
            54.967435760182788
          ],
          [
            -5.0740172999999995,
            54.96653478333333
          ],
          [
            -5.0720112000000004,
            54.967408200000001
          ],
          [
            -5.0693771840231445,
            54.968386012514436
          ],
          [
            -5.0738160511191932,
            54.96666752923803
          ],
          [
            -5.0740957499999997,
            54.967561599999996
          ],
          [
            -5.075123333333333,
            54.968458166666672
          ],
          [
            -5.0765003666666662,
            54.968622350000004
          ],
          [
            -5.0762383666666668,
            54.967694849999994
          ],
          [
            -5.0759502666666663,
            54.96672336666667
          ],
          [
            -5.0754570500000007,
            54.965843533333327
          ],
          [
            -5.0750256,
            54.964972616666671
          ],
          [
            -5.0753739333333332,
            54.964080500000001
          ],
          [
            -5.0750506666666668,
            54.962821133333328
          ],
          [
            -5.0746951333333339,
            54.961528399999999
          ],
          [
            -5.0751599000000001,
            54.960036783333329
          ],
          [
            -5.0744472999999992,
            54.958567466666672
          ],
          [
            -5.0728796166666665,
            54.957500616666657
          ],
          [
            -5.0714027833333342,
            54.956369583333327
          ],
          [
            -5.0708421833333341,
            54.954826450000006
          ],
          [
            -5.0703949999999995,
            54.953581733333337
          ],
          [
            -5.0710553666666671,
            54.952288550000006
          ],
          [
            -5.0720246000000007,
            54.95097513333333
          ],
          [
            -5.0721152666666667,
            54.950246916666671
          ],
          [
            -5.0718928666666674,
            54.949351200000002
          ],
          [
            -5.071172783333334,
            54.947874900000002
          ],
          [
            -5.0705729999999996,
            54.946449350000002
          ],
          [
            -5.0701270000000003,
            54.94506504999999
          ],
          [
            -5.0702122333333337,
            54.94370288333333
          ],
          [
            -5.0705720333333337,
            54.942252116666666
          ],
          [
            -5.0706116166666666,
            54.940846900000004
          ],
          [
            -5.0703042333333332,
            54.939747883333332
          ],
          [
            -5.0700456833333334,
            54.938456966666678
          ],
          [
            -5.0696504999999998,
            54.937136416666668
          ],
          [
            -5.0695866166666663,
            54.935837599999999
          ],
          [
            -5.0697117333333335,
            54.934644016666667
          ],
          [
            -5.0700384666666674,
            54.933665400000002
          ],
          [
            -5.0717726254765019,
            54.933133083651448
          ],
          [
            -5.073118216666666,
            54.932280349999999
          ],
          [
            -5.0741350666666669,
            54.931105883333345
          ],
          [
            -5.075193033333333,
            54.929920600000003
          ],
          [
            -5.0762547000000007,
            54.928808183333331
          ],
          [
            -5.0773039333333339,
            54.927705716666665
          ],
          [
            -5.0780375833333338,
            54.92682525
          ],
          [
            -5.0792530145676764,
            54.92608168142759
          ],
          [
            -5.0805528118122547,
            54.925446339351453
          ],
          [
            -5.0811078333333333,
            54.924546733333337
          ],
          [
            -5.0803881333333338,
            54.923643750000004
          ],
          [
            -5.0809833333333323,
            54.92276545
          ],
          [
            -5.0823931117760219,
            54.922174145754326
          ],
          [
            -5.0825156833333329,
            54.921198033333333
          ],
          [
            -5.0833825166666662,
            54.920299166666673
          ],
          [
            -5.0844416166666671,
            54.919715416666669
          ],
          [
            -5.0840881666666666,
            54.918499433333331
          ],
          [
            -5.0836622166666663,
            54.917502699999993
          ],
          [
            -5.0845408272573653,
            54.9166955422236
          ],
          [
            -5.0863768683196886,
            54.916259723020751
          ],
          [
            -5.0881425815088557,
            54.915693962463799
          ],
          [
            -5.0896309728699505,
            54.915169855965281
          ],
          [
            -5.0916812122642403,
            54.914445971017884
          ],
          [
            -5.0939461715778522,
            54.913646961890237
          ],
          [
            -5.095745775407484,
            54.913012378441216
          ],
          [
            -5.0975409151533384,
            54.912373922214918
          ],
          [
            -5.0994855720756007,
            54.911685845728151
          ],
          [
            -5.1014258999999997,
            54.910983916666666
          ],
          [
            -5.1033504333333335,
            54.910304849999996
          ],
          [
            -5.1052887030355176,
            54.909638199307018
          ],
          [
            -5.1070597499999995,
            54.909073466666662
          ],
          [
            -5.1090814166666672,
            54.908782133333339
          ],
          [
            -5.1111151166666664,
            54.908431950000008
          ],
          [
            -5.1129112166666673,
            54.907805233333328
          ],
          [
            -5.1142108833333326,
            54.906952583333329
          ],
          [
            -5.1154277000000006,
            54.90613608333333
          ],
          [
            -5.1170214166666668,
            54.90543559999999
          ],
          [
            -5.1189360166666669,
            54.905033333333336
          ],
          [
            -5.1207996406628542,
            54.904891463040066
          ],
          [
            -5.1225210819165143,
            54.904575104259933
          ],
          [
            -5.1250612034103025,
            54.90364599460915
          ],
          [
            -5.1259214336461634,
            54.902569350261246
          ],
          [
            -5.1261466620120011,
            54.90193199087323
          ],
          [
            -5.1264864333333326,
            54.900850949999999
          ],
          [
            -5.1269126343706262,
            54.899854919647254
          ],
          [
            -5.1279804408678871,
            54.899053994249854
          ],
          [
            -5.1292821196359295,
            54.898175237306631
          ],
          [
            -5.1300945622175211,
            54.897228232552656
          ],
          [
            -5.1308304943044698,
            54.896388795937909
          ],
          [
            -5.1317152498156764,
            54.895405978189096
          ],
          [
            -5.1325612985252427,
            54.894455961317625
          ],
          [
            -5.1333908162380739,
            54.893521526516516
          ],
          [
            -5.1341755656401409,
            54.892646531756895
          ],
          [
            -5.1349629429523,
            54.891815740774867
          ],
          [
            -5.1358555470253489,
            54.890802055056632
          ],
          [
            -5.1373318357122031,
            54.889191053830231
          ],
          [
            -5.138604707841675,
            54.887772792743476
          ],
          [
            -5.1392512933096084,
            54.886837328370234
          ],
          [
            -5.1388348199313061,
            54.885862123625976
          ],
          [
            -5.1379750306934033,
            54.885058364893588
          ],
          [
            -5.1377819262993967,
            54.883849682318093
          ],
          [
            -5.1375953580333746,
            54.882698780199412
          ],
          [
            -5.1371100760575592,
            54.881364070567017
          ],
          [
            -5.1365645997172447,
            54.880177687832479
          ],
          [
            -5.1359815047925608,
            54.878970636750353
          ],
          [
            -5.1350663620759969,
            54.877955902840235
          ],
          [
            -5.1338985375740673,
            54.876904999790064
          ],
          [
            -5.1324163903543072,
            54.876090694404255
          ],
          [
            -5.1305216578380115,
            54.875703877251624
          ],
          [
            -5.1283049912629597,
            54.875335794467922
          ],
          [
            -5.1262796088017488,
            54.875565161139498
          ],
          [
            -5.1241927907542637,
            54.875485690033607
          ],
          [
            -5.1222942279344501,
            54.875372412560715
          ],
          [
            -5.120940882102202,
            54.87466874137813
          ],
          [
            -5.1200024783800187,
            54.8736464082453
          ],
          [
            -5.1192375905164864,
            54.872702905203418
          ],
          [
            -5.1185871738314894,
            54.871815670850751
          ],
          [
            -5.1199974348408999,
            54.871406206360753
          ],
          [
            -5.1215134651784817,
            54.870977144395212
          ],
          [
            -5.1230041941480486,
            54.870545963667496
          ],
          [
            -5.1244577273208867,
            54.870135540325329
          ],
          [
            -5.125959017716279,
            54.869715084944424
          ],
          [
            -5.1271631195883378,
            54.869091820100451
          ],
          [
            -5.1281414921436346,
            54.868352307468662
          ],
          [
            -5.1287960166666666,
            54.867238749999991
          ],
          [
            -5.1303359312512669,
            54.867095947223646
          ],
          [
            -5.1319146421307149,
            54.866945473571882
          ],
          [
            -5.1333702653762758,
            54.866520584501835
          ],
          [
            -5.1349170337649408,
            54.866269940793025
          ],
          [
            -5.1364224000000007,
            54.865960750000006
          ],
          [
            -5.1379488057143909,
            54.8657204073223
          ],
          [
            -5.1454735428747185,
            54.864575332437703
          ]
        ]
      },
      "properties" : {
        "device" : "B9E47AEB-E54C-4563-96B6-06995DD4BC56 (iPhone 16 Pro)",
        "end" : "2026-04-21T21:59:59Z",
        "start" : "2026-04-20T22:00:00Z",
        "type" : "route",
        "source" : "Geory 5.3.2"
      }
    }
  ],
  "type" : "FeatureCollection"
}