{
  "features" : [
    {
      "geometry" : {
        "type" : "Point",
        "coordinates" : [
          -2.6814939002378062,
          56.229773402332754
        ]
      },
      "properties" : {
        "duration" : 50879.833796977997,
        "weather" : "Bedeckter Himmel (15,6 °C)",
        "departure" : "2026-09-11T09:23:14Z",
        "rating" : 0,
        "timestamp" : "2026-09-10T19:15:14Z",
        "address" : "Silverdyke Caravan Park, Windmill Road, Cellardyke, Anstruther, KY10 3FN, Schottland",
        "source" : "Geory 5.3.2",
        "device" : "B9E47AEB-E54C-4563-96B6-06995DD4BC56 (iPhone 16 Pro)",
        "arrival" : "2026-09-10T19:15:14Z",
        "type" : "visit"
      },
      "type" : "Feature"
    },
    {
      "type" : "Feature",
      "geometry" : {
        "coordinates" : [
          -2.698181092013674,
          56.222072633194635
        ],
        "type" : "Point"
      },
      "properties" : {
        "address" : "Lifeboat Station, East Shore, Anstruther, KY10 3AB, Schottland",
        "weather" : "Klarer Himmel (14,0 °C)",
        "rating" : 0,
        "type" : "visit",
        "source" : "Geory 5.3.2",
        "timestamp" : "2026-09-11T09:42:05Z",
        "arrival" : "2026-09-11T09:42:05Z",
        "duration" : 1895.3858423233032,
        "departure" : "2026-09-11T10:13:41Z",
        "device" : "B9E47AEB-E54C-4563-96B6-06995DD4BC56 (iPhone 16 Pro)"
      }
    },
    {
      "geometry" : {
        "type" : "Point",
        "coordinates" : [
          -2.7025302226304526,
          56.223026069974438
        ]
      },
      "properties" : {
        "address" : "31 High Street East, Anstruther, KY10 3DQ, Schottland",
        "weather" : "Klarer Himmel (14,4 °C)",
        "timestamp" : "2026-09-11T10:16:54Z",
        "rating" : 0,
        "source" : "Geory 5.3.2",
        "device" : "B9E47AEB-E54C-4563-96B6-06995DD4BC56 (iPhone 16 Pro)",
        "duration" : 2291.3004615306854,
        "arrival" : "2026-09-11T10:16:54Z",
        "departure" : "2026-09-11T10:55:06Z",
        "type" : "visit"
      },
      "type" : "Feature"
    },
    {
      "properties" : {
        "arrival" : "2026-09-11T10:59:33Z",
        "source" : "Geory 5.3.2",
        "device" : "B9E47AEB-E54C-4563-96B6-06995DD4BC56 (iPhone 16 Pro)",
        "weather" : "Klarer Himmel (14,4 °C)",
        "departure" : "2026-09-11T11:15:36Z",
        "duration" : 962.06168961524963,
        "rating" : 0,
        "address" : "Billow Ness Beach, Anstruther, KY10, Schottland",
        "type" : "visit",
        "timestamp" : "2026-09-11T10:59:33Z"
      },
      "geometry" : {
        "coordinates" : [
          -2.7069870530297409,
          56.218298781718538
        ],
        "type" : "Point"
      },
      "type" : "Feature"
    },
    {
      "properties" : {
        "departure" : "2026-09-11T13:48:52Z",
        "address" : "The Coach House, 15A Cove Wynd, Pittenweem, Anstruther, KY10 2LE, Schottland",
        "source" : "Geory 5.3.2",
        "timestamp" : "2026-09-11T11:35:11Z",
        "duration" : 8020.6246242523193,
        "type" : "visit",
        "arrival" : "2026-09-11T11:35:11Z",
        "rating" : 0,
        "device" : "B9E47AEB-E54C-4563-96B6-06995DD4BC56 (iPhone 16 Pro)",
        "weather" : "Klarer Himmel (14,4 °C)"
      },
      "geometry" : {
        "coordinates" : [
          -2.728554615521519,
          56.213410886941581
        ],
        "type" : "Point"
      },
      "type" : "Feature"
    },
    {
      "type" : "Feature",
      "geometry" : {
        "type" : "Point",
        "coordinates" : [
          -2.7355496877647476,
          56.211754158905165
        ]
      },
      "properties" : {
        "device" : "B9E47AEB-E54C-4563-96B6-06995DD4BC56 (iPhone 16 Pro)",
        "address" : "7 West Braes, Pittenweem, Anstruther, KY10, Schottland",
        "timestamp" : "2026-09-11T13:48:53Z",
        "duration" : 904.88201761245728,
        "weather" : "Klarer Himmel (15,6 °C)",
        "source" : "Geory 5.3.2",
        "departure" : "2026-09-11T14:03:57Z",
        "arrival" : "2026-09-11T13:48:53Z",
        "rating" : 0,
        "type" : "visit"
      }
    },
    {
      "properties" : {
        "departure" : "2026-09-11T14:35:57Z",
        "rating" : 0,
        "weather" : "Klarer Himmel (15,6 °C)",
        "duration" : 1826.8723990917206,
        "address" : "9 West Shore, Pittenweem, Anstruther, KY10 2NU, Schottland",
        "type" : "visit",
        "timestamp" : "2026-09-11T14:05:30Z",
        "source" : "Geory 5.3.2",
        "device" : "B9E47AEB-E54C-4563-96B6-06995DD4BC56 (iPhone 16 Pro)",
        "arrival" : "2026-09-11T14:05:30Z"
      },
      "type" : "Feature",
      "geometry" : {
        "type" : "Point",
        "coordinates" : [
          -2.7329219929745001,
          56.212074878836376
        ]
      }
    },
    {
      "properties" : {
        "arrival" : "2026-09-11T14:36:04Z",
        "type" : "visit",
        "source" : "Geory 5.3.2",
        "timestamp" : "2026-09-11T14:36:04Z",
        "rating" : 0,
        "device" : "B9E47AEB-E54C-4563-96B6-06995DD4BC56 (iPhone 16 Pro)",
        "address" : "42 Mid Shore, Pittenweem, Anstruther, KY10, Schottland",
        "departure" : "2026-09-11T15:12:57Z",
        "weather" : "Klarer Himmel (15,6 °C)",
        "duration" : 2213.5361776351929
      },
      "geometry" : {
        "type" : "Point",
        "coordinates" : [
          -2.7290382128198236,
          56.212179082128323
        ]
      },
      "type" : "Feature"
    },
    {
      "type" : "Feature",
      "properties" : {
        "duration" : 5494.0082800388336,
        "timestamp" : "2026-09-11T15:45:00Z",
        "type" : "visit",
        "device" : "B9E47AEB-E54C-4563-96B6-06995DD4BC56 (iPhone 16 Pro)",
        "departure" : "2026-09-11T17:16:34Z",
        "arrival" : "2026-09-11T15:45:00Z",
        "address" : "The Studio, Shore, Anstruther, KY10 3DY, Schottland",
        "rating" : 0,
        "weather" : "Leicht bewölkt (15,6 °C)",
        "source" : "Geory 5.3.2"
      },
      "geometry" : {
        "coordinates" : [
          -2.7035756798037855,
          56.222667857533651
        ],
        "type" : "Point"
      }
    },
    {
      "properties" : {
        "end" : "2026-09-11T20:06:05Z",
        "device" : "B9E47AEB-E54C-4563-96B6-06995DD4BC56 (iPhone 16 Pro)",
        "start" : "2026-09-10T23:00:00Z",
        "source" : "Geory 5.3.2",
        "type" : "route"
      },
      "type" : "Feature",
      "geometry" : {
        "coordinates" : [
          [
            -2.6814247271175828,
            56.229791278227651
          ],
          [
            -2.6814247271175828,
            56.229791278227651
          ],
          [
            -2.6823130205883556,
            56.229435624227541
          ],
          [
            -2.6832727691492693,
            56.22863744659
          ],
          [
            -2.6816891507665108,
            56.228310330360657
          ],
          [
            -2.6801305031787939,
            56.228554813937336
          ],
          [
            -2.6804909287818779,
            56.227674491518187
          ],
          [
            -2.680830902389713,
            56.226981637790566
          ],
          [
            -2.6809378840415965,
            56.227033104650658
          ],
          [
            -2.6811653483253828,
            56.227601544643989
          ],
          [
            -2.6806782659378081,
            56.227461039733655
          ],
          [
            -2.6809750321997212,
            56.22695771460203
          ],
          [
            -2.6814787646834559,
            56.227338995663352
          ],
          [
            -2.6808945935087327,
            56.227149908197326
          ],
          [
            -2.6810124480246764,
            56.227111547453802
          ],
          [
            -2.6815133326013258,
            56.227287550164583
          ],
          [
            -2.6809068340580247,
            56.227240790507359
          ],
          [
            -2.6802089482805695,
            56.228311964392354
          ],
          [
            -2.6808654158831509,
            56.227128012138685
          ],
          [
            -2.6800551037173368,
            56.228540120081696
          ],
          [
            -2.6809305313245892,
            56.227007780067808
          ],
          [
            -2.6809851104958335,
            56.227064745487034
          ],
          [
            -2.6804060203797473,
            56.228026364478282
          ],
          [
            -2.6812609528641547,
            56.227078655472255
          ],
          [
            -2.6802311744673313,
            56.228011150942457
          ],
          [
            -2.6807067634400679,
            56.22747647537777
          ],
          [
            -2.6809285624290395,
            56.227113778829029
          ],
          [
            -2.6809159532265614,
            56.22710378893634
          ],
          [
            -2.6802922083212652,
            56.228118151140514
          ],
          [
            -2.6808992735905459,
            56.227178991379567
          ],
          [
            -2.681473277148585,
            56.229853214382914
          ],
          [
            -2.681473277148585,
            56.229853214382914
          ],
          [
            -2.7035756798037855,
            56.222667857533651
          ],
          [
            -2.7054928389528565,
            56.221270108097627
          ],
          [
            -2.7058352843074549,
            56.22038925620577
          ],
          [
            -2.7058996516815732,
            56.219200001275347
          ],
          [
            -2.7058996516815732,
            56.219200001275347
          ],
          [
            -2.7059132832528361,
            56.219190845466763
          ],
          [
            -2.7091273125512321,
            56.21598704677556
          ],
          [
            -2.7110985621746906,
            56.21525555104553
          ],
          [
            -2.711935357950904,
            56.215099297131928
          ],
          [
            -2.713517074983522,
            56.21488605312534
          ],
          [
            -2.7151289524661917,
            56.214976531997564
          ],
          [
            -2.7167754195554972,
            56.215039373659707
          ],
          [
            -2.719364516895149,
            56.215150351389958
          ],
          [
            -2.7220853573474857,
            56.21463433863935
          ],
          [
            -2.7235284571564895,
            56.214196830124848
          ],
          [
            -2.7290382128198236,
            56.212179082128323
          ],
          [
            -2.7329219929745001,
            56.212074878836376
          ],
          [
            -2.7355496877647476,
            56.211754158905165
          ],
          [
            -2.728554615521519,
            56.213410886941581
          ],
          [
            -2.7207930470072221,
            56.214841267448939
          ],
          [
            -2.7193747448093464,
            56.215365942574103
          ],
          [
            -2.7193747448093464,
            56.215365942574103
          ],
          [
            -2.7144859026982342,
            56.214745183638691
          ],
          [
            -2.7135565794738703,
            56.214998310742629
          ],
          [
            -2.7109543118115331,
            56.21529369344357
          ],
          [
            -2.7069870530297409,
            56.218298781718538
          ],
          [
            -2.7060000428551496,
            56.219454437090803
          ],
          [
            -2.7060000428551496,
            56.219454437090803
          ],
          [
            -2.705819312462677,
            56.22046412770819
          ],
          [
            -2.7055664955127603,
            56.22206990767117
          ],
          [
            -2.7025302226304526,
            56.223026069974438
          ],
          [
            -2.7012631908932758,
            56.222853269665052
          ],
          [
            -2.698181092013674,
            56.222072633194635
          ],
          [
            -2.6919695063195004,
            56.223106894869908
          ],
          [
            -2.690086349956081,
            56.223456992623511
          ],
          [
            -2.6883594138856615,
            56.223587916275136
          ],
          [
            -2.6870090243078684,
            56.224191389246428
          ],
          [
            -2.685681616151212,
            56.225005057524733
          ],
          [
            -2.6845697450969421,
            56.225699214234474
          ],
          [
            -2.6836641638340568,
            56.226445026710024
          ],
          [
            -2.6826115653935583,
            56.227183597999286
          ],
          [
            -2.6818434517450545,
            56.228012654344255
          ],
          [
            -2.6814939002378062,
            56.229773402332754
          ]
        ],
        "type" : "LineString"
      }
    }
  ],
  "type" : "FeatureCollection"
}