{
  "features" : [
    {
      "properties" : {
        "arrival" : "2026-09-11T17:10:17Z",
        "rating" : 0,
        "duration" : 60961.068270921707,
        "device" : "B9E47AEB-E54C-4563-96B6-06995DD4BC56 (iPhone 16 Pro)",
        "source" : "Geory 5.3.2",
        "address" : "Silverdyke Caravan Park, Windmill Road, Cellardyke, Anstruther, KY10 3FN, Schottland",
        "timestamp" : "2026-09-11T17:10:17Z",
        "type" : "visit",
        "departure" : "2026-09-12T10:06:18Z"
      },
      "type" : "Feature",
      "geometry" : {
        "type" : "Point",
        "coordinates" : [
          -2.6813230134506454,
          56.229556264733837
        ]
      }
    },
    {
      "geometry" : {
        "type" : "Point",
        "coordinates" : [
          -2.6851460983638389,
          56.225781924816125
        ]
      },
      "properties" : {
        "duration" : 904.29825067520142,
        "device" : "B9E47AEB-E54C-4563-96B6-06995DD4BC56 (iPhone 16 Pro)",
        "address" : "24 Fairhaven Crescent, Cellardyke, Anstruther, KY10 3FE, Schottland",
        "rating" : 0,
        "source" : "Geory 5.3.2",
        "arrival" : "2026-09-12T10:07:00Z",
        "type" : "visit",
        "departure" : "2026-09-12T10:22:05Z",
        "timestamp" : "2026-09-12T10:07:00Z",
        "weather" : "Bedeckter Himmel (16,6 °C)"
      },
      "type" : "Feature"
    },
    {
      "geometry" : {
        "coordinates" : [
          -2.7009269619626282,
          56.222863096535434
        ],
        "type" : "Point"
      },
      "type" : "Feature",
      "properties" : {
        "weather" : "Bedeckter Himmel (16,8 °C)",
        "type" : "visit",
        "rating" : 0,
        "timestamp" : "2026-09-12T10:36:28Z",
        "address" : "5 Shore Street, Cellardyke, Anstruther, KY10 3EA, Schottland",
        "departure" : "2026-09-12T11:07:09Z",
        "source" : "Geory 5.3.2",
        "duration" : 1840.8446562290192,
        "device" : "B9E47AEB-E54C-4563-96B6-06995DD4BC56 (iPhone 16 Pro)",
        "arrival" : "2026-09-12T10:36:28Z"
      }
    },
    {
      "geometry" : {
        "type" : "Point",
        "coordinates" : [
          -2.7067863029249186,
          56.224658954440677
        ]
      },
      "type" : "Feature",
      "properties" : {
        "source" : "Geory 5.3.2",
        "weather" : "Bedeckter Himmel (17,2 °C)",
        "duration" : 1278.6708526611328,
        "departure" : "2026-09-12T11:32:34Z",
        "device" : "B9E47AEB-E54C-4563-96B6-06995DD4BC56 (iPhone 16 Pro)",
        "rating" : 0,
        "arrival" : "2026-09-12T11:11:16Z",
        "timestamp" : "2026-09-12T11:11:16Z",
        "type" : "visit",
        "address" : "Saint Andrews Road, KY10, Schottland"
      }
    },
    {
      "type" : "Feature",
      "properties" : {
        "address" : "9 West Braes, Pittenweem, Anstruther, KY10, Schottland",
        "duration" : 1083.8374755382538,
        "source" : "Geory 5.3.2",
        "type" : "visit",
        "departure" : "2026-09-12T11:56:27Z",
        "device" : "B9E47AEB-E54C-4563-96B6-06995DD4BC56 (iPhone 16 Pro)",
        "timestamp" : "2026-09-12T11:38:23Z",
        "arrival" : "2026-09-12T11:38:23Z",
        "weather" : "Bedeckter Himmel (17,3 °C)",
        "rating" : 0
      },
      "geometry" : {
        "type" : "Point",
        "coordinates" : [
          -2.7360995999999997,
          56.211460333333328
        ]
      }
    },
    {
      "properties" : {
        "type" : "visit",
        "weather" : "Bedeckter Himmel (17,2 °C)",
        "address" : "9 West Braes, Pittenweem, Anstruther, KY10, Schottland",
        "arrival" : "2026-09-12T12:12:09Z",
        "source" : "Geory 5.3.2",
        "duration" : 8167.8255760669708,
        "device" : "B9E47AEB-E54C-4563-96B6-06995DD4BC56 (iPhone 16 Pro)",
        "departure" : "2026-09-12T14:28:17Z",
        "timestamp" : "2026-09-12T12:12:09Z",
        "rating" : 0
      },
      "type" : "Feature",
      "geometry" : {
        "type" : "Point",
        "coordinates" : [
          -2.7360922157521999,
          56.21161258087642
        ]
      }
    },
    {
      "properties" : {
        "source" : "Geory 5.3.2",
        "arrival" : "2026-09-12T14:47:36Z",
        "departure" : "2026-09-12T15:18:19Z",
        "duration" : 1843.1944658756256,
        "address" : "Anstruther, KY10, Schottland",
        "type" : "visit",
        "weather" : "Aufgelockert bewölkt (17,2 °C)",
        "device" : "B9E47AEB-E54C-4563-96B6-06995DD4BC56 (iPhone 16 Pro)",
        "timestamp" : "2026-09-12T14:47:36Z",
        "rating" : 0
      },
      "geometry" : {
        "coordinates" : [
          -2.7548174873831108,
          56.206556897096526
        ],
        "type" : "Point"
      },
      "type" : "Feature"
    },
    {
      "type" : "Feature",
      "geometry" : {
        "type" : "Point",
        "coordinates" : [
          -2.764334912170169,
          56.20478157359085
        ]
      },
      "properties" : {
        "duration" : 6167.1688740253448,
        "device" : "B9E47AEB-E54C-4563-96B6-06995DD4BC56 (iPhone 16 Pro)",
        "type" : "visit",
        "source" : "Geory 5.3.2",
        "address" : "39–99 Mid Shore, St. Monans, Anstruther, KY10, Schottland",
        "timestamp" : "2026-09-12T15:18:25Z",
        "arrival" : "2026-09-12T15:18:25Z",
        "rating" : 0,
        "departure" : "2026-09-12T17:01:12Z",
        "weather" : "Aufgelockert bewölkt (18,3 °C)"
      }
    },
    {
      "geometry" : {
        "type" : "Point",
        "coordinates" : [
          -2.7702246833713771,
          56.203551496668432
        ]
      },
      "type" : "Feature",
      "properties" : {
        "timestamp" : "2026-09-12T17:01:13Z",
        "arrival" : "2026-09-12T17:01:13Z",
        "address" : "35 West End, St. Monans, Anstruther, KY10 2BX, Schottland",
        "duration" : 1572.114394903183,
        "departure" : "2026-09-12T17:27:25Z",
        "rating" : 0,
        "device" : "B9E47AEB-E54C-4563-96B6-06995DD4BC56 (iPhone 16 Pro)",
        "weather" : "Überwiegend bewölkt (16,8 °C)",
        "type" : "visit",
        "source" : "Geory 5.3.2"
      }
    },
    {
      "type" : "Feature",
      "properties" : {
        "device" : "B9E47AEB-E54C-4563-96B6-06995DD4BC56 (iPhone 16 Pro)",
        "type" : "route",
        "start" : "2026-09-11T23:00:00Z",
        "source" : "Geory 5.3.2",
        "end" : "2026-09-12T21:55:49Z"
      },
      "geometry" : {
        "type" : "LineString",
        "coordinates" : [
          [
            -2.736124598486239,
            56.211726651808938
          ],
          [
            -2.7346686554383428,
            56.212773197895764
          ],
          [
            -2.7361605311502637,
            56.211626950803101
          ],
          [
            -2.7337332578219669,
            56.211945535218881
          ],
          [
            -2.7354483480965013,
            56.212303884296382
          ],
          [
            -2.7360289192747769,
            56.211533840703204
          ],
          [
            -2.7350791315967693,
            56.212609464979707
          ],
          [
            -2.7330814394652045,
            56.212070100318186
          ],
          [
            -2.7324765849316148,
            56.212138616336539
          ],
          [
            -2.7298644637683531,
            56.212261156912845
          ],
          [
            -2.7317715411161383,
            56.212263951161511
          ],
          [
            -2.7359107195805765,
            56.210881582672833
          ],
          [
            -2.7314014994905125,
            56.212068301708662
          ],
          [
            -2.731444390178742,
            56.212073224204914
          ],
          [
            -2.733801254184395,
            56.211427713290647
          ],
          [
            -2.7321887064021029,
            56.211763926453095
          ],
          [
            -2.7352745620526835,
            56.211168265714086
          ],
          [
            -2.7327773671087132,
            56.212375242098794
          ],
          [
            -2.7318269217791613,
            56.211992762998975
          ],
          [
            -2.7329568089949907,
            56.212308473678853
          ],
          [
            -2.7325178306710978,
            56.212426469879937
          ],
          [
            -2.7343381545141074,
            56.212831066557705
          ],
          [
            -2.7322651770372119,
            56.212246482389503
          ],
          [
            -2.7346321212609328,
            56.211407967631892
          ],
          [
            -2.7323736629289339,
            56.211849112943568
          ],
          [
            -2.7307389044879611,
            56.212068061836987
          ],
          [
            -2.7360083739015466,
            56.210865713618354
          ],
          [
            -2.7319300270824494,
            56.211980586127595
          ],
          [
            -2.7333379988789304,
            56.212439759617638
          ],
          [
            -2.7359827280469413,
            56.210920124599092
          ],
          [
            -2.7326482724394157,
            56.212356010961095
          ],
          [
            -2.7310335114688544,
            56.21220694819349
          ],
          [
            -2.7338536163897027,
            56.212019758665271
          ],
          [
            -2.7322030175471328,
            56.211863080549591
          ],
          [
            -2.7338801181967427,
            56.211582154503787
          ],
          [
            -2.7359750332187263,
            56.210959555405644
          ],
          [
            -2.7352761977942599,
            56.211811947156143
          ],
          [
            -2.7358377125083311,
            56.210918597644294
          ],
          [
            -2.7347425956820559,
            56.211595296500477
          ],
          [
            -2.7331738576944509,
            56.212230734352417
          ],
          [
            -2.7358752363440875,
            56.210929773484381
          ],
          [
            -2.7332953688922847,
            56.211975854950097
          ],
          [
            -2.7312962035727226,
            56.212283143023619
          ],
          [
            -2.7330631187054411,
            56.212167657439856
          ],
          [
            -2.7359549243163133,
            56.210883676113752
          ],
          [
            -2.7330971400235398,
            56.21275000470694
          ],
          [
            -2.7356895726168862,
            56.210871139873518
          ],
          [
            -2.734196384373321,
            56.212869083317685
          ],
          [
            -2.7330643044553016,
            56.211532014644263
          ],
          [
            -2.7360249386510129,
            56.210835707485579
          ],
          [
            -2.7341087960594708,
            56.21186616733565
          ],
          [
            -2.7356196712744039,
            56.211162342423862
          ],
          [
            -2.7333533629703779,
            56.21198609403924
          ],
          [
            -2.7311104360301255,
            56.212106937028324
          ],
          [
            -2.732743459501862,
            56.211999228310709
          ],
          [
            -2.7357431819417757,
            56.211260357780809
          ],
          [
            -2.7349661862035619,
            56.212543415021308
          ],
          [
            -2.7313935778135288,
            56.212261936478605
          ],
          [
            -2.7333195864494444,
            56.211661900874304
          ],
          [
            -2.7358520054591602,
            56.211047618216959
          ],
          [
            -2.7328841340147205,
            56.212004779047618
          ],
          [
            -2.7322369960562547,
            56.212079848348566
          ],
          [
            -2.7330540265407612,
            56.212062764720791
          ],
          [
            -2.7361878649795668,
            56.210984449625343
          ],
          [
            -2.7317955429421326,
            56.212645177049154
          ],
          [
            -2.7366975400554669,
            56.210825667140753
          ],
          [
            -2.7355610117191453,
            56.212395196842138
          ],
          [
            -2.7357641140701037,
            56.211072134418743
          ],
          [
            -2.7334758176724585,
            56.211982499430839
          ],
          [
            -2.7316489097542784,
            56.212133315448192
          ],
          [
            -2.7360613334061443,
            56.211543838241866
          ],
          [
            -2.7354924941010572,
            56.212446798152165
          ],
          [
            -2.738008615993647,
            56.210988769031644
          ],
          [
            -2.7398146083799046,
            56.210630446174598
          ],
          [
            -2.7418068906133497,
            56.210866089974409
          ],
          [
            -2.7439688973054057,
            56.210471609222864
          ],
          [
            -2.7455956064089762,
            56.210009500226597
          ],
          [
            -2.7455956064089762,
            56.210009500226597
          ],
          [
            -2.748345359315552,
            56.20890636319718
          ],
          [
            -2.7496437737640962,
            56.208153383612732
          ],
          [
            -2.7509101784227838,
            56.207554841381047
          ],
          [
            -2.7513646029901535,
            56.207469985061579
          ],
          [
            -2.7535448408987553,
            56.206726797209903
          ],
          [
            -2.7543920056216491,
            56.206474240548808
          ],
          [
            -2.7564313625956776,
            56.20610758120047
          ],
          [
            -2.7599277592234399,
            56.205698211612585
          ],
          [
            -2.7616579767655538,
            56.205583772593521
          ],
          [
            -2.7617485157300221,
            56.206298241519249
          ],
          [
            -2.7629873745153546,
            56.206149441507321
          ],
          [
            -2.7644060182553738,
            56.20658348811385
          ],
          [
            -2.7656674731598185,
            56.206012021422005
          ],
          [
            -2.7668760607140399,
            56.205411614741969
          ],
          [
            -2.7702246833713771,
            56.203551496668432
          ],
          [
            -2.764334912170169,
            56.20478157359085
          ],
          [
            -2.7606941024502074,
            56.205468076376576
          ],
          [
            -2.7548174873831108,
            56.206556897096526
          ],
          [
            -2.7484315164977295,
            56.208736549487007
          ],
          [
            -2.748350559630877,
            56.208818199173031
          ],
          [
            -2.748350559630877,
            56.208818199173031
          ],
          [
            -2.7455357086774193,
            56.20999285748502
          ],
          [
            -2.7427838047737816,
            56.210784226556662
          ],
          [
            -2.7360922157521999,
            56.21161258087642
          ],
          [
            -2.7362674742651976,
            56.211590077875748
          ],
          [
            -2.7362674742651976,
            56.211590077875748
          ],
          [
            -2.7362674742651976,
            56.211590077875748
          ],
          [
            -2.7360995999999997,
            56.211460333333328
          ],
          [
            -2.7320687058112036,
            56.21406159026462
          ],
          [
            -2.7304083627874611,
            56.214267801083949
          ],
          [
            -2.7287541872440193,
            56.214672483704632
          ],
          [
            -2.7272870499999997,
            56.215122700000002
          ],
          [
            -2.7255803666666663,
            56.215103849999998
          ],
          [
            -2.7240442666666667,
            56.215476833333327
          ],
          [
            -2.7222419000000002,
            56.215910233333332
          ],
          [
            -2.7203248666666666,
            56.216376083333337
          ],
          [
            -2.7182322333333331,
            56.216774950000001
          ],
          [
            -2.7158039166666672,
            56.217244466666671
          ],
          [
            -2.7136233948711066,
            56.217836864364386
          ],
          [
            -2.7119369784743728,
            56.218439536517259
          ],
          [
            -2.710568471614089,
            56.219069699310666
          ],
          [
            -2.7094004695242093,
            56.219822246231914
          ],
          [
            -2.7088009635867079,
            56.220236735773987
          ],
          [
            -2.7082675454442979,
            56.220575754245516
          ],
          [
            -2.7071308691614342,
            56.221266701125586
          ],
          [
            -2.7058775850704739,
            56.221933403078332
          ],
          [
            -2.7043327827278971,
            56.222339826228392
          ],
          [
            -2.7067863029249186,
            56.224658954440677
          ],
          [
            -2.7067219394968136,
            56.224641130208283
          ],
          [
            -2.7057707260229593,
            56.224301529072029
          ],
          [
            -2.7009269619626282,
            56.222863096535434
          ],
          [
            -2.7067551036314983,
            56.22438133567352
          ],
          [
            -2.7051970383293633,
            56.224103103371235
          ],
          [
            -2.7037767245004565,
            56.223648095533996
          ],
          [
            -2.7021274466539213,
            56.223713148603544
          ],
          [
            -2.7010909855225171,
            56.224423966862709
          ],
          [
            -2.6998371000000003,
            56.225002716666665
          ],
          [
            -2.698201643507999,
            56.22552355845977
          ],
          [
            -2.6966010774787152,
            56.225901651315588
          ],
          [
            -2.6950529666666667,
            56.226363800000001
          ],
          [
            -2.6936552000000002,
            56.227042516666671
          ],
          [
            -2.6923578666666668,
            56.227689383333335
          ],
          [
            -2.6913748833333333,
            56.228576350000004
          ],
          [
            -2.6905492666666664,
            56.229591716666668
          ],
          [
            -2.6851460983638389,
            56.225781924816125
          ],
          [
            -2.6855564343440284,
            56.226603313887743
          ],
          [
            -2.6863679332048491,
            56.227402025359638
          ],
          [
            -2.6870684402999885,
            56.228270917878987
          ],
          [
            -2.6859981166666667,
            56.232307533333334
          ],
          [
            -2.6854672666666666,
            56.231438333333337
          ],
          [
            -2.6846351999999998,
            56.230657500000007
          ],
          [
            -2.6813230134506454,
            56.229556264733837
          ]
        ]
      }
    }
  ],
  "type" : "FeatureCollection"
}