{
  "type" : "FeatureCollection",
  "features" : [
    {
      "type" : "Feature",
      "properties" : {
        "source" : "Geory 5.3.2",
        "address" : "Newton Stewart, DG8, Schottland",
        "weather" : "Klarer Himmel (8,5 °C)",
        "device" : "B9E47AEB-E54C-4563-96B6-06995DD4BC56 (iPhone 16 Pro)",
        "timestamp" : "2026-04-19T19:38:09Z",
        "duration" : 20678.748771190643,
        "rating" : 0,
        "type" : "visit",
        "departure" : "2026-04-20T01:22:48Z",
        "arrival" : "2026-04-19T19:38:09Z"
      },
      "geometry" : {
        "type" : "Point",
        "coordinates" : [
          -4.4343920944916304,
          54.862256527630862
        ]
      }
    },
    {
      "type" : "Feature",
      "geometry" : {
        "type" : "Point",
        "coordinates" : [
          -4.434399034542416,
          54.862275892549512
        ]
      },
      "properties" : {
        "source" : "Geory 5.3.2",
        "rating" : 0,
        "departure" : "2026-04-20T02:28:53Z",
        "address" : "Newton Stewart, DG8, Schottland",
        "timestamp" : "2026-04-20T01:39:17Z",
        "weather" : "Klarer Himmel (4,6 °C)",
        "type" : "visit",
        "device" : "B9E47AEB-E54C-4563-96B6-06995DD4BC56 (iPhone 16 Pro)",
        "arrival" : "2026-04-20T01:39:17Z",
        "duration" : 2976.8354530334473
      }
    },
    {
      "geometry" : {
        "coordinates" : [
          -4.4398490143102531,
          54.864924451795503
        ],
        "type" : "Point"
      },
      "properties" : {
        "weather" : "Klarer Himmel (4,0 °C)",
        "timestamp" : "2026-04-20T02:29:38Z",
        "source" : "Geory 5.3.2",
        "rating" : 0,
        "type" : "visit",
        "duration" : 2226.20680975914,
        "device" : "B9E47AEB-E54C-4563-96B6-06995DD4BC56 (iPhone 16 Pro)",
        "address" : "Shangri-La, Harbour Road, Wigtown, Newton Stewart, DG8 9EN, Schottland",
        "arrival" : "2026-04-20T02:29:38Z",
        "departure" : "2026-04-20T03:06:44Z"
      },
      "type" : "Feature"
    },
    {
      "type" : "Feature",
      "geometry" : {
        "type" : "Point",
        "coordinates" : [
          -4.4399010750651176,
          54.864924848995351
        ]
      },
      "properties" : {
        "device" : "B9E47AEB-E54C-4563-96B6-06995DD4BC56 (iPhone 16 Pro)",
        "timestamp" : "2026-04-20T03:30:10Z",
        "departure" : "2026-04-20T04:42:44Z",
        "arrival" : "2026-04-20T03:30:10Z",
        "type" : "visit",
        "duration" : 4354.3607084751129,
        "source" : "Geory 5.3.2",
        "weather" : "Klarer Himmel (3,8 °C)",
        "address" : "Shangri-La, Harbour Road, Wigtown, Newton Stewart, DG8 9EN, Schottland",
        "rating" : 0
      }
    },
    {
      "type" : "Feature",
      "properties" : {
        "timestamp" : "2026-04-20T04:46:50Z",
        "departure" : "2026-04-20T05:37:34Z",
        "duration" : 3043.1840040683746,
        "address" : "Newton Stewart, DG8, Schottland",
        "type" : "visit",
        "arrival" : "2026-04-20T04:46:50Z",
        "rating" : 0,
        "device" : "B9E47AEB-E54C-4563-96B6-06995DD4BC56 (iPhone 16 Pro)",
        "source" : "Geory 5.3.2",
        "weather" : "Klarer Himmel (3,9 °C)"
      },
      "geometry" : {
        "coordinates" : [
          -4.4344182537985875,
          54.862250172767617
        ],
        "type" : "Point"
      }
    },
    {
      "geometry" : {
        "type" : "Point",
        "coordinates" : [
          -4.4317423388875499,
          54.86405748717813
        ]
      },
      "properties" : {
        "arrival" : "2026-04-20T05:42:56Z",
        "source" : "Geory 5.3.2",
        "device" : "B9E47AEB-E54C-4563-96B6-06995DD4BC56 (iPhone 16 Pro)",
        "departure" : "2026-04-20T06:14:24Z",
        "address" : "Newton Stewart, DG8, Schottland",
        "rating" : 0,
        "duration" : 1887.3192772865295,
        "weather" : "Klarer Himmel (4,2 °C)",
        "timestamp" : "2026-04-20T05:42:56Z",
        "type" : "visit"
      },
      "type" : "Feature"
    },
    {
      "type" : "Feature",
      "geometry" : {
        "coordinates" : [
          -4.4343581270484504,
          54.862224748180395
        ],
        "type" : "Point"
      },
      "properties" : {
        "type" : "visit",
        "duration" : 11773.84557056427,
        "weather" : "Klarer Himmel (4,5 °C)",
        "rating" : 0,
        "source" : "Geory 5.3.2",
        "arrival" : "2026-04-20T06:28:29Z",
        "timestamp" : "2026-04-20T06:28:29Z",
        "address" : "Newton Stewart, DG8, Schottland",
        "device" : "B9E47AEB-E54C-4563-96B6-06995DD4BC56 (iPhone 16 Pro)",
        "departure" : "2026-04-20T09:44:42Z"
      }
    },
    {
      "properties" : {
        "address" : "9–21 South Main Street, Wigtown, Newton Stewart, DG8, Schottland",
        "departure" : "2026-04-20T12:59:42Z",
        "weather" : "Leicht bewölkt (10,8 °C)",
        "arrival" : "2026-04-20T10:00:59Z",
        "rating" : 0,
        "source" : "Geory 5.3.2",
        "device" : "B9E47AEB-E54C-4563-96B6-06995DD4BC56 (iPhone 16 Pro)",
        "timestamp" : "2026-04-20T10:00:59Z",
        "duration" : 10723.707914113998,
        "type" : "visit"
      },
      "type" : "Feature",
      "geometry" : {
        "coordinates" : [
          -4.4426328465312812,
          54.868051299053924
        ],
        "type" : "Point"
      }
    },
    {
      "geometry" : {
        "coordinates" : [
          -4.4356658433216518,
          54.821578274617913
        ],
        "type" : "Point"
      },
      "type" : "Feature",
      "properties" : {
        "address" : "B7004, North Balfern Kirkinner, Kirkinner, Newton Stewart, DG8, Schottland",
        "duration" : 2477.493134021759,
        "weather" : "Leicht bewölkt (11,8 °C)",
        "rating" : 0,
        "timestamp" : "2026-04-20T15:03:20Z",
        "source" : "Geory 5.3.2",
        "device" : "B9E47AEB-E54C-4563-96B6-06995DD4BC56 (iPhone 16 Pro)",
        "type" : "visit",
        "arrival" : "2026-04-20T15:03:20Z",
        "departure" : "2026-04-20T15:44:38Z"
      }
    },
    {
      "properties" : {
        "weather" : "Aufgelockert bewölkt (9,1 °C)",
        "departure" : "2026-04-20T18:50:35Z",
        "rating" : 0,
        "address" : "European Long Distance Path Two, Portpatrick, Stranraer, DG9, Schottland",
        "arrival" : "2026-04-20T16:49:09Z",
        "duration" : 7286.2307715415955,
        "timestamp" : "2026-04-20T16:49:09Z",
        "device" : "B9E47AEB-E54C-4563-96B6-06995DD4BC56 (iPhone 16 Pro)",
        "type" : "visit",
        "source" : "Geory 5.3.2"
      },
      "geometry" : {
        "type" : "Point",
        "coordinates" : [
          -5.1453767225310401,
          54.86457850787852
        ]
      },
      "type" : "Feature"
    },
    {
      "properties" : {
        "weather" : "Überwiegend bewölkt (9,4 °C)",
        "arrival" : "2026-04-20T19:00:37Z",
        "device" : "B9E47AEB-E54C-4563-96B6-06995DD4BC56 (iPhone 16 Pro)",
        "timestamp" : "2026-04-20T19:00:37Z",
        "rating" : 0,
        "source" : "Geory 5.3.2",
        "departure" : "2026-04-20T20:01:43Z",
        "type" : "visit",
        "address" : "Light Keepers House, Portpatrick, Stranraer, DG9 8TW, Schottland",
        "duration" : 3665.1973030567169
      },
      "type" : "Feature",
      "geometry" : {
        "type" : "Point",
        "coordinates" : [
          -5.1463864893161757,
          54.862461716134533
        ]
      }
    },
    {
      "type" : "Feature",
      "geometry" : {
        "coordinates" : [
          -5.1454735428747185,
          54.864575332437703
        ],
        "type" : "Point"
      },
      "properties" : {
        "arrival" : "2026-04-20T20:05:47Z",
        "type" : "visit",
        "rating" : 0,
        "device" : "B9E47AEB-E54C-4563-96B6-06995DD4BC56 (iPhone 16 Pro)",
        "address" : "European Long Distance Path Two, Portpatrick, Stranraer, DG9, Schottland",
        "departure" : "2026-04-21T08:12:29Z",
        "duration" : 43601.999859333038,
        "weather" : "Aufgelockert bewölkt (8,7 °C)",
        "source" : "Geory 5.3.2",
        "timestamp" : "2026-04-20T20:05:47Z"
      }
    },
    {
      "geometry" : {
        "coordinates" : [
          [
            -5.1454735428747185,
            54.864575332437703
          ],
          [
            -5.1463864893161757,
            54.862461716134533
          ],
          [
            -5.1458637362363406,
            54.862677459587964
          ],
          [
            -5.1453767225310401,
            54.86457850787852
          ],
          [
            -5.1428703218939535,
            54.865573385593841
          ],
          [
            -5.1412996797506842,
            54.865584409950166
          ],
          [
            -5.1397127166666676,
            54.865607900000001
          ],
          [
            -5.1380995666666669,
            54.865647216666666
          ],
          [
            -5.1364986333333329,
            54.865828016666669
          ],
          [
            -5.1350175666666669,
            54.86617471666667
          ],
          [
            -5.1335150865113706,
            54.866473206016011
          ],
          [
            -5.1320593406605264,
            54.866879817821577
          ],
          [
            -5.1303934672306157,
            54.867049105751626
          ],
          [
            -5.1287206833333334,
            54.867213683333325
          ],
          [
            -5.1282227614875771,
            54.868163070556612
          ],
          [
            -5.1272399005447609,
            54.868954602454224
          ],
          [
            -5.1259008530967529,
            54.869705823901931
          ],
          [
            -5.1244625000000008,
            54.87012639999999
          ],
          [
            -5.1229102815304133,
            54.87054771373554
          ],
          [
            -5.1212025689892764,
            54.871029469365773
          ],
          [
            -5.1197257485216028,
            54.871452174188562
          ],
          [
            -5.1182086333333325,
            54.871705949999992
          ],
          [
            -5.116207516666667,
            54.870906499999997
          ],
          [
            -5.1142866333333332,
            54.869997966666674
          ],
          [
            -5.1121987500000001,
            54.8692432
          ],
          [
            -5.1108425333333329,
            54.868141399999999
          ],
          [
            -5.110455616666667,
            54.8668926
          ],
          [
            -5.1098017666666662,
            54.865590616666665
          ],
          [
            -5.1090319333333332,
            54.864417299999992
          ],
          [
            -5.1077220000000008,
            54.863294266666657
          ],
          [
            -5.1062098835895124,
            54.862181903211123
          ],
          [
            -5.1053848766155276,
            54.861087473554662
          ],
          [
            -5.1053451932513996,
            54.859731439852517
          ],
          [
            -5.1056216831310905,
            54.858441567739717
          ],
          [
            -5.1062488873576592,
            54.857128618570016
          ],
          [
            -5.1062422338727149,
            54.855843712825887
          ],
          [
            -5.1055163159331061,
            54.854917516666667
          ],
          [
            -5.1059990116076941,
            54.853858003959353
          ],
          [
            -5.1067969665229205,
            54.852985056373747
          ],
          [
            -5.1073471739805765,
            54.85196778840465
          ],
          [
            -5.1066766034175117,
            54.850910709636167
          ],
          [
            -5.1062729666666664,
            54.849945966666667
          ],
          [
            -5.1058020166666669,
            54.84906161666666
          ],
          [
            -5.1032571833333327,
            54.849121399999994
          ],
          [
            -5.1005901333333341,
            54.849519550000004
          ],
          [
            -5.0969309666666662,
            54.849547466666678
          ],
          [
            -5.093521383333333,
            54.84935158333333
          ],
          [
            -5.0902332833333332,
            54.848537233333339
          ],
          [
            -5.086653516666666,
            54.848169433333339
          ],
          [
            -5.0835738333333333,
            54.848579366666669
          ],
          [
            -5.0803095333333337,
            54.848109916666658
          ],
          [
            -5.0777317166666673,
            54.847037416666666
          ],
          [
            -5.0746089666666672,
            54.846525249999999
          ],
          [
            -5.0716329499999997,
            54.846332550000007
          ],
          [
            -5.0691365999999993,
            54.846481099999998
          ],
          [
            -5.0668238333333333,
            54.847603433333347
          ],
          [
            -5.0653911833333334,
            54.848608266666666
          ],
          [
            -5.062608,
            54.84932285
          ],
          [
            -5.0602886395208309,
            54.849878257693113
          ],
          [
            -5.0578984500000006,
            54.850938066666671
          ],
          [
            -5.0558330500000004,
            54.852371966666674
          ],
          [
            -5.0530608999999993,
            54.853635716666666
          ],
          [
            -5.0500292999999994,
            54.854327599999998
          ],
          [
            -5.0464655,
            54.85463433333333
          ],
          [
            -5.0434616166666659,
            54.855174833333329
          ],
          [
            -5.040675349999999,
            54.856352050000005
          ],
          [
            -5.0386908833333335,
            54.857625166666672
          ],
          [
            -5.0365947666666671,
            54.85879791666666
          ],
          [
            -5.0339165999999995,
            54.859692366666664
          ],
          [
            -5.0311109166666661,
            54.859857233333329
          ],
          [
            -5.0284919666666674,
            54.86002083333333
          ],
          [
            -5.0261347333333326,
            54.859766633333322
          ],
          [
            -5.0244686333333339,
            54.860643766666662
          ],
          [
            -5.0234584666666668,
            54.862177433333336
          ],
          [
            -5.0220400500000002,
            54.862937549999998
          ],
          [
            -5.0215380833333336,
            54.863302999999995
          ],
          [
            -5.0194695166666659,
            54.864270933333337
          ],
          [
            -5.0171400500000001,
            54.86496511666666
          ],
          [
            -5.0149622833333334,
            54.865563833333333
          ],
          [
            -5.0132560333333336,
            54.866142233333328
          ],
          [
            -5.0128339333333338,
            54.867363883333333
          ],
          [
            -5.0129328833333338,
            54.868518300000005
          ],
          [
            -5.0130716333333334,
            54.869725683333343
          ],
          [
            -5.0128613666666668,
            54.871160283333332
          ],
          [
            -5.0117846833333335,
            54.872454349999998
          ],
          [
            -5.0106724333333332,
            54.87356736666667
          ],
          [
            -5.0119681333333341,
            54.87508716666666
          ],
          [
            -5.0132857499999997,
            54.87679563333333
          ],
          [
            -5.0147222999999999,
            54.87851023333333
          ],
          [
            -5.0163538333333326,
            54.880280899999995
          ],
          [
            -5.0175114333333335,
            54.88230218333333
          ],
          [
            -5.0192557500000001,
            54.884331616666671
          ],
          [
            -5.0212323666666663,
            54.886321716666664
          ],
          [
            -5.0223674333333337,
            54.888198700000004
          ],
          [
            -5.0226550333333337,
            54.889838766666664
          ],
          [
            -5.0227157500000006,
            54.891259233333329
          ],
          [
            -5.0227480333333343,
            54.892266833333338
          ],
          [
            -5.0227856166666669,
            54.893251166666666
          ],
          [
            -5.0228508500000002,
            54.894422199999994
          ],
          [
            -5.0217109166666667,
            54.895520566666669
          ],
          [
            -5.0192506333333329,
            54.895570866666667
          ],
          [
            -5.0164980499988516,
            54.895647408818469
          ],
          [
            -5.0138606275515034,
            54.895972080586539
          ],
          [
            -5.0109549084039289,
            54.896898657872946
          ],
          [
            -5.0078414335109294,
            54.897989084077373
          ],
          [
            -5.0049566999999993,
            54.899062749999999
          ],
          [
            -5.0021956333333328,
            54.900191616666675
          ],
          [
            -4.9997740000000004,
            54.901403633333331
          ],
          [
            -4.998117016666666,
            54.902850549999997
          ],
          [
            -4.9973516666666669,
            54.904137516666673
          ],
          [
            -4.9951959666666657,
            54.905053216666666
          ],
          [
            -4.9921446999999999,
            54.905516683333325
          ],
          [
            -4.9885387000000003,
            54.906066233333334
          ],
          [
            -4.9850472333333329,
            54.906468933333322
          ],
          [
            -4.9817571166666665,
            54.906091449999998
          ],
          [
            -4.9783916333333336,
            54.905254083333332
          ],
          [
            -4.9751816999999994,
            54.904426566666679
          ],
          [
            -4.9713240000000001,
            54.903489850000007
          ],
          [
            -4.9673822833333334,
            54.902520433333329
          ],
          [
            -4.9639341333333329,
            54.901648866666662
          ],
          [
            -4.9606292833333336,
            54.900536766666661
          ],
          [
            -4.9576550666666659,
            54.899385349999996
          ],
          [
            -4.9548841833333332,
            54.89819210000001
          ],
          [
            -4.9523283202070099,
            54.89735618843104
          ],
          [
            -4.9504332451273072,
            54.89663955326801
          ],
          [
            -4.9469663227420035,
            54.89532878543659
          ],
          [
            -4.9430802523497093,
            54.893861699049168
          ],
          [
            -4.9396166540017292,
            54.892554762513058
          ],
          [
            -4.9365105660347552,
            54.891416188337068
          ],
          [
            -4.9353361610287978,
            54.890913570969495
          ],
          [
            -4.9340137066963017,
            54.890086441514846
          ],
          [
            -4.9315518540944874,
            54.888496246547042
          ],
          [
            -4.928926684146691,
            54.886960367975099
          ],
          [
            -4.9256089263025435,
            54.885725335064542
          ],
          [
            -4.9218572668566694,
            54.884554571817674
          ],
          [
            -4.9178107966581868,
            54.883806637621497
          ],
          [
            -4.9138182420941963,
            54.882942020037042
          ],
          [
            -4.9098965668275545,
            54.88209775868458
          ],
          [
            -4.906261272151621,
            54.881271734755373
          ],
          [
            -4.9025964666666662,
            54.880256133333333
          ],
          [
            -4.8982454166666667,
            54.879798733333331
          ],
          [
            -4.8943538833333333,
            54.878786400000003
          ],
          [
            -4.8910537500000002,
            54.876913699999989
          ],
          [
            -4.8878069333333336,
            54.87506071666666
          ],
          [
            -4.883654160716751,
            54.874089712384659
          ],
          [
            -4.8790977666666659,
            54.873975050000006
          ],
          [
            -4.8744307000000004,
            54.874074100000009
          ],
          [
            -4.8701883333333331,
            54.874114300000002
          ],
          [
            -4.8656083333333342,
            54.874044233333343
          ],
          [
            -4.8610172500000006,
            54.87386493333333
          ],
          [
            -4.8568288666666666,
            54.873641166666665
          ],
          [
            -4.8522524000000002,
            54.873383666666662
          ],
          [
            -4.847668399999999,
            54.873137433333341
          ],
          [
            -4.8435012999999998,
            54.872913416666677
          ],
          [
            -4.8389194666666668,
            54.872662266666673
          ],
          [
            -4.8347385666666671,
            54.872439016666675
          ],
          [
            -4.8306151999999996,
            54.872122383333334
          ],
          [
            -4.8263881,
            54.872343766666674
          ],
          [
            -4.8251938499999998,
            54.872522366666665
          ],
          [
            -4.82197985,
            54.873044166666659
          ],
          [
            -4.8180487999999997,
            54.873860699999994
          ],
          [
            -4.8137558,
            54.874765966666672
          ],
          [
            -4.8090841999999991,
            54.875742033333339
          ],
          [
            -4.804879866666667,
            54.876617183333337
          ],
          [
            -4.8008581166666673,
            54.877462000000001
          ],
          [
            -4.7969158499999995,
            54.878351533333337
          ],
          [
            -4.7927638333333338,
            54.879290833333336
          ],
          [
            -4.7885749333333338,
            54.88023905
          ],
          [
            -4.7847577166666664,
            54.881135933333347
          ],
          [
            -4.7810238333333333,
            54.88256195000001
          ],
          [
            -4.7776784499999998,
            54.884030133333333
          ],
          [
            -4.7740103666666673,
            54.885641066666658
          ],
          [
            -4.770772916666667,
            54.887056866666676
          ],
          [
            -4.7677913666666658,
            54.888364066666661
          ],
          [
            -4.764732033333333,
            54.889705633333335
          ],
          [
            -4.7614686333333331,
            54.890962183333336
          ],
          [
            -4.7581244999999992,
            54.891690599999997
          ],
          [
            -4.7548132166666672,
            54.892030083333346
          ],
          [
            -4.7509785666666673,
            54.892003733333333
          ],
          [
            -4.7474592333333332,
            54.892883366666673
          ],
          [
            -4.7437109333333343,
            54.893621766666669
          ],
          [
            -4.7399544999999996,
            54.894482183333338
          ],
          [
            -4.7371947166666661,
            54.895694966666667
          ],
          [
            -4.7338047166666666,
            54.896577666666659
          ],
          [
            -4.7299093499999998,
            54.896851783333339
          ],
          [
            -4.7258498500000004,
            54.897406716666666
          ],
          [
            -4.7220376166666664,
            54.898622216666674
          ],
          [
            -4.7200042174640942,
            54.899314986195733
          ],
          [
            -4.7182947028469773,
            54.899837476961004
          ],
          [
            -4.7149296369833822,
            54.90085964951497
          ],
          [
            -4.7112570355994077,
            54.901821835511306
          ],
          [
            -4.7075937801394394,
            54.90283862471059
          ],
          [
            -4.7037259852597808,
            54.903605522504932
          ],
          [
            -4.6997824478200441,
            54.904387331427046
          ],
          [
            -4.6963431003576686,
            54.905290212264688
          ],
          [
            -4.692969866666667,
            54.9064677
          ],
          [
            -4.6901396166666665,
            54.907666733333322
          ],
          [
            -4.6872265999999998,
            54.908453883333344
          ],
          [
            -4.683967,
            54.909118800000002
          ],
          [
            -4.6803630666666667,
            54.909115949999993
          ],
          [
            -4.6768134333333338,
            54.910131866666674
          ],
          [
            -4.6733859333333339,
            54.911561250000005
          ],
          [
            -4.6701004666666668,
            54.912743133333336
          ],
          [
            -4.667531433333334,
            54.914233433333322
          ],
          [
            -4.6648410333333334,
            54.915494000000002
          ],
          [
            -4.6616515999999999,
            54.9160635
          ],
          [
            -4.6588814999999997,
            54.91717928333334
          ],
          [
            -4.6560671000000005,
            54.918057399999995
          ],
          [
            -4.652951766666666,
            54.918037283333327
          ],
          [
            -4.6505276010483536,
            54.918370375250774
          ],
          [
            -4.6489069499999998,
            54.919662883333338
          ],
          [
            -4.6466378500000003,
            54.920165233333336
          ],
          [
            -4.6448619525548791,
            54.920169986423524
          ],
          [
            -4.6428964035234861,
            54.919424198512473
          ],
          [
            -4.6406846517185576,
            54.918713718231956
          ],
          [
            -4.6386469666666672,
            54.918059433333333
          ],
          [
            -4.6363282000000003,
            54.917575233333338
          ],
          [
            -4.6340624999999998,
            54.917044733333327
          ],
          [
            -4.6323727999999997,
            54.916008783333332
          ],
          [
            -4.6300597333333329,
            54.915250950000008
          ],
          [
            -4.6273934333333333,
            54.915072800000004
          ],
          [
            -4.6248418999999998,
            54.915152400000004
          ],
          [
            -4.6221788999999998,
            54.915305916666661
          ],
          [
            -4.6193244333333334,
            54.915527433333338
          ],
          [
            -4.6167458833333335,
            54.915288666666662
          ],
          [
            -4.6142309666666659,
            54.915238066666674
          ],
          [
            -4.6122873499999999,
            54.915405716666662
          ],
          [
            -4.6106534000000003,
            54.91543003333333
          ],
          [
            -4.60979925,
            54.914664549999998
          ],
          [
            -4.6089435394278286,
            54.913845742601879
          ],
          [
            -4.6080327833333339,
            54.913025416666677
          ],
          [
            -4.6071237833333338,
            54.912282833333336
          ],
          [
            -4.6058152666666663,
            54.911579949999997
          ],
          [
            -4.603864016666666,
            54.911216716666658
          ],
          [
            -4.6017841166666669,
            54.911005933333335
          ],
          [
            -4.5994439666666667,
            54.910849066666664
          ],
          [
            -4.5973412666666666,
            54.910690033333339
          ],
          [
            -4.5956452499999996,
            54.910574733333334
          ],
          [
            -4.5943320166666659,
            54.909854216666659
          ],
          [
            -4.591869,
            54.909749666666663
          ],
          [
            -4.5894875500000003,
            54.909611116666667
          ],
          [
            -4.587088333333333,
            54.909814866666665
          ],
          [
            -4.5847612666666668,
            54.909358699999999
          ],
          [
            -4.5830311333333338,
            54.908788433333328
          ],
          [
            -4.5816947499999996,
            54.907680700000007
          ],
          [
            -4.5803285166666665,
            54.906442083333332
          ],
          [
            -4.5789349922824938,
            54.905206969217517
          ],
          [
            -4.5773705378686955,
            54.903924281451729
          ],
          [
            -4.5756655166666667,
            54.902865516666665
          ],
          [
            -4.5742800999999993,
            54.901743116666658
          ],
          [
            -4.5729747833333336,
            54.900477683333335
          ],
          [
            -4.5718654500000007,
            54.899323000000003
          ],
          [
            -4.5708985000000002,
            54.898098566666675
          ],
          [
            -4.5698257666666668,
            54.896810066666667
          ],
          [
            -4.5686297833333338,
            54.895530400000005
          ],
          [
            -4.5675567166666671,
            54.89428483333333
          ],
          [
            -4.566816666666667,
            54.893191416666667
          ],
          [
            -4.56613735,
            54.891947466666672
          ],
          [
            -4.5652365000000001,
            54.890906516666668
          ],
          [
            -4.5639918333333336,
            54.890105433333339
          ],
          [
            -4.5630139000000005,
            54.889297933333332
          ],
          [
            -4.5610737500000003,
            54.889104233333327
          ],
          [
            -4.5594169500000001,
            54.888959516666674
          ],
          [
            -4.5578007036765573,
            54.888810963949538
          ],
          [
            -4.5563537324946628,
            54.888139445516863
          ],
          [
            -4.5555586346718711,
            54.886912142725883
          ],
          [
            -4.553891666666666,
            54.88629508333333
          ],
          [
            -4.5518295833333333,
            54.885783549999992
          ],
          [
            -4.5497535000000005,
            54.885161249999996
          ],
          [
            -4.5473495500000007,
            54.884220266666674
          ],
          [
            -4.5459945500000005,
            54.883499033333329
          ],
          [
            -4.5441763976260674,
            54.88261435160063
          ],
          [
            -4.5425243833333342,
            54.882166949999998
          ],
          [
            -4.5403619333333332,
            54.882479133333327
          ],
          [
            -4.5382658000000005,
            54.882114016666677
          ],
          [
            -4.53624955,
            54.881568966666656
          ],
          [
            -4.5342221833333332,
            54.881105350000006
          ],
          [
            -4.5324529166666663,
            54.880407666666656
          ],
          [
            -4.5305587833333334,
            54.879646950000009
          ],
          [
            -4.528603733333334,
            54.878847966666669
          ],
          [
            -4.5267719,
            54.878064733333339
          ],
          [
            -4.524766333333333,
            54.877423100000001
          ],
          [
            -4.5230134666666668,
            54.877261866666665
          ],
          [
            -4.5208732166666667,
            54.876883666666664
          ],
          [
            -4.5185300000000002,
            54.876226549999998
          ],
          [
            -4.516398783333333,
            54.875527933333331
          ],
          [
            -4.5143228666666673,
            54.874687683333327
          ],
          [
            -4.5119021000000004,
            54.873810199999994
          ],
          [
            -4.5095718500000004,
            54.87295906666666
          ],
          [
            -4.5074447666666666,
            54.872212016666666
          ],
          [
            -4.5054531666666664,
            54.87165718333334
          ],
          [
            -4.5031303999999999,
            54.871042716666672
          ],
          [
            -4.5007060666666669,
            54.870387716666663
          ],
          [
            -4.4985117666666667,
            54.86988285000001
          ],
          [
            -4.4960776999999998,
            54.869453466666663
          ],
          [
            -4.4937126166666665,
            54.869080900000007
          ],
          [
            -4.491157583333333,
            54.86880978333334
          ],
          [
            -4.4888981000000001,
            54.868625900000012
          ],
          [
            -4.4875385666666672,
            54.868499116666669
          ],
          [
            -4.4864905666666672,
            54.868278050000001
          ],
          [
            -4.4842710666666665,
            54.867527699999997
          ],
          [
            -4.4819779333333329,
            54.867011766666671
          ],
          [
            -4.4797581666666657,
            54.866671133333327
          ],
          [
            -4.4776252166666666,
            54.866027766666669
          ],
          [
            -4.4755281666666678,
            54.865616416666668
          ],
          [
            -4.472931233333334,
            54.865615116666667
          ],
          [
            -4.4704702499999991,
            54.865733933333331
          ],
          [
            -4.4680933674185397,
            54.865930638427407
          ],
          [
            -4.4658391616331174,
            54.866114597747455
          ],
          [
            -4.4636114542729919,
            54.866246748702778
          ],
          [
            -4.4616642833333335,
            54.866813866666675
          ],
          [
            -4.4596709333333333,
            54.867061799999995
          ],
          [
            -4.4577427666666667,
            54.866595466666659
          ],
          [
            -4.4554893,
            54.866163900000004
          ],
          [
            -4.4553587833333337,
            54.8645274
          ],
          [
            -4.455472672545481,
            54.863159840611161
          ],
          [
            -4.4569862000000002,
            54.861859883333331
          ],
          [
            -4.4587475000000003,
            54.860619116666669
          ],
          [
            -4.4601993420783828,
            54.859364146092929
          ],
          [
            -4.4613782774049033,
            54.858362251196901
          ],
          [
            -4.4618554166666664,
            54.857474683333344
          ],
          [
            -4.4632737246812448,
            54.856510960966745
          ],
          [
            -4.465869949226871,
            54.855661649542725
          ],
          [
            -4.46759635,
            54.854304866666673
          ],
          [
            -4.4665519999999992,
            54.852713516666668
          ],
          [
            -4.4653680333333332,
            54.851253833333338
          ],
          [
            -4.4649347333333331,
            54.849712299999993
          ],
          [
            -4.4649347333333331,
            54.849712299999993
          ],
          [
            -4.4644302499999995,
            54.848230233333332
          ],
          [
            -4.4643054760054044,
            54.846634771153312
          ],
          [
            -4.4656188333333331,
            54.845411366666667
          ],
          [
            -4.4652523999999998,
            54.843806616666676
          ],
          [
            -4.4634643833333332,
            54.842393166666668
          ],
          [
            -4.4619806999999998,
            54.841189433333334
          ],
          [
            -4.4610789666666664,
            54.840209450000003
          ],
          [
            -4.4606602500000001,
            54.839018533333331
          ],
          [
            -4.4604497333333333,
            54.837808366666664
          ],
          [
            -4.4601896333333331,
            54.836406683333344
          ],
          [
            -4.4600293666666664,
            54.835266633333333
          ],
          [
            -4.4592476399452181,
            54.834113467533122
          ],
          [
            -4.4583230869209958,
            54.833248272372913
          ],
          [
            -4.4571791078590808,
            54.832521461304204
          ],
          [
            -4.4564723833333337,
            54.831658833333329
          ],
          [
            -4.4554084726682257,
            54.830751592229603
          ],
          [
            -4.454611287729092,
            54.829541628445924
          ],
          [
            -4.4538512895307365,
            54.828397344373741
          ],
          [
            -4.4524148766097085,
            54.827438791136515
          ],
          [
            -4.4504360388669575,
            54.826819984785438
          ],
          [
            -4.4484690173168211,
            54.826150058008686
          ],
          [
            -4.4471640609520096,
            54.825496901198065
          ],
          [
            -4.4454530500000002,
            54.825444383333327
          ],
          [
            -4.4469862227849006,
            54.825000740358355
          ],
          [
            -4.4452911332020273,
            54.825196649874023
          ],
          [
            -4.4432000738800674,
            54.824525379451195
          ],
          [
            -4.4356658433216518,
            54.821578274617913
          ],
          [
            -4.4320619910889185,
            54.816613216118022
          ],
          [
            -4.4293575352692081,
            54.814300822894488
          ],
          [
            -4.4263313287130126,
            54.812248389238007
          ],
          [
            -4.4257058471706223,
            54.81132541357745
          ],
          [
            -4.4229525210716893,
            54.809054742357027
          ],
          [
            -4.4222037129025757,
            54.80846235047477
          ],
          [
            -4.4210095961711433,
            54.807186492148695
          ],
          [
            -4.4221225922930651,
            54.806530954432915
          ],
          [
            -4.4236236282579933,
            54.806219775904864
          ],
          [
            -4.4251721368639716,
            54.80601070089542
          ],
          [
            -4.4265636912857058,
            54.806792101136296
          ],
          [
            -4.4251936501054709,
            54.809761907194876
          ],
          [
            -4.4250318562532964,
            54.809949007330694
          ],
          [
            -4.4253901104427547,
            54.810430672297628
          ],
          [
            -4.426873384048216,
            54.81205428969087
          ],
          [
            -4.4278726285906114,
            54.812822471122438
          ],
          [
            -4.4286271270413931,
            54.813599465880515
          ],
          [
            -4.4280243517830113,
            54.81577997914453
          ],
          [
            -4.4281950875137497,
            54.816113974107814
          ],
          [
            -4.4327725444941395,
            54.817473397671456
          ],
          [
            -4.4323593722309562,
            54.818374048176864
          ],
          [
            -4.4335430855464377,
            54.818663970304407
          ],
          [
            -4.4336941523166287,
            54.81876787896536
          ],
          [
            -4.4368628662994123,
            54.820047684122564
          ],
          [
            -4.4355297499999997,
            54.821589833333341
          ],
          [
            -4.4347781861994564,
            54.821863261864515
          ],
          [
            -4.4368215708606957,
            54.822515328557387
          ],
          [
            -4.4382123856461506,
            54.822953841260777
          ],
          [
            -4.4396455000000001,
            54.823402299999998
          ],
          [
            -4.4415331166666663,
            54.82404901666667
          ],
          [
            -4.4430231999999998,
            54.824566949999991
          ],
          [
            -4.4444731729037859,
            54.825013043215527
          ],
          [
            -4.4459846971681261,
            54.825424626883645
          ],
          [
            -4.4473953466118576,
            54.825892544559693
          ],
          [
            -4.4487474000000002,
            54.826339499999996
          ],
          [
            -4.4503177166666665,
            54.826816616666669
          ],
          [
            -4.4519992166666666,
            54.827340533333334
          ],
          [
            -4.453501355662536,
            54.827949397736255
          ],
          [
            -4.4543204691428899,
            54.829180573257496
          ],
          [
            -4.4550425376718925,
            54.83028864823013
          ],
          [
            -4.4557863662257766,
            54.831408480501175
          ],
          [
            -4.4566041830853305,
            54.832316878993829
          ],
          [
            -4.4578311389180074,
            54.832988436205923
          ],
          [
            -4.4588048978117314,
            54.833851944190748
          ],
          [
            -4.4597182278783603,
            54.834802162880671
          ],
          [
            -4.4599588667173427,
            54.836075985788241
          ],
          [
            -4.4578005999999997,
            54.834516833333325
          ],
          [
            -4.4583440166666657,
            54.835797450000001
          ],
          [
            -4.4591307999999996,
            54.838582933333328
          ],
          [
            -4.4606323610892744,
            54.839439248532756
          ],
          [
            -4.4611578229260083,
            54.840513826729989
          ],
          [
            -4.4625842928445953,
            54.841830002809303
          ],
          [
            -4.4637211720701142,
            54.842729399740442
          ],
          [
            -4.4653926999999998,
            54.844075366666658
          ],
          [
            -4.4657314166666673,
            54.845287966666675
          ],
          [
            -4.4643489000000001,
            54.846428083333329
          ],
          [
            -4.4643008000000002,
            54.84791868333334
          ],
          [
            -4.4647410976594388,
            54.849397850971634
          ],
          [
            -4.4651480529114798,
            54.850764853015825
          ],
          [
            -4.4658016355728067,
            54.852028289343799
          ],
          [
            -4.4669429046214493,
            54.853259832600315
          ],
          [
            -4.4673604667796116,
            54.854659053939265
          ],
          [
            -4.4658868999142873,
            54.855622215581185
          ],
          [
            -4.4639623978374523,
            54.856105471170686
          ],
          [
            -4.4623622246050658,
            54.856843355130707
          ],
          [
            -4.4616976114565974,
            54.857734075454538
          ],
          [
            -4.4607941703563831,
            54.858811631116311
          ],
          [
            -4.4595246058592144,
            54.859872642589728
          ],
          [
            -4.4581016594205582,
            54.861058023265485
          ],
          [
            -4.4563310641871112,
            54.862213476065527
          ],
          [
            -4.4553229485250201,
            54.863380655028841
          ],
          [
            -4.4552244187608085,
            54.864678492635093
          ],
          [
            -4.4552125750967999,
            54.865703898705227
          ],
          [
            -4.4556450011377802,
            54.866660079969776
          ],
          [
            -4.4540100076077129,
            54.866686380662813
          ],
          [
            -4.4521823346819458,
            54.866597736191572
          ],
          [
            -4.4505282643402495,
            54.86656533873829
          ],
          [
            -4.4488007317674674,
            54.866538819672272
          ],
          [
            -4.4470704875558695,
            54.866648213331267
          ],
          [
            -4.4456782784072422,
            54.866915873394511
          ],
          [
            -4.4426328465312812,
            54.868051299053924
          ],
          [
            -4.4399436305027349,
            54.867608019610493
          ],
          [
            -4.4399153473147344,
            54.86670094990334
          ],
          [
            -4.4399300402836088,
            54.865794715175007
          ],
          [
            -4.4366181815805339,
            54.863454958249015
          ],
          [
            -4.4343581270484504,
            54.862224748180395
          ],
          [
            -4.4343233806077045,
            54.862262273336334
          ],
          [
            -4.4317423388875499,
            54.86405748717813
          ],
          [
            -4.4317703014198964,
            54.863975277205562
          ],
          [
            -4.4344182537985875,
            54.862250172767617
          ],
          [
            -4.4399010750651176,
            54.864924848995351
          ],
          [
            -4.4344455193038259,
            54.862276361461866
          ],
          [
            -4.4398595254896565,
            54.864930858348195
          ],
          [
            -4.4343390103969256,
            54.862276096838023
          ],
          [
            -4.4398583603093726,
            54.864933244967894
          ],
          [
            -4.4344751450704365,
            54.862271178925639
          ],
          [
            -4.4398590630326646,
            54.864931805591283
          ],
          [
            -4.4344484983865398,
            54.862236481715712
          ],
          [
            -4.439860340000001,
            54.864929190000019
          ],
          [
            -4.4345408190142876,
            54.862165117191459
          ],
          [
            -4.4398490143102531,
            54.864924451795503
          ],
          [
            -4.434399034542416,
            54.862275892549512
          ],
          [
            -4.4344425464737851,
            54.862289954994161
          ],
          [
            -4.4398611563179617,
            54.864929172043254
          ],
          [
            -4.4343674907333988,
            54.862296283535599
          ],
          [
            -4.4398609391067145,
            54.864929176821263
          ],
          [
            -4.4346393371173072,
            54.862416962270139
          ],
          [
            -4.4344266590778769,
            54.862321794858858
          ],
          [
            -4.4398603400000001,
            54.864929189999998
          ],
          [
            -4.4343920944916304,
            54.862256527630862
          ]
        ],
        "type" : "LineString"
      },
      "properties" : {
        "source" : "Geory 5.3.2",
        "start" : "2026-04-19T22:00:00Z",
        "device" : "B9E47AEB-E54C-4563-96B6-06995DD4BC56 (iPhone 16 Pro)",
        "end" : "2026-04-20T21:59:59Z",
        "type" : "route"
      },
      "type" : "Feature"
    }
  ]
}