{
  "features" : [
    {
      "geometry" : {
        "type" : "Point",
        "coordinates" : [
          -3.3854763196766013,
          58.873314542205861
        ]
      },
      "type" : "Feature",
      "properties" : {
        "device" : "B9E47AEB-E54C-4563-96B6-06995DD4BC56 (iPhone 16 Pro)",
        "type" : "visit",
        "duration" : 67912.004314661026,
        "rating" : 0,
        "timestamp" : "2026-09-24T16:11:13Z",
        "departure" : "2026-09-25T11:03:05Z",
        "source" : "Geory 5.3.2",
        "arrival" : "2026-09-24T16:11:13Z",
        "weather" : "Bedeckter Himmel (12,6 °C)",
        "address" : "Hoy, Orkney Islands, Schottland"
      }
    },
    {
      "type" : "Feature",
      "geometry" : {
        "coordinates" : [
          -3.4122865488348753,
          58.871331733624771
        ],
        "type" : "Point"
      },
      "properties" : {
        "type" : "visit",
        "duration" : 978.99946784973145,
        "source" : "Geory 5.3.2",
        "arrival" : "2026-09-25T11:48:31Z",
        "device" : "B9E47AEB-E54C-4563-96B6-06995DD4BC56 (iPhone 16 Pro)",
        "address" : "Hoy, Orkney Islands, Schottland",
        "rating" : 0,
        "departure" : "2026-09-25T12:04:49Z",
        "timestamp" : "2026-09-25T11:48:31Z"
      }
    },
    {
      "properties" : {
        "address" : "Hoy, Orkney Islands, Schottland",
        "type" : "visit",
        "departure" : "2026-09-25T13:15:13Z",
        "weather" : "Klarer Himmel (13,9 °C)",
        "arrival" : "2026-09-25T12:36:07Z",
        "device" : "B9E47AEB-E54C-4563-96B6-06995DD4BC56 (iPhone 16 Pro)",
        "rating" : 0,
        "timestamp" : "2026-09-25T12:36:07Z",
        "source" : "Geory 5.3.2",
        "duration" : 2345.0000748634338
      },
      "type" : "Feature",
      "geometry" : {
        "type" : "Point",
        "coordinates" : [
          -3.4275382530000256,
          58.885667969567713
        ]
      }
    },
    {
      "properties" : {
        "arrival" : "2026-09-25T13:15:14Z",
        "device" : "B9E47AEB-E54C-4563-96B6-06995DD4BC56 (iPhone 16 Pro)",
        "duration" : 2804.9990248680115,
        "timestamp" : "2026-09-25T13:15:14Z",
        "type" : "visit",
        "source" : "Geory 5.3.2",
        "rating" : 0,
        "address" : "Hoy, Orkney Islands, Schottland",
        "weather" : "Leicht bewölkt (13,4 °C)",
        "departure" : "2026-09-25T14:01:58Z"
      },
      "type" : "Feature",
      "geometry" : {
        "coordinates" : [
          -3.4242000706272102,
          58.884265882472363
        ],
        "type" : "Point"
      }
    },
    {
      "properties" : {
        "duration" : 2055.9997262954712,
        "source" : "Geory 5.3.2",
        "weather" : "Leicht bewölkt (13,9 °C)",
        "address" : "Hoy, Orkney Islands, Schottland",
        "arrival" : "2026-09-25T14:27:49Z",
        "rating" : 0,
        "device" : "B9E47AEB-E54C-4563-96B6-06995DD4BC56 (iPhone 16 Pro)",
        "type" : "visit",
        "departure" : "2026-09-25T15:02:04Z",
        "timestamp" : "2026-09-25T14:27:49Z"
      },
      "type" : "Feature",
      "geometry" : {
        "coordinates" : [
          -3.4047744437814003,
          58.87035922260187
        ],
        "type" : "Point"
      }
    },
    {
      "properties" : {
        "arrival" : "2026-09-25T15:31:08Z",
        "type" : "visit",
        "source" : "Geory 5.3.2",
        "address" : "Hoy, Orkney Islands, Schottland",
        "device" : "B9E47AEB-E54C-4563-96B6-06995DD4BC56 (iPhone 16 Pro)",
        "timestamp" : "2026-09-25T15:31:08Z",
        "duration" : 11013.401771068573,
        "weather" : "Aufgelockert bewölkt (13,8 °C)",
        "rating" : 0
      },
      "type" : "Feature",
      "geometry" : {
        "type" : "Point",
        "coordinates" : [
          -3.3854217211694602,
          58.873334239089523
        ]
      }
    },
    {
      "properties" : {
        "type" : "route",
        "source" : "Geory 5.3.2",
        "device" : "B9E47AEB-E54C-4563-96B6-06995DD4BC56 (iPhone 16 Pro)",
        "start" : "2026-09-24T23:00:00Z",
        "end" : "2026-09-25T18:34:34Z"
      },
      "type" : "Feature",
      "geometry" : {
        "coordinates" : [
          [
            -3.3854217211694602,
            58.873334239089523
          ],
          [
            -3.3905752303786514,
            58.871818453998166
          ],
          [
            -3.3919861862777974,
            58.871283050807072
          ],
          [
            -3.3932843850462215,
            58.871880254158782
          ],
          [
            -3.3933879440882939,
            58.873184454727131
          ],
          [
            -3.3938042323167497,
            58.87494464393977
          ],
          [
            -3.3948699745785955,
            58.874671331340465
          ],
          [
            -3.3959061409797155,
            58.873950243115644
          ],
          [
            -3.3977332945410557,
            58.872982020753199
          ],
          [
            -3.4005983153329522,
            58.872132005171416
          ],
          [
            -3.4047744437814003,
            58.87035922260187
          ],
          [
            -3.4104728117400178,
            58.870734220639825
          ],
          [
            -3.4136137192677829,
            58.871937482955346
          ],
          [
            -3.4148642994929874,
            58.872563174553484
          ],
          [
            -3.4158427254660477,
            58.873307092270636
          ],
          [
            -3.4168621260937244,
            58.874035326019744
          ],
          [
            -3.4174742381229923,
            58.87487638302661
          ],
          [
            -3.4178628613806001,
            58.875762437919967
          ],
          [
            -3.4181757454132251,
            58.876649450372668
          ],
          [
            -3.41860407092206,
            58.877521340860078
          ],
          [
            -3.4190103235250002,
            58.878406068101903
          ],
          [
            -3.4195136496542382,
            58.87927091909107
          ],
          [
            -3.4201909304152069,
            58.880106931010147
          ],
          [
            -3.4203443623430605,
            58.881013559888487
          ],
          [
            -3.4208586597000381,
            58.881873053175241
          ],
          [
            -3.4242000706272102,
            58.884265882472363
          ],
          [
            -3.4275382530000256,
            58.885667969567713
          ],
          [
            -3.4256548366575639,
            58.884641956089006
          ],
          [
            -3.4242182098413783,
            58.884108085414624
          ],
          [
            -3.4221796685190133,
            58.883159144941047
          ],
          [
            -3.4208220459571259,
            58.88182032086204
          ],
          [
            -3.4203920173265292,
            58.881153554779708
          ],
          [
            -3.4199382995470411,
            58.879757381353173
          ],
          [
            -3.4188335633332563,
            58.877932126568076
          ],
          [
            -3.4183768715965108,
            58.877065466038218
          ],
          [
            -3.4180422946871052,
            58.876183637275602
          ],
          [
            -3.4174924403438829,
            58.874894468032046
          ],
          [
            -3.4157473811697616,
            58.873225871009268
          ],
          [
            -3.4122865488348753,
            58.871331733624771
          ],
          [
            -3.4080623490702013,
            58.870584349643408
          ],
          [
            -3.4063547920968458,
            58.870417498709493
          ],
          [
            -3.4046453311673934,
            58.870266801359755
          ],
          [
            -3.4031667920868029,
            58.870737394599004
          ],
          [
            -3.4021812027027902,
            58.871492946004032
          ],
          [
            -3.4005909848979252,
            58.872144454299381
          ],
          [
            -3.3995122478179907,
            58.872664395516708
          ],
          [
            -3.3978514485370379,
            58.872931216187382
          ],
          [
            -3.3965341675434462,
            58.873520119423276
          ],
          [
            -3.3955804377765957,
            58.874278979157523
          ],
          [
            -3.3937872666691158,
            58.874936301397241
          ],
          [
            -3.3929943120405586,
            58.874334772813796
          ],
          [
            -3.3935217267899618,
            58.872550582124823
          ],
          [
            -3.3909415585938896,
            58.87155515315861
          ],
          [
            -3.3889222873734179,
            58.872404576536226
          ],
          [
            -3.3854763196766013,
            58.873314542205861
          ]
        ],
        "type" : "LineString"
      }
    }
  ],
  "type" : "FeatureCollection"
}