{
  "features" : [
    {
      "geometry" : {
        "type" : "Point",
        "coordinates" : [
          -2.8146903018379312,
          56.188512482833147
        ]
      },
      "type" : "Feature",
      "properties" : {
        "address" : "2 Admiralty Lane, Elie, Leven, KY9, Schottland",
        "device" : "B9E47AEB-E54C-4563-96B6-06995DD4BC56 (iPhone 16 Pro)",
        "type" : "visit",
        "timestamp" : "2026-09-14T18:49:47Z",
        "departure" : "2026-09-14T23:56:01Z",
        "weather" : "Bedeckter Himmel (17,0 °C)",
        "arrival" : "2026-09-14T18:49:47Z",
        "source" : "Geory 5.3.2",
        "rating" : 0,
        "duration" : 18374.288146495819
      }
    },
    {
      "properties" : {
        "device" : "B9E47AEB-E54C-4563-96B6-06995DD4BC56 (iPhone 16 Pro)",
        "departure" : "2026-09-15T06:05:35Z",
        "weather" : "Starker Regen (16,9 °C)",
        "rating" : 0,
        "duration" : 22014.1060359478,
        "source" : "Geory 5.3.2",
        "arrival" : "2026-09-14T23:58:41Z",
        "type" : "visit",
        "address" : "Admiralty Lane, Elie, Leven, KY9, Schottland",
        "timestamp" : "2026-09-14T23:58:41Z"
      },
      "geometry" : {
        "coordinates" : [
          -2.8115999169046555,
          56.187482497116505
        ],
        "type" : "Point"
      },
      "type" : "Feature"
    },
    {
      "properties" : {
        "departure" : "2026-09-15T08:34:30Z",
        "rating" : 0,
        "device" : "B9E47AEB-E54C-4563-96B6-06995DD4BC56 (iPhone 16 Pro)",
        "address" : "Admiralty Lane, Elie, Leven, KY9, Schottland",
        "timestamp" : "2026-09-15T06:09:54Z",
        "duration" : 8676.893048286438,
        "type" : "visit",
        "arrival" : "2026-09-15T06:09:54Z",
        "weather" : "Überwiegend bewölkt (15,8 °C)",
        "source" : "Geory 5.3.2"
      },
      "type" : "Feature",
      "geometry" : {
        "coordinates" : [
          -2.8118773535298378,
          56.187473272681451
        ],
        "type" : "Point"
      }
    },
    {
      "geometry" : {
        "type" : "Point",
        "coordinates" : [
          -2.7944430688008182,
          56.197108482149233
        ]
      },
      "type" : "Feature",
      "properties" : {
        "arrival" : "2026-09-15T08:37:14Z",
        "departure" : "2026-09-15T09:14:36Z",
        "timestamp" : "2026-09-15T08:37:14Z",
        "address" : "A917, Ardross, Elie, Leven, KY9, Schottland",
        "duration" : 2242.2898166179657,
        "weather" : "Aufgelockert bewölkt (17,0 °C)",
        "rating" : 0,
        "type" : "visit",
        "source" : "Geory 5.3.2",
        "device" : "B9E47AEB-E54C-4563-96B6-06995DD4BC56 (iPhone 16 Pro)"
      }
    },
    {
      "geometry" : {
        "type" : "Point",
        "coordinates" : [
          -2.8076029136069107,
          56.34769898144885
        ]
      },
      "type" : "Feature",
      "properties" : {
        "weather" : "Aufgelockert bewölkt (16,9 °C)",
        "rating" : 0,
        "duration" : 987.55993223190308,
        "departure" : "2026-09-15T10:07:13Z",
        "source" : "Geory 5.3.2",
        "device" : "B9E47AEB-E54C-4563-96B6-06995DD4BC56 (iPhone 16 Pro)",
        "type" : "visit",
        "timestamp" : "2026-09-15T09:50:45Z",
        "arrival" : "2026-09-15T09:50:45Z",
        "address" : "St Andrews Links, West Sands Road, KY16, Schottland"
      }
    },
    {
      "type" : "Feature",
      "properties" : {
        "type" : "visit",
        "address" : "University of St Andrews, St. Andrews, KY16, Schottland",
        "source" : "Geory 5.3.2",
        "departure" : "2026-09-15T10:24:36Z",
        "duration" : 963.82809495925903,
        "rating" : 0,
        "device" : "B9E47AEB-E54C-4563-96B6-06995DD4BC56 (iPhone 16 Pro)",
        "timestamp" : "2026-09-15T10:08:32Z",
        "arrival" : "2026-09-15T10:08:32Z"
      },
      "geometry" : {
        "type" : "Point",
        "coordinates" : [
          -2.8012741972480968,
          56.343265702757002
        ]
      }
    },
    {
      "type" : "Feature",
      "properties" : {
        "duration" : 2867.2035622596741,
        "arrival" : "2026-09-15T10:29:51Z",
        "type" : "visit",
        "source" : "Geory 5.3.2",
        "device" : "B9E47AEB-E54C-4563-96B6-06995DD4BC56 (iPhone 16 Pro)",
        "rating" : 0,
        "address" : "St Andrews Castle, The Scores, St. Andrews, KY16 9AR, Schottland",
        "timestamp" : "2026-09-15T10:29:51Z",
        "departure" : "2026-09-15T11:17:38Z",
        "weather" : "Aufgelockert bewölkt (17,0 °C)"
      },
      "geometry" : {
        "type" : "Point",
        "coordinates" : [
          -2.7905962950492347,
          56.3420449089759
        ]
      }
    },
    {
      "geometry" : {
        "type" : "Point",
        "coordinates" : [
          -2.7871546160156324,
          56.340042152744786
        ]
      },
      "properties" : {
        "source" : "Geory 5.3.2",
        "address" : "St Andrews Eastern Cemetery, Mary Queen of Scots Way, St. Andrews, KY16, Schottland",
        "weather" : "Aufgelockert bewölkt (18,0 °C)",
        "type" : "visit",
        "departure" : "2026-09-15T12:01:48Z",
        "arrival" : "2026-09-15T11:17:39Z",
        "device" : "B9E47AEB-E54C-4563-96B6-06995DD4BC56 (iPhone 16 Pro)",
        "duration" : 2649.4109168052673,
        "timestamp" : "2026-09-15T11:17:39Z",
        "rating" : 0
      },
      "type" : "Feature"
    },
    {
      "type" : "Feature",
      "properties" : {
        "source" : "Geory 5.3.2",
        "rating" : 0,
        "departure" : "2026-09-15T13:41:33Z",
        "timestamp" : "2026-09-15T12:02:02Z",
        "duration" : 5970.9730250835419,
        "device" : "B9E47AEB-E54C-4563-96B6-06995DD4BC56 (iPhone 16 Pro)",
        "type" : "visit",
        "address" : "University of St Andrews, 71 Market Street, St. Andrews, KY16 9NU, Schottland",
        "arrival" : "2026-09-15T12:02:02Z",
        "weather" : "Aufgelockert bewölkt (17,9 °C)"
      },
      "geometry" : {
        "type" : "Point",
        "coordinates" : [
          -2.7946279506765315,
          56.340387841661304
        ]
      }
    },
    {
      "geometry" : {
        "coordinates" : [
          -2.8074595039402821,
          56.347497180208578
        ],
        "type" : "Point"
      },
      "type" : "Feature",
      "properties" : {
        "device" : "B9E47AEB-E54C-4563-96B6-06995DD4BC56 (iPhone 16 Pro)",
        "source" : "Geory 5.3.2",
        "type" : "visit",
        "departure" : "2026-09-15T14:12:48Z",
        "rating" : 0,
        "arrival" : "2026-09-15T13:54:15Z",
        "timestamp" : "2026-09-15T13:54:15Z",
        "address" : "St Andrews Links, West Sands Road, KY16, Schottland",
        "duration" : 1112.9711723327637,
        "weather" : "Bedeckter Himmel (18,1 °C)"
      }
    },
    {
      "geometry" : {
        "coordinates" : [
          -2.8076774642917801,
          56.347878725194818
        ],
        "type" : "Point"
      },
      "type" : "Feature",
      "properties" : {
        "departure" : "2026-09-15T15:12:47Z",
        "rating" : 0,
        "type" : "visit",
        "weather" : "Leichter Regen (18,7 °C)",
        "duration" : 2492.7200632095337,
        "source" : "Geory 5.3.2",
        "device" : "B9E47AEB-E54C-4563-96B6-06995DD4BC56 (iPhone 16 Pro)",
        "arrival" : "2026-09-15T14:31:15Z",
        "timestamp" : "2026-09-15T14:31:15Z",
        "address" : "St Andrews Links, West Sands Road, KY16, Schottland"
      }
    },
    {
      "type" : "Feature",
      "geometry" : {
        "type" : "Point",
        "coordinates" : [
          -2.5066330618466313,
          56.656033097246755
        ]
      },
      "properties" : {
        "timestamp" : "2026-09-15T16:46:28Z",
        "departure" : "2026-09-15T17:29:52Z",
        "source" : "Geory 5.3.2",
        "arrival" : "2026-09-15T16:46:28Z",
        "weather" : "Überwiegend bewölkt (15,6 °C)",
        "duration" : 2604.0498270988464,
        "type" : "visit",
        "device" : "B9E47AEB-E54C-4563-96B6-06995DD4BC56 (iPhone 16 Pro)",
        "rating" : 0,
        "address" : "Arbroath, DD11, Schottland"
      }
    },
    {
      "type" : "Feature",
      "properties" : {
        "address" : "Arbroath, DD11, Schottland",
        "type" : "visit",
        "rating" : 0,
        "timestamp" : "2026-09-15T18:11:28Z",
        "source" : "Geory 5.3.2",
        "arrival" : "2026-09-15T18:11:28Z",
        "weather" : "Überwiegend bewölkt (14,5 °C)",
        "device" : "B9E47AEB-E54C-4563-96B6-06995DD4BC56 (iPhone 16 Pro)",
        "duration" : 13794.754847764969
      },
      "geometry" : {
        "coordinates" : [
          -2.5048547517124775,
          56.656445414581093
        ],
        "type" : "Point"
      }
    },
    {
      "type" : "Feature",
      "geometry" : {
        "type" : "LineString",
        "coordinates" : [
          [
            -2.5048547517124775,
            56.656445414581093
          ],
          [
            -2.4990626182861444,
            56.662918736049882
          ],
          [
            -2.5006081857616103,
            56.660424935846315
          ],
          [
            -2.5006081857616103,
            56.660424935846315
          ],
          [
            -2.5011988364675175,
            56.659551876605036
          ],
          [
            -2.5023109349763164,
            56.657668970194678
          ],
          [
            -2.5023109349763164,
            56.657668970194678
          ],
          [
            -2.5035343926312237,
            56.655911977781983
          ],
          [
            -2.5035343926312237,
            56.655911977781983
          ],
          [
            -2.5066330618466313,
            56.656033097246755
          ],
          [
            -2.5069068833333334,
            56.654944683333333
          ],
          [
            -2.507803266666667,
            56.655133099999993
          ],
          [
            -2.5093349166666665,
            56.655447633333338
          ],
          [
            -2.5108696666666663,
            56.655776949999996
          ],
          [
            -2.5125088333333334,
            56.655964666666662
          ],
          [
            -2.5138137166666668,
            56.655283599999997
          ],
          [
            -2.5150525666666668,
            56.654677599999992
          ],
          [
            -2.5164594666666669,
            56.654112699999992
          ],
          [
            -2.5178418000000002,
            56.653571866666674
          ],
          [
            -2.5192686215869262,
            56.653017957767403
          ],
          [
            -2.5207240666666668,
            56.65260541666666
          ],
          [
            -2.5219654,
            56.653190033333345
          ],
          [
            -2.5232417333333337,
            56.653787049999998
          ],
          [
            -2.5244098666666672,
            56.654464433333331
          ],
          [
            -2.525453193581082,
            56.65519527905456
          ],
          [
            -2.5270700333333331,
            56.654933849999999
          ],
          [
            -2.5281138333333328,
            56.655858000000009
          ],
          [
            -2.5290013833333331,
            56.65663743333333
          ],
          [
            -2.5306187042085724,
            56.657314455357984
          ],
          [
            -2.5332294333333332,
            56.656300666666667
          ],
          [
            -2.5355082999999996,
            56.65485691666666
          ],
          [
            -2.5369716000000002,
            56.653011116666661
          ],
          [
            -2.5374459666666662,
            56.651197249999996
          ],
          [
            -2.5379445166666663,
            56.649198250000005
          ],
          [
            -2.5393852666666663,
            56.647312783333334
          ],
          [
            -2.5415038000000001,
            56.645910500000006
          ],
          [
            -2.5440406833333333,
            56.644545349999994
          ],
          [
            -2.5463005333333331,
            56.643357216666658
          ],
          [
            -2.5492143500000002,
            56.642096133333339
          ],
          [
            -2.5514939000000001,
            56.640407249999996
          ],
          [
            -2.5524499666666665,
            56.63862533333333
          ],
          [
            -2.5523785166666664,
            56.636900733333341
          ],
          [
            -2.551283933333333,
            56.635233783333319
          ],
          [
            -2.5497983333333334,
            56.633828833333332
          ],
          [
            -2.5486141666666668,
            56.632383766666663
          ],
          [
            -2.5485211833333334,
            56.630902516666659
          ],
          [
            -2.549128033333333,
            56.629591716666667
          ],
          [
            -2.5506812499999998,
            56.628205350000009
          ],
          [
            -2.5513017333333332,
            56.627637766666673
          ],
          [
            -2.5523846333333333,
            56.626639583333322
          ],
          [
            -2.5540410833333338,
            56.625070216666671
          ],
          [
            -2.5553776166666662,
            56.623390500000006
          ],
          [
            -2.5566816833333332,
            56.62173773333334
          ],
          [
            -2.5575869,
            56.619800950000005
          ],
          [
            -2.558128766666667,
            56.617881566666668
          ],
          [
            -2.5586497499999994,
            56.616062516666666
          ],
          [
            -2.5591496333333335,
            56.614295866666666
          ],
          [
            -2.5594267500000005,
            56.612658966666672
          ],
          [
            -2.5603988000000002,
            56.610827900000004
          ],
          [
            -2.5615031333333333,
            56.609024116666667
          ],
          [
            -2.5621818499999995,
            56.607236233333332
          ],
          [
            -2.5613248666666668,
            56.605456450000005
          ],
          [
            -2.5604321833333334,
            56.603658783333337
          ],
          [
            -2.5615102166666666,
            56.601858533333335
          ],
          [
            -2.5636359666666668,
            56.600364416666658
          ],
          [
            -2.5657105833333333,
            56.598945666666673
          ],
          [
            -2.5671829000000002,
            56.59754370000001
          ],
          [
            -2.56738745,
            56.595890833333328
          ],
          [
            -2.5680222666666666,
            56.594199783333337
          ],
          [
            -2.5688821833333333,
            56.592521683333338
          ],
          [
            -2.5689835000000003,
            56.591000866666668
          ],
          [
            -2.5696597594806696,
            56.589468642518909
          ],
          [
            -2.57010695,
            56.588092633333325
          ],
          [
            -2.5705912999999998,
            56.586811999999988
          ],
          [
            -2.5711544937516231,
            56.585419548737406
          ],
          [
            -2.5717766473227721,
            56.58381502528934
          ],
          [
            -2.5724302833333335,
            56.582043016666667
          ],
          [
            -2.5731782499999998,
            56.580128383333339
          ],
          [
            -2.5738598999999995,
            56.578446466666669
          ],
          [
            -2.5744949333333333,
            56.576828450000001
          ],
          [
            -2.5750290314396969,
            56.575532838326431
          ],
          [
            -2.575327157958117,
            56.574542359972448
          ],
          [
            -2.5757862666666669,
            56.573531666666668
          ],
          [
            -2.5762152499999997,
            56.57243738333333
          ],
          [
            -2.5765692666666666,
            56.571557633333335
          ],
          [
            -2.5769582833333331,
            56.57057553333334
          ],
          [
            -2.5777955499999998,
            56.569524100000002
          ],
          [
            -2.5788686788170203,
            56.568840011270844
          ],
          [
            -2.5796722333333335,
            56.567990266666662
          ],
          [
            -2.5802985999999999,
            56.566881416666661
          ],
          [
            -2.5802697000000001,
            56.565948183333326
          ],
          [
            -2.5813350833333328,
            56.565170300000005
          ],
          [
            -2.5825456175651076,
            56.564565013268769
          ],
          [
            -2.5840059455679971,
            56.564104498005591
          ],
          [
            -2.5853999499999998,
            56.563603833333346
          ],
          [
            -2.5864070666666668,
            56.562895866666665
          ],
          [
            -2.5861472833333332,
            56.561991400000004
          ],
          [
            -2.5859019333333331,
            56.561082216666669
          ],
          [
            -2.5856625833333333,
            56.560180366666657
          ],
          [
            -2.5853452499999996,
            56.558844350000001
          ],
          [
            -2.5848747999999997,
            56.558373549999999
          ],
          [
            -2.5845432499999998,
            56.557224200000007
          ],
          [
            -2.5853783666666668,
            56.556314050000012
          ],
          [
            -2.5868835333333329,
            56.555490350000007
          ],
          [
            -2.5879987666666664,
            56.554372016666669
          ],
          [
            -2.5898774166666665,
            56.553424499999998
          ],
          [
            -2.5923530666666661,
            56.553103499999999
          ],
          [
            -2.5948581166666664,
            56.552716116666673
          ],
          [
            -2.5971206333333332,
            56.552837849999996
          ],
          [
            -2.5987766460954744,
            56.553219587117802
          ],
          [
            -2.6007191522003175,
            56.552537476313297
          ],
          [
            -2.6027117,
            56.551921166666666
          ],
          [
            -2.6048697073889415,
            56.551476878858502
          ],
          [
            -2.6072790732497193,
            56.550920297614176
          ],
          [
            -2.6090703638898827,
            56.550388297030047
          ],
          [
            -2.6105936458416603,
            56.549846365959162
          ],
          [
            -2.6126638292502267,
            56.549004900887503
          ],
          [
            -2.61446025,
            56.548117166666664
          ],
          [
            -2.6159353666666667,
            56.5472903
          ],
          [
            -2.6175140333333329,
            56.546373549999998
          ],
          [
            -2.6190509999999998,
            56.545226233333338
          ],
          [
            -2.6201872499999999,
            56.544480233333331
          ],
          [
            -2.6218997166666669,
            56.544584100000002
          ],
          [
            -2.6251329499999998,
            56.544501883333332
          ],
          [
            -2.6285505333333332,
            56.544037349999989
          ],
          [
            -2.6324082666666664,
            56.543498400000004
          ],
          [
            -2.6354760333333331,
            56.543116916666669
          ],
          [
            -2.6366073666666665,
            56.542952849999999
          ],
          [
            -2.6406915833333335,
            56.542231433333342
          ],
          [
            -2.644631766666667,
            56.541273716666666
          ],
          [
            -2.6484044500000001,
            56.540131433333329
          ],
          [
            -2.6518345999999999,
            56.539088666666672
          ],
          [
            -2.6557078833333332,
            56.538042616666679
          ],
          [
            -2.6592891666666669,
            56.53715806666667
          ],
          [
            -2.6632047333333331,
            56.536185066666668
          ],
          [
            -2.6671062999999999,
            56.53519978333334
          ],
          [
            -2.6706824166666667,
            56.534307850000012
          ],
          [
            -2.6746047833333337,
            56.533331266666664
          ],
          [
            -2.6782012000000002,
            56.532457083333341
          ],
          [
            -2.6821595500000002,
            56.531536099999997
          ],
          [
            -2.6861517500000001,
            56.530634716666661
          ],
          [
            -2.6898022500000001,
            56.529819266666664
          ],
          [
            -2.69379035,
            56.528935199999992
          ],
          [
            -2.6977823666666665,
            56.52804883333333
          ],
          [
            -2.7016740833333333,
            56.52703056666666
          ],
          [
            -2.7047777499999999,
            56.525711733333338
          ],
          [
            -2.7078285166666665,
            56.524356433333331
          ],
          [
            -2.7112772833333332,
            56.523357833333336
          ],
          [
            -2.7154277666666666,
            56.522769033333333
          ],
          [
            -2.7196175833333331,
            56.522281683333325
          ],
          [
            -2.7233824666666671,
            56.5216633
          ],
          [
            -2.7273793333333334,
            56.520752083333342
          ],
          [
            -2.7311335166666666,
            56.520123250000012
          ],
          [
            -2.7349192833333333,
            56.519597083333338
          ],
          [
            -2.7389568999999998,
            56.518790066666668
          ],
          [
            -2.7433535999999998,
            56.517916550000002
          ],
          [
            -2.7462965333333336,
            56.517347733333324
          ],
          [
            -2.7502331999999998,
            56.516386566666675
          ],
          [
            -2.7536691666666662,
            56.515335050000012
          ],
          [
            -2.7574638999999999,
            56.514198699999994
          ],
          [
            -2.7610047833333335,
            56.513295199999995
          ],
          [
            -2.7646576333333335,
            56.512536333333337
          ],
          [
            -2.7687504166666668,
            56.51184678333334
          ],
          [
            -2.7728544333333329,
            56.511147749999992
          ],
          [
            -2.7764992000000004,
            56.510366633333327
          ],
          [
            -2.7804036000000001,
            56.509357283333344
          ],
          [
            -2.7842253833333337,
            56.508250200000006
          ],
          [
            -2.7878535499999999,
            56.506986283333326
          ],
          [
            -2.7910998500000002,
            56.50577246666667
          ],
          [
            -2.7943404666666662,
            56.504562766666673
          ],
          [
            -2.7974111833333337,
            56.503221583333335
          ],
          [
            -2.80013925,
            56.5017408
          ],
          [
            -2.8029722499999998,
            56.50004520000001
          ],
          [
            -2.8061036000000001,
            56.498490549999993
          ],
          [
            -2.8095482333333335,
            56.497169866666674
          ],
          [
            -2.8127920333333334,
            56.496207366666674
          ],
          [
            -2.8162748833333331,
            56.495353383333331
          ],
          [
            -2.8197678000000002,
            56.494585966666669
          ],
          [
            -2.8233827333333332,
            56.493685866666659
          ],
          [
            -2.82653,
            56.492738833333334
          ],
          [
            -2.8292310333333335,
            56.491771666666665
          ],
          [
            -2.8308259666666666,
            56.491198799999999
          ],
          [
            -2.8320637999999998,
            56.490532333333341
          ],
          [
            -2.8342313833333335,
            56.489548033333335
          ],
          [
            -2.8360331333333337,
            56.488687300000002
          ],
          [
            -2.8378598833333335,
            56.487799033333339
          ],
          [
            -2.8391693592266911,
            56.487236748328172
          ],
          [
            -2.8407250666666668,
            56.486565050000003
          ],
          [
            -2.8433650666666663,
            56.485947800000005
          ],
          [
            -2.8465474999999998,
            56.485495266666668
          ],
          [
            -2.8494163499999998,
            56.485109266666662
          ],
          [
            -2.8511911778339183,
            56.484934023632491
          ],
          [
            -2.8527691833333337,
            56.484645433333327
          ],
          [
            -2.8554440666666667,
            56.484215250000005
          ],
          [
            -2.8581897500000002,
            56.483472333333339
          ],
          [
            -2.8613253000000003,
            56.48289286666666
          ],
          [
            -2.8643437999999999,
            56.482437583333329
          ],
          [
            -2.8672261833333335,
            56.481722116666667
          ],
          [
            -2.8701350333333333,
            56.480888066666665
          ],
          [
            -2.8719971333333332,
            56.480501833333328
          ],
          [
            -2.8736092333333332,
            56.48013113333333
          ],
          [
            -2.8761433666666667,
            56.479641216666671
          ],
          [
            -2.8790480666666665,
            56.479325449999997
          ],
          [
            -2.8821060999999997,
            56.47887393333334
          ],
          [
            -2.8848162833333335,
            56.478412933333324
          ],
          [
            -2.887509078304487,
            56.478373203968566
          ],
          [
            -2.8892062666666667,
            56.477775099999988
          ],
          [
            -2.8904966999999999,
            56.477057283333338
          ],
          [
            -2.8933450666666669,
            56.476621433333335
          ],
          [
            -2.896323516666667,
            56.476173733333326
          ],
          [
            -2.8991429166666669,
            56.475751533333337
          ],
          [
            -2.9016843333333333,
            56.47537105
          ],
          [
            -2.9041466000000002,
            56.475116566666671
          ],
          [
            -2.9065584166666669,
            56.474895166666663
          ],
          [
            -2.9092407499999999,
            56.474626033333337
          ],
          [
            -2.9120824166666668,
            56.474507933333335
          ],
          [
            -2.9144403666666667,
            56.474523616666659
          ],
          [
            -2.9167574999999997,
            56.47448421666666
          ],
          [
            -2.918787266666667,
            56.474426516666668
          ],
          [
            -2.9205290666666666,
            56.474337066666671
          ],
          [
            -2.9221352,
            56.474191750000003
          ],
          [
            -2.9237286166666667,
            56.474014066666662
          ],
          [
            -2.9254623333333334,
            56.473959383333344
          ],
          [
            -2.9264463176265707,
            56.472712298809469
          ],
          [
            -2.9268813666666671,
            56.472312233333334
          ],
          [
            -2.9276859499999999,
            56.471521216666659
          ],
          [
            -2.9285590333333333,
            56.470723
          ],
          [
            -2.9292547499999997,
            56.46989403333334
          ],
          [
            -2.9305460166666668,
            56.469051549999996
          ],
          [
            -2.9320630800553182,
            56.468600403006931
          ],
          [
            -2.9339809000000003,
            56.468650750000009
          ],
          [
            -2.936357695934126,
            56.468616785942771
          ],
          [
            -2.9388948925626672,
            56.468375465080008
          ],
          [
            -2.9411390000000002,
            56.46782038333334
          ],
          [
            -2.9434073000000005,
            56.467012133333334
          ],
          [
            -2.9459204166666666,
            56.465906449999999
          ],
          [
            -2.9487109500000002,
            56.465468166666675
          ],
          [
            -2.9515398999999998,
            56.465072966666668
          ],
          [
            -2.9542285490231799,
            56.464660386909799
          ],
          [
            -2.9564377963618318,
            56.464293492253553
          ],
          [
            -2.9585874630136195,
            56.463979743645268
          ],
          [
            -2.9604640474187325,
            56.463626241416598
          ],
          [
            -2.9616449756108398,
            56.463121138763412
          ],
          [
            -2.9628876986615911,
            56.462511559448508
          ],
          [
            -2.9639415228733035,
            56.461799753410645
          ],
          [
            -2.9651473520820284,
            56.461096390711795
          ],
          [
            -2.9655931999474952,
            56.460214940093174
          ],
          [
            -2.9643734500000001,
            56.45960616666666
          ],
          [
            -2.9630266666666669,
            56.459064216666668
          ],
          [
            -2.961701666666666,
            56.458524433333338
          ],
          [
            -2.9604033833333339,
            56.457982783333328
          ],
          [
            -2.958303616666667,
            56.457091999999996
          ],
          [
            -2.9558204999999997,
            56.456072216666676
          ],
          [
            -2.9531349333333332,
            56.454967199999999
          ],
          [
            -2.9502775000000003,
            56.453793166666671
          ],
          [
            -2.9474574333333337,
            56.45262836666668
          ],
          [
            -2.9446886166666664,
            56.451485833333329
          ],
          [
            -2.9422003333333331,
            56.450466416666664
          ],
          [
            -2.9393735500000004,
            56.449308833333326
          ],
          [
            -2.937344916666667,
            56.448474183333332
          ],
          [
            -2.9352087666666669,
            56.447598966666661
          ],
          [
            -2.9338060166666668,
            56.44701533333334
          ],
          [
            -2.9320436435749309,
            56.446021497743232
          ],
          [
            -2.9318792610672566,
            56.443654163487217
          ],
          [
            -2.9329119963555752,
            56.441337122785285
          ],
          [
            -2.9335333763903519,
            56.438958716353724
          ],
          [
            -2.9338654545270209,
            56.436522393859676
          ],
          [
            -2.9338408489770935,
            56.434320868877265
          ],
          [
            -2.9335808453456917,
            56.432345904226345
          ],
          [
            -2.9334160166666661,
            56.430743516666674
          ],
          [
            -2.9332595149856875,
            56.429635844168345
          ],
          [
            -2.9331379614356874,
            56.428627147374662
          ],
          [
            -2.9316351833333334,
            56.428226466666665
          ],
          [
            -2.9302795000000001,
            56.427729400000004
          ],
          [
            -2.9289002999999996,
            56.427241799999997
          ],
          [
            -2.9272758000000003,
            56.426754000000003
          ],
          [
            -2.9260171833333333,
            56.426371100000011
          ],
          [
            -2.9239964333333335,
            56.425083733333338
          ],
          [
            -2.9223997333333331,
            56.423595549999995
          ],
          [
            -2.9211180833333334,
            56.422178783333322
          ],
          [
            -2.9195999166666664,
            56.42098308333334
          ],
          [
            -2.9184487166666666,
            56.419348549999995
          ],
          [
            -2.9180259000000004,
            56.417737599999995
          ],
          [
            -2.9178315833333333,
            56.416057449999997
          ],
          [
            -2.9175481333333333,
            56.414429349999999
          ],
          [
            -2.9165009166666667,
            56.413090233333335
          ],
          [
            -2.9150049499999997,
            56.411797883333342
          ],
          [
            -2.9143714500000004,
            56.410305900000004
          ],
          [
            -2.9137269166666666,
            56.408760016666669
          ],
          [
            -2.9145189666666669,
            56.407298249999997
          ],
          [
            -2.9155709999999999,
            56.405791783333342
          ],
          [
            -2.914058433333333,
            56.40436403333333
          ],
          [
            -2.9122930666666669,
            56.403290566666662
          ],
          [
            -2.9119683833333334,
            56.401651400000006
          ],
          [
            -2.9116706166666666,
            56.399972266666666
          ],
          [
            -2.91091800583933,
            56.398397984268513
          ],
          [
            -2.9092940637416249,
            56.39703246098582
          ],
          [
            -2.9076781197050026,
            56.395677382294522
          ],
          [
            -2.90652,
            56.394667250000005
          ],
          [
            -2.905566891488724,
            56.393913670523936
          ],
          [
            -2.9043875884262862,
            56.392968329971964
          ],
          [
            -2.9043875884262862,
            56.392968329971964
          ],
          [
            -2.9031250590370661,
            56.391974327062357
          ],
          [
            -2.901739696016528,
            56.390881808630809
          ],
          [
            -2.900087716666667,
            56.389572399999999
          ],
          [
            -2.8985040833333335,
            56.388379299999997
          ],
          [
            -2.8966455,
            56.387073916666672
          ],
          [
            -2.8945369666666663,
            56.385958766666661
          ],
          [
            -2.8925092666666665,
            56.385059199999993
          ],
          [
            -2.8906250166666667,
            56.384192383333321
          ],
          [
            -2.8893103666666664,
            56.383513283333329
          ],
          [
            -2.8879761958756096,
            56.382875730742157
          ],
          [
            -2.8875045547497402,
            56.381962720394696
          ],
          [
            -2.8885525068495217,
            56.380695464044031
          ],
          [
            -2.8897117330571418,
            56.379291059201563
          ],
          [
            -2.890837818877793,
            56.377914401514722
          ],
          [
            -2.8914399500000001,
            56.376501599999997
          ],
          [
            -2.8909175333333335,
            56.374843849999991
          ],
          [
            -2.8894728499999998,
            56.373361883333338
          ],
          [
            -2.8891374166666663,
            56.371829350000013
          ],
          [
            -2.8897329856322296,
            56.370595106884366
          ],
          [
            -2.8902879215089481,
            56.369750068148683
          ],
          [
            -2.8908209796136126,
            56.368881549475489
          ],
          [
            -2.8913081454294027,
            56.36800010161793
          ],
          [
            -2.8918092127269941,
            56.367092377536586
          ],
          [
            -2.8920830199379335,
            56.365772870503704
          ],
          [
            -2.8924013666666668,
            56.364575366666671
          ],
          [
            -2.8930335475211937,
            56.36371028792562
          ],
          [
            -2.8940224490857225,
            56.364454921577057
          ],
          [
            -2.8953468831745588,
            56.363893993073589
          ],
          [
            -2.8956923191129675,
            56.362819575889937
          ],
          [
            -2.8964160626008804,
            56.361998494910964
          ],
          [
            -2.8955973097956416,
            56.361213770347547
          ],
          [
            -2.8954073266660894,
            56.360298977601566
          ],
          [
            -2.8954668611079932,
            56.359347767015656
          ],
          [
            -2.8937337732199087,
            56.359217940257373
          ],
          [
            -2.8919455000000003,
            56.359069016666673
          ],
          [
            -2.8902814277158853,
            56.359054597528328
          ],
          [
            -2.8886958878992317,
            56.358759089545181
          ],
          [
            -2.8869836792329759,
            56.358607433405304
          ],
          [
            -2.8849357166666665,
            56.358449233333346
          ],
          [
            -2.8819416000000002,
            56.358194283333326
          ],
          [
            -2.8792082666666667,
            56.358268366666671
          ],
          [
            -2.8763807000000003,
            56.358575800000004
          ],
          [
            -2.8737466666666669,
            56.358826683333334
          ],
          [
            -2.8705527333333327,
            56.358835466666676
          ],
          [
            -2.8676138,
            56.358645250000002
          ],
          [
            -2.8649165999999999,
            56.357904166666671
          ],
          [
            -2.8622263000000001,
            56.357121283333328
          ],
          [
            -2.8593258993786077,
            56.356384775559441
          ],
          [
            -2.8565616981695072,
            56.355401455343944
          ],
          [
            -2.8542840732782802,
            56.354053802110862
          ],
          [
            -2.8511421732968971,
            56.35331935025782
          ],
          [
            -2.8481593019461133,
            56.352691422155331
          ],
          [
            -2.8452697501054889,
            56.352078310825839
          ],
          [
            -2.8424867199884551,
            56.351489879390307
          ],
          [
            -2.8400601903966058,
            56.350652062377691
          ],
          [
            -2.837301672167206,
            56.349953380429454
          ],
          [
            -2.8346207598371196,
            56.349866191112611
          ],
          [
            -2.8316291210003963,
            56.349401779907183
          ],
          [
            -2.8316291210003963,
            56.349401779907183
          ],
          [
            -2.8286744697558204,
            56.348929835888683
          ],
          [
            -2.8259383034896342,
            56.34839145422152
          ],
          [
            -2.8231982752233273,
            56.347817935560577
          ],
          [
            -2.8208446491705619,
            56.347068823576883
          ],
          [
            -2.8191178735757774,
            56.346010996094762
          ],
          [
            -2.8181485861191367,
            56.344983825591967
          ],
          [
            -2.8175150515238689,
            56.344113834874356
          ],
          [
            -2.8163501749740165,
            56.343189200154711
          ],
          [
            -2.814508650502022,
            56.342343628952925
          ],
          [
            -2.8124139861519302,
            56.34187637358211
          ],
          [
            -2.8105446026086955,
            56.341815689354561
          ],
          [
            -2.8088308154370778,
            56.341886206988015
          ],
          [
            -2.8073497957412141,
            56.342297514728372
          ],
          [
            -2.8056991275607555,
            56.342483993663777
          ],
          [
            -2.8040468865596959,
            56.342231709515794
          ],
          [
            -2.8023511893165542,
            56.342238981336678
          ],
          [
            -2.802089952729212,
            56.343134222000465
          ],
          [
            -2.8019762857667736,
            56.344091024894155
          ],
          [
            -2.8024635836500753,
            56.344966489167859
          ],
          [
            -2.8038219026175604,
            56.344443172839156
          ],
          [
            -2.8054661080127214,
            56.344360020688228
          ],
          [
            -2.8066281529131669,
            56.345010794232529
          ],
          [
            -2.8076774642917801,
            56.347878725194818
          ],
          [
            -2.8075300700333843,
            56.349785193250696
          ],
          [
            -2.8069376489134421,
            56.350734068777285
          ],
          [
            -2.8070401708804833,
            56.35180965721981
          ],
          [
            -2.8074297562551975,
            56.353224176524222
          ],
          [
            -2.806914953235192,
            56.352023707638367
          ],
          [
            -2.806914953235192,
            56.352023707638367
          ],
          [
            -2.8065046918691836,
            56.350541273481028
          ],
          [
            -2.806499481621088,
            56.350530286497261
          ],
          [
            -2.806499481621088,
            56.350530286497261
          ],
          [
            -2.8074595039402821,
            56.347497180208578
          ],
          [
            -2.8046093072490725,
            56.343863211267184
          ],
          [
            -2.8028425511029789,
            56.343737200285396
          ],
          [
            -2.8030368984229077,
            56.343130196300528
          ],
          [
            -2.8022910720717382,
            56.342876332253148
          ],
          [
            -2.8011940060163227,
            56.342079190833381
          ],
          [
            -2.7996064177275994,
            56.341884381816428
          ],
          [
            -2.7989430111900591,
            56.340980576187924
          ],
          [
            -2.7946279506765315,
            56.340387841661304
          ],
          [
            -2.7871546160156324,
            56.340042152744786
          ],
          [
            -2.7905962950492347,
            56.3420449089759
          ],
          [
            -2.7934254369336711,
            56.342428341282243
          ],
          [
            -2.7959139172964078,
            56.342698049832173
          ],
          [
            -2.7969289048450623,
            56.342805004696118
          ],
          [
            -2.8012741972480968,
            56.343265702757002
          ],
          [
            -2.8076029136069107,
            56.34769898144885
          ],
          [
            -2.8070043215538765,
            56.345831473508937
          ],
          [
            -2.8066569637948708,
            56.344947497289368
          ],
          [
            -2.8054459521384687,
            56.344335719229804
          ],
          [
            -2.8037699360464106,
            56.344417992438338
          ],
          [
            -2.8029687793152269,
            56.344913319071217
          ],
          [
            -2.8021936752441858,
            56.344711649816517
          ],
          [
            -2.8020602504526946,
            56.34377126285041
          ],
          [
            -2.802208746864248,
            56.342862348734343
          ],
          [
            -2.8032545477675392,
            56.342172411003261
          ],
          [
            -2.8028155152463192,
            56.341290537982573
          ],
          [
            -2.8022058541631618,
            56.340425830712412
          ],
          [
            -2.8013855050697734,
            56.339624118254712
          ],
          [
            -2.8011466827952716,
            56.338683834590817
          ],
          [
            -2.8009465519729919,
            56.337786307339151
          ],
          [
            -2.8005123331595905,
            56.336853029750209
          ],
          [
            -2.8003116218175785,
            56.335883449506611
          ],
          [
            -2.8012278344194308,
            56.335122443604277
          ],
          [
            -2.8024804428563073,
            56.334390330841352
          ],
          [
            -2.8030122911867439,
            56.33347216649576
          ],
          [
            -2.8035291636456678,
            56.332583898455553
          ],
          [
            -2.8040789172972356,
            56.331709277222707
          ],
          [
            -2.8050426829007309,
            56.330533723916695
          ],
          [
            -2.8053692164084283,
            56.330004865451563
          ],
          [
            -2.8059978667658014,
            56.329167966752806
          ],
          [
            -2.8064338078846505,
            56.328237267589081
          ],
          [
            -2.8072076105622585,
            56.327158347206272
          ],
          [
            -2.8093037464871897,
            56.326598970643118
          ],
          [
            -2.8111385099857027,
            56.325680748101348
          ],
          [
            -2.81217136502159,
            56.324640809865372
          ],
          [
            -2.8127426666666664,
            56.323721883333342
          ],
          [
            -2.8134437499999998,
            56.322849533333333
          ],
          [
            -2.814229280159553,
            56.321966205804166
          ],
          [
            -2.8150185833333334,
            56.321116716666666
          ],
          [
            -2.81602145,
            56.32002395
          ],
          [
            -2.8170736166666668,
            56.318932600000004
          ],
          [
            -2.8183095333333332,
            56.317772633333341
          ],
          [
            -2.8198335833333328,
            56.316442216666665
          ],
          [
            -2.8214588333333332,
            56.315025699999993
          ],
          [
            -2.8225154177698886,
            56.313271013420945
          ],
          [
            -2.8231655554417139,
            56.311568885763016
          ],
          [
            -2.8235873796439996,
            56.310257375010565
          ],
          [
            -2.8244192666666668,
            56.30893446666667
          ],
          [
            -2.8249768833333331,
            56.307684333333327
          ],
          [
            -2.8249747666666671,
            56.306701766666656
          ],
          [
            -2.8254994500000001,
            56.305825450000007
          ],
          [
            -2.8266770666666665,
            56.304650433333329
          ],
          [
            -2.8276638666666667,
            56.303547083333321
          ],
          [
            -2.8286607999999998,
            56.302106516666662
          ],
          [
            -2.8293732387929027,
            56.300423013302343
          ],
          [
            -2.82966456562685,
            56.298744941247307
          ],
          [
            -2.8299653483629763,
            56.29684867409668
          ],
          [
            -2.8299464999999997,
            56.295237600000007
          ],
          [
            -2.8301753333333335,
            56.293731399999992
          ],
          [
            -2.83052685,
            56.292257466666655
          ],
          [
            -2.8300326166666663,
            56.290692716666669
          ],
          [
            -2.8296098257774345,
            56.289278064769107
          ],
          [
            -2.8304072972619689,
            56.288136668864652
          ],
          [
            -2.8324432099112045,
            56.287564418148825
          ],
          [
            -2.834728829504273,
            56.286924707943101
          ],
          [
            -2.8366028127925498,
            56.286123004935838
          ],
          [
            -2.8376767442933644,
            56.284485752892827
          ],
          [
            -2.8387707064336802,
            56.282799597718032
          ],
          [
            -2.8398185789095454,
            56.281178006732617
          ],
          [
            -2.8408137780398484,
            56.279576812451147
          ],
          [
            -2.8426776734480166,
            56.278103110036895
          ],
          [
            -2.8452665134200492,
            56.277170575271079
          ],
          [
            -2.8475151000199692,
            56.275837505131591
          ],
          [
            -2.8488305903888076,
            56.274602607059748
          ],
          [
            -2.8491057817997079,
            56.273386179542648
          ],
          [
            -2.8492854104912051,
            56.272058593633808
          ],
          [
            -2.8494545509823319,
            56.270635910381408
          ],
          [
            -2.8495956646421923,
            56.269407445407822
          ],
          [
            -2.8497166333333337,
            56.268131499999996
          ],
          [
            -2.8507693895695998,
            56.266809769522276
          ],
          [
            -2.8522617775824171,
            56.265360297730616
          ],
          [
            -2.8535210335664982,
            56.263901779041852
          ],
          [
            -2.8543172717492111,
            56.262583013943988
          ],
          [
            -2.8554425297886836,
            56.261376956775891
          ],
          [
            -2.8562842734442713,
            56.260481970728073
          ],
          [
            -2.8567954773738897,
            56.259591890894399
          ],
          [
            -2.8574868666666666,
            56.258693166666667
          ],
          [
            -2.8580880166666662,
            56.257806133333325
          ],
          [
            -2.8591117499999998,
            56.257076549999994
          ],
          [
            -2.860441262845189,
            56.256433141468818
          ],
          [
            -2.8618148499999996,
            56.255951633333339
          ],
          [
            -2.8633468,
            56.255523599999997
          ],
          [
            -2.8642694166666667,
            56.254715616666672
          ],
          [
            -2.8630752500000001,
            56.253501549999996
          ],
          [
            -2.8617461333333334,
            56.252104416666668
          ],
          [
            -2.8606050833333332,
            56.250724850000005
          ],
          [
            -2.8596791333333336,
            56.249485183333341
          ],
          [
            -2.8598205333333335,
            56.247889450000002
          ],
          [
            -2.8598511333333332,
            56.246220100000002
          ],
          [
            -2.8598211317353113,
            56.244745349999995
          ],
          [
            -2.8587048833333331,
            56.243462000000001
          ],
          [
            -2.8562115557755576,
            56.24269646540192
          ],
          [
            -2.8537214048875037,
            56.241926136012125
          ],
          [
            -2.8512357954547078,
            56.241152874828991
          ],
          [
            -2.8493292333333335,
            56.24041738333333
          ],
          [
            -2.8484826419388849,
            56.239239052501929
          ],
          [
            -2.8460285943521528,
            56.238327182603498
          ],
          [
            -2.8436552833333333,
            56.237511499999997
          ],
          [
            -2.8413897999999995,
            56.236726699999991
          ],
          [
            -2.8394624471933558,
            56.236080896852727
          ],
          [
            -2.8366586166666665,
            56.23592983333333
          ],
          [
            -2.8338137333333333,
            56.235843350000003
          ],
          [
            -2.8315584500000002,
            56.23560483333334
          ],
          [
            -2.8300112166666662,
            56.234538183333335
          ],
          [
            -2.8286855166666665,
            56.23345166666666
          ],
          [
            -2.8274041999999997,
            56.232403599999991
          ],
          [
            -2.8260140499999999,
            56.23126116666667
          ],
          [
            -2.8247772410010845,
            56.2303073124977
          ],
          [
            -2.8242619560361093,
            56.229358460916025
          ],
          [
            -2.8242619560361093,
            56.229358460916025
          ],
          [
            -2.8257527187646425,
            56.228437810017226
          ],
          [
            -2.8267254470051797,
            56.227459476361332
          ],
          [
            -2.8286002353327726,
            56.226671600936299
          ],
          [
            -2.8304613666666669,
            56.226086599999995
          ],
          [
            -2.8313600315736061,
            56.224931756752525
          ],
          [
            -2.830235497945778,
            56.223976918319352
          ],
          [
            -2.8294865833333334,
            56.223053899999996
          ],
          [
            -2.8281928661889948,
            56.222309001606561
          ],
          [
            -2.8280223312272135,
            56.220987817660671
          ],
          [
            -2.8278066200530763,
            56.219574962327563
          ],
          [
            -2.8275869523135522,
            56.218129426658599
          ],
          [
            -2.8273912544483295,
            56.21682107139825
          ],
          [
            -2.8271919321522434,
            56.215568307357962
          ],
          [
            -2.8271430343458706,
            56.214438265015843
          ],
          [
            -2.827128896099552,
            56.213241188924194
          ],
          [
            -2.826993064484757,
            56.212026269207286
          ],
          [
            -2.8266323899469645,
            56.211024687649839
          ],
          [
            -2.8265618833333335,
            56.209996000000004
          ],
          [
            -2.8264998666666665,
            56.209047599999998
          ],
          [
            -2.8279599166666665,
            56.208589533333331
          ],
          [
            -2.8295528500000002,
            56.20843146666666
          ],
          [
            -2.8312495666666671,
            56.208442749999989
          ],
          [
            -2.8334442166666669,
            56.207998133333327
          ],
          [
            -2.8353610166666665,
            56.207241966666665
          ],
          [
            -2.8362241445330687,
            56.206195684067637
          ],
          [
            -2.835239385159487,
            56.205137099974934
          ],
          [
            -2.8348107865069139,
            56.20412185382731
          ],
          [
            -2.8346359023261471,
            56.202998934579973
          ],
          [
            -2.8333666961786328,
            56.201523177501805
          ],
          [
            -2.8322653459441369,
            56.199937297857197
          ],
          [
            -2.8308355315438791,
            56.198605113364614
          ],
          [
            -2.8287795684370929,
            56.197446510234727
          ],
          [
            -2.8266318879227965,
            56.196638824518026
          ],
          [
            -2.8247371250576645,
            56.195883256790331
          ],
          [
            -2.8234439956440567,
            56.194813866681926
          ],
          [
            -2.8223626210155519,
            56.193963058318573
          ],
          [
            -2.8220465456643056,
            56.192987950786268
          ],
          [
            -2.8218497771073823,
            56.192063700640801
          ],
          [
            -2.821612602901455,
            56.191115537643782
          ],
          [
            -2.8203862050831008,
            56.190360181713501
          ],
          [
            -2.8186682977583799,
            56.190486882165324
          ],
          [
            -2.8169355073092759,
            56.190866059562367
          ],
          [
            -2.8154151833333336,
            56.191424616666666
          ],
          [
            -2.8133200666666669,
            56.192217849999999
          ],
          [
            -2.810631966666667,
            56.192736299999993
          ],
          [
            -2.8080374000000003,
            56.193146549999994
          ],
          [
            -2.8062661666666666,
            56.193431833333342
          ],
          [
            -2.8036667499999997,
            56.193839783333338
          ],
          [
            -2.8007357166666664,
            56.194532516666676
          ],
          [
            -2.7988324499999999,
            56.195079599999993
          ],
          [
            -2.7944430688008182,
            56.197108482149233
          ],
          [
            -2.8147692166666669,
            56.191842533333329
          ],
          [
            -2.8153839400145553,
            56.190940086601053
          ],
          [
            -2.8145927704219544,
            56.190131812940812
          ],
          [
            -2.8144237730316584,
            56.188064829323658
          ],
          [
            -2.8118773535298378,
            56.187473272681451
          ],
          [
            -2.8115999169046555,
            56.187482497116505
          ],
          [
            -2.8146903018379312,
            56.188512482833147
          ]
        ]
      },
      "properties" : {
        "source" : "Geory 5.3.2",
        "type" : "route",
        "end" : "2026-09-15T22:01:14Z",
        "start" : "2026-09-14T23:00:00Z",
        "device" : "B9E47AEB-E54C-4563-96B6-06995DD4BC56 (iPhone 16 Pro)"
      }
    }
  ],
  "type" : "FeatureCollection"
}