{
  "type" : "FeatureCollection",
  "features" : [
    {
      "type" : "Feature",
      "geometry" : {
        "coordinates" : [
          -6.3661036367899504,
          56.306359138984959
        ],
        "type" : "Point"
      },
      "properties" : {
        "device" : "B9E47AEB-E54C-4563-96B6-06995DD4BC56 (iPhone 16 Pro)",
        "type" : "visit",
        "timestamp" : "2026-05-25T19:56:12Z",
        "rating" : 0,
        "source" : "Geory 5.3.2",
        "arrival" : "2026-05-25T19:56:12Z",
        "duration" : 43391.659500598907,
        "weather" : "Klarer Himmel (12,1 °C)",
        "departure" : "2026-05-26T07:59:23Z",
        "address" : "Isle Of Mull, PA66, Schottland"
      }
    },
    {
      "geometry" : {
        "type" : "Point",
        "coordinates" : [
          -6.3671096922207022,
          56.305907348559792
        ]
      },
      "type" : "Feature",
      "properties" : {
        "weather" : "Leicht bewölkt (11,5 °C)",
        "device" : "B9E47AEB-E54C-4563-96B6-06995DD4BC56 (iPhone 16 Pro)",
        "departure" : "2026-05-26T08:18:39Z",
        "timestamp" : "2026-05-26T07:59:24Z",
        "source" : "Geory 5.3.2",
        "duration" : 1154.3041934967041,
        "arrival" : "2026-05-26T07:59:24Z",
        "address" : "Isle of Mull, Argyll and Bute, Schottland",
        "rating" : 0,
        "type" : "visit"
      }
    },
    {
      "type" : "Feature",
      "geometry" : {
        "coordinates" : [
          -5.8096068704696053,
          56.514334246220457
        ],
        "type" : "Point"
      },
      "properties" : {
        "timestamp" : "2026-05-26T10:15:18Z",
        "departure" : "2026-05-26T10:49:32Z",
        "duration" : 2054.553457736969,
        "type" : "visit",
        "address" : "A884, Craignure, Isle Of Mull, PA65, Schottland",
        "arrival" : "2026-05-26T10:15:18Z",
        "rating" : 0,
        "device" : "B9E47AEB-E54C-4563-96B6-06995DD4BC56 (iPhone 16 Pro)",
        "source" : "Geory 5.3.2",
        "weather" : "Aufgelockert bewölkt (13,8 °C)"
      }
    },
    {
      "type" : "Feature",
      "properties" : {
        "type" : "visit",
        "rating" : 0,
        "source" : "Geory 5.3.2",
        "arrival" : "2026-05-26T12:01:02Z",
        "duration" : 3483.1882710456848,
        "device" : "B9E47AEB-E54C-4563-96B6-06995DD4BC56 (iPhone 16 Pro)",
        "departure" : "2026-05-26T12:59:05Z",
        "timestamp" : "2026-05-26T12:01:02Z",
        "address" : "Acharacle, PH36, Schottland",
        "weather" : "Überwiegend bewölkt (19,0 °C)"
      },
      "geometry" : {
        "type" : "Point",
        "coordinates" : [
          -5.5544918034946908,
          56.710692888779462
        ]
      }
    },
    {
      "properties" : {
        "source" : "Geory 5.3.2",
        "type" : "visit",
        "device" : "B9E47AEB-E54C-4563-96B6-06995DD4BC56 (iPhone 16 Pro)",
        "timestamp" : "2026-05-26T13:31:48Z",
        "departure" : "2026-05-26T13:56:18Z",
        "arrival" : "2026-05-26T13:31:48Z",
        "duration" : 1469.7459745407104,
        "rating" : 0,
        "address" : "Acharacle, PH36, Schottland",
        "weather" : "Leicht bewölkt (19,1 °C)"
      },
      "geometry" : {
        "type" : "Point",
        "coordinates" : [
          -5.5281125408508887,
          56.71923821025613
        ]
      },
      "type" : "Feature"
    },
    {
      "type" : "Feature",
      "properties" : {
        "type" : "visit",
        "timestamp" : "2026-05-26T14:58:26Z",
        "departure" : "2026-05-26T15:16:21Z",
        "source" : "Geory 5.3.2",
        "duration" : 1074.9961521625519,
        "device" : "B9E47AEB-E54C-4563-96B6-06995DD4BC56 (iPhone 16 Pro)",
        "address" : "1 Sheil Cottage, Acharacle, PH36 4HZ, Schottland",
        "arrival" : "2026-05-26T14:58:26Z",
        "weather" : "Aufgelockert bewölkt (20,7 °C)",
        "rating" : 0
      },
      "geometry" : {
        "type" : "Point",
        "coordinates" : [
          -5.5701191497875451,
          56.695404504469998
        ]
      }
    },
    {
      "type" : "Feature",
      "geometry" : {
        "type" : "Point",
        "coordinates" : [
          -5.2427268237583373,
          56.721991258691055
        ]
      },
      "properties" : {
        "source" : "Geory 5.3.2",
        "arrival" : "2026-05-26T15:39:01Z",
        "weather" : "Aufgelockert bewölkt (20,8 °C)",
        "rating" : 0,
        "duration" : 1824.6989426612854,
        "type" : "visit",
        "device" : "B9E47AEB-E54C-4563-96B6-06995DD4BC56 (iPhone 16 Pro)",
        "timestamp" : "2026-05-26T15:39:01Z",
        "address" : "A861, Ardgour, Fort William, PH33, Schottland",
        "departure" : "2026-05-26T16:09:26Z"
      }
    },
    {
      "geometry" : {
        "coordinates" : [
          -5.2364123668391649,
          56.703220526739941
        ],
        "type" : "Point"
      },
      "type" : "Feature",
      "properties" : {
        "weather" : "Aufgelockert bewölkt (20,3 °C)",
        "device" : "B9E47AEB-E54C-4563-96B6-06995DD4BC56 (iPhone 16 Pro)",
        "departure" : "2026-05-26T19:39:57Z",
        "type" : "visit",
        "rating" : 0,
        "timestamp" : "2026-05-26T16:17:12Z",
        "arrival" : "2026-05-26T16:17:12Z",
        "duration" : 12165.12685585022,
        "source" : "Geory 5.3.2",
        "address" : "Fort William, PH33, Schottland"
      }
    },
    {
      "geometry" : {
        "type" : "Point",
        "coordinates" : [
          -5.2361840511000981,
          56.703226288537408
        ]
      },
      "properties" : {
        "arrival" : "2026-05-26T19:40:07Z",
        "duration" : 37449.796612262726,
        "rating" : 0,
        "timestamp" : "2026-05-26T19:40:07Z",
        "device" : "B9E47AEB-E54C-4563-96B6-06995DD4BC56 (iPhone 16 Pro)",
        "type" : "visit",
        "weather" : "Überwiegend bewölkt (15,8 °C)",
        "departure" : "2026-05-27T06:04:16Z",
        "address" : "Fort William, PH33, Schottland",
        "source" : "Geory 5.3.2"
      },
      "type" : "Feature"
    },
    {
      "type" : "Feature",
      "geometry" : {
        "coordinates" : [
          [
            -5.2361840511000981,
            56.703226288537408
          ],
          [
            -5.2364123668391649,
            56.703220526739941
          ],
          [
            -5.234785416769177,
            56.704603273140087
          ],
          [
            -5.2337967900543907,
            56.705321004775129
          ],
          [
            -5.2324665340678385,
            56.705868052586425
          ],
          [
            -5.2315353312893418,
            56.70699805874299
          ],
          [
            -5.2304160893973037,
            56.708266985942004
          ],
          [
            -5.2289621949232465,
            56.70963628368763
          ],
          [
            -5.2281407919171494,
            56.711082390347315
          ],
          [
            -5.2271862848232367,
            56.712398990586479
          ],
          [
            -5.2265959575995922,
            56.713768522948321
          ],
          [
            -5.2272210296020525,
            56.714920771710233
          ],
          [
            -5.2292759160311784,
            56.715687730574565
          ],
          [
            -5.2308714411197901,
            56.716658658464567
          ],
          [
            -5.2323187039513224,
            56.717612546995781
          ],
          [
            -5.232179015140205,
            56.718824844899913
          ],
          [
            -5.2312677917402333,
            56.719910868859742
          ],
          [
            -5.2320087211586275,
            56.720993952746717
          ],
          [
            -5.2326054346818065,
            56.721889245609951
          ],
          [
            -5.2343617521137702,
            56.721467712088618
          ],
          [
            -5.2357611083949083,
            56.721594251323666
          ],
          [
            -5.2372198855933441,
            56.722215445003393
          ],
          [
            -5.2408267365579952,
            56.723066071443306
          ],
          [
            -5.2427268237583373,
            56.721991258691055
          ],
          [
            -5.2527018833333328,
            56.718641283333341
          ],
          [
            -5.2550717833333325,
            56.717738416666663
          ],
          [
            -5.2579775999999994,
            56.716960749999998
          ],
          [
            -5.2612783499999995,
            56.716888749999995
          ],
          [
            -5.2641747500000013,
            56.716627933333335
          ],
          [
            -5.2667747999999994,
            56.715471666666659
          ],
          [
            -5.2692867999999997,
            56.714633450000008
          ],
          [
            -5.2724066999999994,
            56.714083133333332
          ],
          [
            -5.2746532333333338,
            56.712753116666669
          ],
          [
            -5.2759126666666667,
            56.711785833333337
          ],
          [
            -5.2765856666666666,
            56.711482433333337
          ],
          [
            -5.2796235166666667,
            56.710890266666667
          ],
          [
            -5.2826654499999997,
            56.710433716666664
          ],
          [
            -5.2855538666666666,
            56.710741633333328
          ],
          [
            -5.2884058833333336,
            56.711550000000003
          ],
          [
            -5.2911356666666656,
            56.712254583333333
          ],
          [
            -5.2936184666666666,
            56.712902216666663
          ],
          [
            -5.295941083333334,
            56.713436933333334
          ],
          [
            -5.2985984666666655,
            56.713034133333331
          ],
          [
            -5.3018027666666665,
            56.71270706666666
          ],
          [
            -5.3042843500000005,
            56.711951033333335
          ],
          [
            -5.3062941833333337,
            56.710586066666671
          ],
          [
            -5.3073171666666674,
            56.709213100000007
          ],
          [
            -5.3090766166666654,
            56.708142749999993
          ],
          [
            -5.3108965499999998,
            56.706960550000005
          ],
          [
            -5.3129819666666664,
            56.706103749999997
          ],
          [
            -5.3143166000000006,
            56.705004766666661
          ],
          [
            -5.3155175833333335,
            56.703692666666669
          ],
          [
            -5.317684166666667,
            56.702639583333337
          ],
          [
            -5.3198006833333329,
            56.701629083333337
          ],
          [
            -5.3209369500000001,
            56.700143733333334
          ],
          [
            -5.3217409499999988,
            56.698674966666673
          ],
          [
            -5.3232062666666673,
            56.697457083333333
          ],
          [
            -5.3259468000000005,
            56.697045533333323
          ],
          [
            -5.3289709999999992,
            56.6966544
          ],
          [
            -5.3314780666666675,
            56.69577211666666
          ],
          [
            -5.3337297166666664,
            56.694807016666665
          ],
          [
            -5.3356841999999993,
            56.693944049999999
          ],
          [
            -5.3374631166666671,
            56.692473266666674
          ],
          [
            -5.3397342833333328,
            56.691212399999998
          ],
          [
            -5.3419814333333324,
            56.690006066666669
          ],
          [
            -5.3443400333333333,
            56.68873283333334
          ],
          [
            -5.3464277833333327,
            56.687607616666668
          ],
          [
            -5.3484317166666662,
            56.686522033333326
          ],
          [
            -5.3508227333333327,
            56.685631216666664
          ],
          [
            -5.3535707500000003,
            56.685142949999999
          ],
          [
            -5.3561687166666676,
            56.684688333333334
          ],
          [
            -5.3585170333333343,
            56.683852066666667
          ],
          [
            -5.3606439666666663,
            56.682899766666672
          ],
          [
            -5.362929041258286,
            56.681894631253421
          ],
          [
            -5.3648782908848789,
            56.68103817822081
          ],
          [
            -5.3673982635717588,
            56.680489903827002
          ],
          [
            -5.3704394666666664,
            56.680144800000001
          ],
          [
            -5.3732476166666663,
            56.680193666666675
          ],
          [
            -5.3760765166666653,
            56.680662900000002
          ],
          [
            -5.3788853999999988,
            56.681575066666667
          ],
          [
            -5.3814137166666658,
            56.682554766666662
          ],
          [
            -5.3847375,
            56.682923049999999
          ],
          [
            -5.3875789166666657,
            56.683013216666659
          ],
          [
            -5.3905501999999998,
            56.683335100000008
          ],
          [
            -5.3931942166666662,
            56.683634049999995
          ],
          [
            -5.3958607666666678,
            56.683625133333337
          ],
          [
            -5.3984864166666657,
            56.684169300000001
          ],
          [
            -5.4011790666666668,
            56.68481573333333
          ],
          [
            -5.4043676666666673,
            56.685054833333332
          ],
          [
            -5.4077207000000005,
            56.685702666666671
          ],
          [
            -5.4108446666666667,
            56.68603916666666
          ],
          [
            -5.413814583333334,
            56.685958266666667
          ],
          [
            -5.4171270666666658,
            56.685922883333326
          ],
          [
            -5.4204297666666665,
            56.686335949999993
          ],
          [
            -5.4238328833333336,
            56.686602666666673
          ],
          [
            -5.4273636928761544,
            56.686629654975476
          ],
          [
            -5.4305427333333336,
            56.686810283333344
          ],
          [
            -5.4331884500000003,
            56.687292183333334
          ],
          [
            -5.4360511333333328,
            56.687785949999999
          ],
          [
            -5.4391931300985101,
            56.687724813282877
          ],
          [
            -5.4423453216220654,
            56.687525130893498
          ],
          [
            -5.4452413999999996,
            56.687313133333326
          ],
          [
            -5.4481266166666673,
            56.687170200000004
          ],
          [
            -5.4510723333333333,
            56.687568866666666
          ],
          [
            -5.4539082089569986,
            56.68788107264664
          ],
          [
            -5.4570498833333332,
            56.687809583333333
          ],
          [
            -5.4603531999999992,
            56.687820399999993
          ],
          [
            -5.463389583333333,
            56.687994533333331
          ],
          [
            -5.4663307499999991,
            56.68823463333333
          ],
          [
            -5.4692947500000004,
            56.688218166666672
          ],
          [
            -5.472174100000001,
            56.688183600000002
          ],
          [
            -5.4753219333333334,
            56.687984766666659
          ],
          [
            -5.4781313666666653,
            56.687857783333328
          ],
          [
            -5.4808097999999994,
            56.687817216666666
          ],
          [
            -5.4838407333333334,
            56.687768066666663
          ],
          [
            -5.4866377333333336,
            56.687533349999995
          ],
          [
            -5.4899887833333327,
            56.687595916666673
          ],
          [
            -5.4931532166666672,
            56.687679700000011
          ],
          [
            -5.4960353643122914,
            56.68781161889482
          ],
          [
            -5.4973331508731995,
            56.688063934191923
          ],
          [
            -5.4985272759849524,
            56.688481338597583
          ],
          [
            -5.5010865166666676,
            56.689022183333321
          ],
          [
            -5.5037713333333329,
            56.689164250000005
          ],
          [
            -5.50649605,
            56.68943123333333
          ],
          [
            -5.5088178833333341,
            56.690151866666668
          ],
          [
            -5.5113944000000004,
            56.69057445
          ],
          [
            -5.5143348833333334,
            56.690747999999999
          ],
          [
            -5.5174562333333332,
            56.69088051666666
          ],
          [
            -5.5202294499999995,
            56.690950099999995
          ],
          [
            -5.5233416666666661,
            56.69097983333333
          ],
          [
            -5.5263605166666672,
            56.690656883333332
          ],
          [
            -5.5295937333333329,
            56.6902483
          ],
          [
            -5.5325028499999984,
            56.689787766666662
          ],
          [
            -5.5355148999999999,
            56.68914190000001
          ],
          [
            -5.5382173236885723,
            56.688600524741403
          ],
          [
            -5.5413093510549896,
            56.688278457957523
          ],
          [
            -5.5445115195817154,
            56.68840041474526
          ],
          [
            -5.5477087333333337,
            56.688624066666669
          ],
          [
            -5.5506342000000002,
            56.688631666666666
          ],
          [
            -5.5533035333333336,
            56.688395699999994
          ],
          [
            -5.55559855,
            56.688180566666674
          ],
          [
            -5.5576227666666664,
            56.687960066666662
          ],
          [
            -5.5592573999999999,
            56.687707100000004
          ],
          [
            -5.5608420713525621,
            56.687923469552537
          ],
          [
            -5.5621172043684224,
            56.688488607648516
          ],
          [
            -5.5637011384452046,
            56.689208981852495
          ],
          [
            -5.5649410820306437,
            56.689797499365859
          ],
          [
            -5.5701191497875451,
            56.695404504469998
          ],
          [
            -5.57054289367432,
            56.700906470132686
          ],
          [
            -5.5702036666666661,
            56.70179735
          ],
          [
            -5.5699562333333326,
            56.702744349999996
          ],
          [
            -5.5700841833333339,
            56.703699916666665
          ],
          [
            -5.5696490257816675,
            56.704608125036572
          ],
          [
            -5.5688670445846373,
            56.705476437780185
          ],
          [
            -5.5676442727837241,
            56.706172472799715
          ],
          [
            -5.5661053632288295,
            56.706511072075955
          ],
          [
            -5.5647186878483357,
            56.707041953302387
          ],
          [
            -5.5635980718591966,
            56.707710109109662
          ],
          [
            -5.5625386304201907,
            56.708399712991195
          ],
          [
            -5.5611842952908814,
            56.708965705405582
          ],
          [
            -5.5596505328859243,
            56.709321065992498
          ],
          [
            -5.5574451484324543,
            56.709837779759532
          ],
          [
            -5.5552225166666673,
            56.712592516666668
          ],
          [
            -5.5544041076550048,
            56.71063632530241
          ],
          [
            -5.5536998716212702,
            56.710878399345525
          ],
          [
            -5.5526308097489343,
            56.711578559626552
          ],
          [
            -5.5510653360615763,
            56.711840339012141
          ],
          [
            -5.5494678272267617,
            56.712064971910912
          ],
          [
            -5.5478940810662269,
            56.712333165954199
          ],
          [
            -5.5474327613304295,
            56.713198322895224
          ],
          [
            -5.5464302476999734,
            56.71392064883257
          ],
          [
            -5.5451666171127494,
            56.714505859894714
          ],
          [
            -5.5435135473608277,
            56.714464942967346
          ],
          [
            -5.54309204750394,
            56.7134938483836
          ],
          [
            -5.5415033220972107,
            56.713747586031488
          ],
          [
            -5.5385367167834003,
            56.714476499871935
          ],
          [
            -5.5371016946403584,
            56.714911265059619
          ],
          [
            -5.5358270732322117,
            56.715475856959848
          ],
          [
            -5.535023942522713,
            56.716261840370088
          ],
          [
            -5.5329843904319294,
            56.717669228345557
          ],
          [
            -5.5281125408508887,
            56.71923821025613
          ],
          [
            -5.5295664152374968,
            56.720592671454391
          ],
          [
            -5.5390696310490108,
            56.718368036802964
          ],
          [
            -5.5405326142055431,
            56.717871012147867
          ],
          [
            -5.5418053360499213,
            56.717550390411077
          ],
          [
            -5.5424987620147297,
            56.716907724195586
          ],
          [
            -5.5426379331657261,
            56.716327567109872
          ],
          [
            -5.5428141747303732,
            56.715642443375607
          ],
          [
            -5.5444130771499518,
            56.714808798727262
          ],
          [
            -5.5456696645790498,
            56.714233775234604
          ],
          [
            -5.5466868024160689,
            56.713571893715887
          ],
          [
            -5.5475357832920134,
            56.712582261494795
          ],
          [
            -5.5480601446639621,
            56.712094798765534
          ],
          [
            -5.549938324189152,
            56.712015564305673
          ],
          [
            -5.5519281023644522,
            56.711649815744721
          ],
          [
            -5.5544918034946908,
            56.710692888779462
          ],
          [
            -5.5589148000000002,
            56.709512399999994
          ],
          [
            -5.5604483787351286,
            56.709173325451019
          ],
          [
            -5.561928616666667,
            56.708773866666661
          ],
          [
            -5.5634870701200345,
            56.70783052496558
          ],
          [
            -5.5641365478104925,
            56.707438905877687
          ],
          [
            -5.5652958957180418,
            56.70679688300114
          ],
          [
            -5.5668183866926899,
            56.706389420578503
          ],
          [
            -5.5682972166666671,
            56.705871883333337
          ],
          [
            -5.5692799039746035,
            56.705149257181702
          ],
          [
            -5.5699725705607648,
            56.704211970781877
          ],
          [
            -5.5700786666666664,
            56.703232249999999
          ],
          [
            -5.5701195999999999,
            56.702303266666668
          ],
          [
            -5.5704545833333325,
            56.701357999999999
          ],
          [
            -5.570809716666667,
            56.700395683333333
          ],
          [
            -5.5708441666666655,
            56.699324083333337
          ],
          [
            -5.5711362166666669,
            56.698398250000004
          ],
          [
            -5.5717326166666661,
            56.697555616666655
          ],
          [
            -5.5721428000000008,
            56.696647749999997
          ],
          [
            -5.5721232081626644,
            56.695736450066988
          ],
          [
            -5.5708923000000006,
            56.695055400000001
          ],
          [
            -5.5705292333333336,
            56.694113450000003
          ],
          [
            -5.5698877333333341,
            56.693234416666677
          ],
          [
            -5.5685347666666658,
            56.69261383333334
          ],
          [
            -5.5682027666666665,
            56.691542049999995
          ],
          [
            -5.5673620500000007,
            56.690927300000006
          ],
          [
            -5.5655747166666663,
            56.690079666666669
          ],
          [
            -5.5638879166666664,
            56.689272166666655
          ],
          [
            -5.5622280166666682,
            56.688508016666674
          ],
          [
            -5.5608467333333333,
            56.687875383333328
          ],
          [
            -5.5586245500000002,
            56.687778300000005
          ],
          [
            -5.5566019666666673,
            56.688039616666671
          ],
          [
            -5.5536924666666669,
            56.688329416666662
          ],
          [
            -5.5502732000000004,
            56.688634866666675
          ],
          [
            -5.5467132833333341,
            56.688525300000002
          ],
          [
            -5.5434881999999996,
            56.68827696666667
          ],
          [
            -5.5403357666666668,
            56.68828426666667
          ],
          [
            -5.5374919666666669,
            56.688705583333331
          ],
          [
            -5.5350285833333341,
            56.689226699999999
          ],
          [
            -5.5330714999999993,
            56.689646683333329
          ],
          [
            -5.531874516666667,
            56.688784349999992
          ],
          [
            -5.5321005833333317,
            56.688135399999993
          ],
          [
            -5.5324453500000006,
            56.68719646666667
          ],
          [
            -5.5329250166666668,
            56.685911116666659
          ],
          [
            -5.5337342283309416,
            56.684650654127196
          ],
          [
            -5.5362871883714098,
            56.684201232015397
          ],
          [
            -5.5383602796094502,
            56.684206106618753
          ],
          [
            -5.5407618786884782,
            56.683923136045159
          ],
          [
            -5.5433813337224969,
            56.683548936253963
          ],
          [
            -5.5457071232187909,
            56.683475473391837
          ],
          [
            -5.5481256010685325,
            56.683656759711319
          ],
          [
            -5.5505122556765851,
            56.683704741303423
          ],
          [
            -5.5529562222184472,
            56.683562254072179
          ],
          [
            -5.555148291602241,
            56.683299839241258
          ],
          [
            -5.5575884756444243,
            56.683023985768344
          ],
          [
            -5.5597159034598729,
            56.68294647623474
          ],
          [
            -5.5622885113767078,
            56.682852673878557
          ],
          [
            -5.5647023975304251,
            56.682558956670739
          ],
          [
            -5.5669964490687427,
            56.682277826263622
          ],
          [
            -5.5692771866103197,
            56.682035036872001
          ],
          [
            -5.571643907023029,
            56.681903525984012
          ],
          [
            -5.5735558219556252,
            56.68173914971819
          ],
          [
            -5.5753443870841073,
            56.681753290695788
          ],
          [
            -5.5780197318070277,
            56.681786685338253
          ],
          [
            -5.5804216847638681,
            56.681956892846699
          ],
          [
            -5.5832691047745033,
            56.681784483936362
          ],
          [
            -5.5845047350331942,
            56.681749625414028
          ],
          [
            -5.5864175810277592,
            56.681564818725434
          ],
          [
            -5.5882451498662364,
            56.681403493815743
          ],
          [
            -5.5906435928855807,
            56.6813754978349
          ],
          [
            -5.5929863397159583,
            56.681495507961145
          ],
          [
            -5.5955137910430084,
            56.681576988911729
          ],
          [
            -5.5978103923771512,
            56.681615779150789
          ],
          [
            -5.5995088247650928,
            56.681631701408463
          ],
          [
            -5.6015009806322169,
            56.681384679926119
          ],
          [
            -5.6031387630896878,
            56.680719202350275
          ],
          [
            -5.6045110000000005,
            56.679952750000005
          ],
          [
            -5.6053031666666664,
            56.678984716666676
          ],
          [
            -5.6060328999999998,
            56.67809878333334
          ],
          [
            -5.6073712499999999,
            56.677195766666671
          ],
          [
            -5.6090983560900041,
            56.676639068044871
          ],
          [
            -5.61085133581724,
            56.676621728274704
          ],
          [
            -5.6130328999454546,
            56.67664573853336
          ],
          [
            -5.6149080558779136,
            56.676294947965886
          ],
          [
            -5.6172032313688058,
            56.676018009808168
          ],
          [
            -5.6193228102464499,
            56.675833992834562
          ],
          [
            -5.6213489333333335,
            56.675535249999996
          ],
          [
            -5.6228915833333346,
            56.6748124
          ],
          [
            -5.6241034333333326,
            56.673840466666661
          ],
          [
            -5.6250368000000002,
            56.673058683333331
          ],
          [
            -5.6258261666666671,
            56.672075583333331
          ],
          [
            -5.6263650333333333,
            56.671203233333337
          ],
          [
            -5.6268803666666676,
            56.670206583333325
          ],
          [
            -5.6274599666666676,
            56.669111800000003
          ],
          [
            -5.6283262333333326,
            56.668170733333334
          ],
          [
            -5.629412516666668,
            56.667255233333329
          ],
          [
            -5.6305541666666672,
            56.666494100000001
          ],
          [
            -5.631879249999999,
            56.665955783333324
          ],
          [
            -5.6332963666666664,
            56.665421766666668
          ],
          [
            -5.6345868499999989,
            56.664848416666672
          ],
          [
            -5.6355705,
            56.664099733333323
          ],
          [
            -5.6361877833333329,
            56.663253016666673
          ],
          [
            -5.6367138333333324,
            56.662396199999996
          ],
          [
            -5.6372372500000001,
            56.66153606666667
          ],
          [
            -5.6377642166666666,
            56.660666266666674
          ],
          [
            -5.6384335666666674,
            56.6595935
          ],
          [
            -5.6386834666666665,
            56.658679183333327
          ],
          [
            -5.6381074499999988,
            56.657687466666658
          ],
          [
            -5.6373969666666675,
            56.656736799999997
          ],
          [
            -5.6367217166666661,
            56.655846616666672
          ],
          [
            -5.6360873333333341,
            56.655012633333342
          ],
          [
            -5.635697733333334,
            56.654122700000002
          ],
          [
            -5.635697733333334,
            56.654122700000002
          ],
          [
            -5.6361513666666667,
            56.653006133333335
          ],
          [
            -5.6365703499999995,
            56.652080549999994
          ],
          [
            -5.6365740166666667,
            56.651109516666672
          ],
          [
            -5.6357790000000003,
            56.650267916666657
          ],
          [
            -5.6344229666666665,
            56.649681899999997
          ],
          [
            -5.63225555,
            56.649156633333334
          ],
          [
            -5.6305151333333336,
            56.648181800000003
          ],
          [
            -5.6292590166666656,
            56.646889200000004
          ],
          [
            -5.6280392000000008,
            56.645658733333327
          ],
          [
            -5.6260905000000001,
            56.644542666666666
          ],
          [
            -5.6236430833333335,
            56.643571766666668
          ],
          [
            -5.6215148500000005,
            56.642678999999994
          ],
          [
            -5.6200623500000004,
            56.641356466666672
          ],
          [
            -5.6190617666666656,
            56.640071516666666
          ],
          [
            -5.6189463000000011,
            56.638860083333341
          ],
          [
            -5.6202730945051442,
            56.638017911879857
          ],
          [
            -5.6225507247163744,
            56.637833263518644
          ],
          [
            -5.6255806287363885,
            56.637972407257926
          ],
          [
            -5.6288073911553544,
            56.637940846812931
          ],
          [
            -5.631693607378776,
            56.638134004527537
          ],
          [
            -5.6347843702278722,
            56.638081073460135
          ],
          [
            -5.6374134333333341,
            56.637907500000004
          ],
          [
            -5.6400372166666672,
            56.637000783333328
          ],
          [
            -5.6425323833333341,
            56.63609435
          ],
          [
            -5.6425323833333341,
            56.63609435
          ],
          [
            -5.6449119499999991,
            56.635230933333339
          ],
          [
            -5.6470472333333328,
            56.634365033333339
          ],
          [
            -5.6487155499999995,
            56.633341033333338
          ],
          [
            -5.6498305666666662,
            56.631910950000005
          ],
          [
            -5.6501710999999997,
            56.630277466666669
          ],
          [
            -5.6505098833333331,
            56.628649783333337
          ],
          [
            -5.650845266666666,
            56.627015266666668
          ],
          [
            -5.6511692833333331,
            56.625532700000001
          ],
          [
            -5.6520876333333341,
            56.624189199999996
          ],
          [
            -5.6530446666666672,
            56.622949266666666
          ],
          [
            -5.6547175833333334,
            56.622222866666668
          ],
          [
            -5.6566096999999989,
            56.62119666666667
          ],
          [
            -5.6575086999999993,
            56.619909033333336
          ],
          [
            -5.6583627833333328,
            56.618665833333338
          ],
          [
            -5.6593270000000002,
            56.617401100000002
          ],
          [
            -5.6610758333333333,
            56.61616861666667
          ],
          [
            -5.6627500333333325,
            56.614849033333336
          ],
          [
            -5.6636837166666654,
            56.613507883333327
          ],
          [
            -5.6642907999999998,
            56.612080633333335
          ],
          [
            -5.6654741166666662,
            56.610696300000008
          ],
          [
            -5.6660248833333338,
            56.609121333333327
          ],
          [
            -5.6665189499999995,
            56.607601566666666
          ],
          [
            -5.6671981666666662,
            56.606129633333332
          ],
          [
            -5.6679533499999986,
            56.604495783333341
          ],
          [
            -5.6686817666666665,
            56.602943616666671
          ],
          [
            -5.6698187000000004,
            56.601334399999992
          ],
          [
            -5.6707547666666658,
            56.599556766666673
          ],
          [
            -5.6713948333333324,
            56.597970699999998
          ],
          [
            -5.6717246166666673,
            56.597153600000006
          ],
          [
            -5.6721236166666653,
            56.596681866666664
          ],
          [
            -5.6733437333333336,
            56.595446933333335
          ],
          [
            -5.6752726166666658,
            56.594341799999995
          ],
          [
            -5.6775679999999999,
            56.593397199999998
          ],
          [
            -5.6790199333333327,
            56.592228200000001
          ],
          [
            -5.6807927000000005,
            56.590960133333333
          ],
          [
            -5.68291155,
            56.590194016666665
          ],
          [
            -5.6856317500000015,
            56.590175283333345
          ],
          [
            -5.6878678666666662,
            56.590162783333341
          ],
          [
            -5.6894668666666668,
            56.589873400000002
          ],
          [
            -5.6919232833333337,
            56.589554749999991
          ],
          [
            -5.6944762333333339,
            56.588814183333341
          ],
          [
            -5.6973155499999999,
            56.589139949999996
          ],
          [
            -5.6999310000000003,
            56.589361583333329
          ],
          [
            -5.7021822000000002,
            56.589436866666667
          ],
          [
            -5.7040664166666657,
            56.589999100000007
          ],
          [
            -5.7056236999999994,
            56.590299433333335
          ],
          [
            -5.7072400166666659,
            56.590531433333339
          ],
          [
            -5.7088179166666668,
            56.590781183333334
          ],
          [
            -5.7107396333333327,
            56.591079183333342
          ],
          [
            -5.7129374333333329,
            56.591224783333331
          ],
          [
            -5.7153636666666676,
            56.59123683333334
          ],
          [
            -5.7175401666666668,
            56.590983466666664
          ],
          [
            -5.7199909333333343,
            56.590812400000004
          ],
          [
            -5.7228106000000007,
            56.590969049999998
          ],
          [
            -5.7257063499999994,
            56.590615550000003
          ],
          [
            -5.7282267500000001,
            56.590256383333326
          ],
          [
            -5.7305269166666672,
            56.589959
          ],
          [
            -5.7323733619412955,
            56.59048437522079
          ],
          [
            -5.7347334082923851,
            56.590932635742142
          ],
          [
            -5.7371320500000005,
            56.591274683333332
          ],
          [
            -5.7394060333333332,
            56.591242033333337
          ],
          [
            -5.7408314708968602,
            56.59071380804572
          ],
          [
            -5.7423845833333349,
            56.589829033333338
          ],
          [
            -5.743502966666667,
            56.589014899999995
          ],
          [
            -5.7444808499999995,
            56.588292216666666
          ],
          [
            -5.7454043788705649,
            56.586936696655869
          ],
          [
            -5.7458297166666661,
            56.585359050000001
          ],
          [
            -5.7470409666666669,
            56.584097700000001
          ],
          [
            -5.7485577333333326,
            56.583021633333331
          ],
          [
            -5.7496237452581509,
            56.58194002243782
          ],
          [
            -5.7502285376175584,
            56.58049073907592
          ],
          [
            -5.7515370678527917,
            56.579240076789354
          ],
          [
            -5.7531214471545429,
            56.578438056769961
          ],
          [
            -5.7541857333333324,
            56.577174066666672
          ],
          [
            -5.754106133333333,
            56.575870550000005
          ],
          [
            -5.7535056833333327,
            56.574666566666671
          ],
          [
            -5.7534474666666675,
            56.573708216666667
          ],
          [
            -5.7534551999999994,
            56.572514566666669
          ],
          [
            -5.7534871666666669,
            56.571245200000007
          ],
          [
            -5.7535306166666658,
            56.569699999999997
          ],
          [
            -5.7535723633112976,
            56.568183722278192
          ],
          [
            -5.7539891818879196,
            56.566791244343435
          ],
          [
            -5.7554648562925408,
            56.565751085956158
          ],
          [
            -5.7566370136778078,
            56.565375737465004
          ],
          [
            -5.7577504830835506,
            56.565119068633507
          ],
          [
            -5.7596418577116646,
            56.564021550199634
          ],
          [
            -5.7600898500000008,
            56.562521249999989
          ],
          [
            -5.7603948833333343,
            56.5611745
          ],
          [
            -5.7619707000000009,
            56.559943433333338
          ],
          [
            -5.7639669500000004,
            56.558947366666672
          ],
          [
            -5.7654937333333329,
            56.55759175
          ],
          [
            -5.7668309666666664,
            56.556427600000006
          ],
          [
            -5.7684524166666655,
            56.555504699999993
          ],
          [
            -5.7699126166666659,
            56.554396849999996
          ],
          [
            -5.771015281271711,
            56.553063576877435
          ],
          [
            -5.7720579401261993,
            56.551755154802336
          ],
          [
            -5.7725135999999999,
            56.5506283
          ],
          [
            -5.7726342000000015,
            56.549683833333326
          ],
          [
            -5.7727387499999994,
            56.548769233333331
          ],
          [
            -5.7731986759935925,
            56.547401572504512
          ],
          [
            -5.7741892365461851,
            56.546127363274344
          ],
          [
            -5.7751885319438312,
            56.544996788535215
          ],
          [
            -5.7764952151771656,
            56.544047791702404
          ],
          [
            -5.7777480325214423,
            56.543225719766717
          ],
          [
            -5.7783678374657956,
            56.542390750389757
          ],
          [
            -5.77873781762825,
            56.541514080908513
          ],
          [
            -5.7790531717354838,
            56.540316080026955
          ],
          [
            -5.7786676999999997,
            56.539339100000007
          ],
          [
            -5.7781647166666668,
            56.538644683333331
          ],
          [
            -5.7777788666666678,
            56.538037849999995
          ],
          [
            -5.7762851211137907,
            56.535020015331888
          ],
          [
            -5.7757449166666666,
            56.536193950000005
          ],
          [
            -5.7742243777413886,
            56.536209036975308
          ],
          [
            -5.7740230528456413,
            56.534799258350823
          ],
          [
            -5.7740137012292312,
            56.533869060965756
          ],
          [
            -5.7740137012292312,
            56.533869060965756
          ],
          [
            -5.7744676080693944,
            56.532999292047421
          ],
          [
            -5.775091288467463,
            56.532135895289855
          ],
          [
            -5.7759048238545709,
            56.531315226878149
          ],
          [
            -5.7769604171987599,
            56.530588765439916
          ],
          [
            -5.7779824589039031,
            56.529866422722293
          ],
          [
            -5.7791702640637856,
            56.529252701020496
          ],
          [
            -5.7801967789774267,
            56.528545680236952
          ],
          [
            -5.7812799761511311,
            56.52787275923297
          ],
          [
            -5.7825363750967602,
            56.52726775355093
          ],
          [
            -5.7838872277896503,
            56.526714364274369
          ],
          [
            -5.78523066856879,
            56.526167201228525
          ],
          [
            -5.7866299556784826,
            56.525671617372339
          ],
          [
            -5.7881345097389874,
            56.525270586897214
          ],
          [
            -5.7896939870297821,
            56.524960695013597
          ],
          [
            -5.7912608923169318,
            56.52460356566926
          ],
          [
            -5.7930425395700302,
            56.524085824725191
          ],
          [
            -5.7942002072845806,
            56.523407008542122
          ],
          [
            -5.7952306282036918,
            56.522668257140765
          ],
          [
            -5.7967154592329182,
            56.522274760700256
          ],
          [
            -5.7982275092512277,
            56.521943729139515
          ],
          [
            -5.7992949387129,
            56.521241197307369
          ],
          [
            -5.8005324123174651,
            56.520649782650125
          ],
          [
            -5.8020139376294209,
            56.520266783295853
          ],
          [
            -5.8033203993674247,
            56.519682642153803
          ],
          [
            -5.8045432690395158,
            56.519045313041772
          ],
          [
            -5.8060410265689262,
            56.518179596739266
          ],
          [
            -5.8069098485984458,
            56.517756292344551
          ],
          [
            -5.8081087635055741,
            56.517147957137077
          ],
          [
            -5.8105394591525901,
            56.516187622640111
          ],
          [
            -5.8096068704696053,
            56.514334246220457
          ],
          [
            -5.8027322991230559,
            56.507917945484159
          ],
          [
            -5.8031615465180568,
            56.506632117377961
          ],
          [
            -5.8014422000000003,
            56.505464416666669
          ],
          [
            -5.7985015499999992,
            56.505302200000003
          ],
          [
            -5.7957914666666666,
            56.505383266666662
          ],
          [
            -5.7939345166666669,
            56.505450283333325
          ],
          [
            -5.7914602833333335,
            56.505084550000007
          ],
          [
            -5.7884938833333326,
            56.504144966666672
          ],
          [
            -5.7852813833333343,
            56.503419133333331
          ],
          [
            -5.7822708499999997,
            56.502347166666667
          ],
          [
            -5.7805280946890205,
            56.501399709114956
          ],
          [
            -5.7795896533542788,
            56.500869516196055
          ],
          [
            -5.7780980666666659,
            56.499123233333329
          ],
          [
            -5.7775370333333349,
            56.497305766666663
          ],
          [
            -5.7756096666666661,
            56.495571766666671
          ],
          [
            -5.773005666666668,
            56.493886583333335
          ],
          [
            -5.7708877833333343,
            56.492330216666666
          ],
          [
            -5.7689348833333325,
            56.490515099999989
          ],
          [
            -5.7664521666666673,
            56.488851700000005
          ],
          [
            -5.7632344333333334,
            56.487662749999991
          ],
          [
            -5.7600503000000005,
            56.48670168333333
          ],
          [
            -5.7563758000000016,
            56.486029949999995
          ],
          [
            -5.7529288000000003,
            56.485508283333338
          ],
          [
            -5.7497013666666659,
            56.484489516666663
          ],
          [
            -5.7463510833333338,
            56.483296366666671
          ],
          [
            -5.7434565999999991,
            56.482255766666675
          ],
          [
            -5.7399983333333333,
            56.481745000000004
          ],
          [
            -5.7367366833333326,
            56.48212088333333
          ],
          [
            -5.7332165653908307,
            56.482098434522158
          ],
          [
            -5.729764931526268,
            56.481079916470243
          ],
          [
            -5.7266342552766156,
            56.479975499886784
          ],
          [
            -5.7237153178838325,
            56.478825064588236
          ],
          [
            -5.7210966833333341,
            56.477643083333341
          ],
          [
            -5.7187850666666673,
            56.476437516666664
          ],
          [
            -5.7163299499999995,
            56.475190016666666
          ],
          [
            -5.7138677631737549,
            56.474133469085629
          ],
          [
            -5.711395181278264,
            56.473176704441393
          ],
          [
            -5.7093731815533353,
            56.472123738784127
          ],
          [
            -5.7076242544470119,
            56.471219050396257
          ],
          [
            -5.7054182999999998,
            56.469989583333337
          ],
          [
            -5.7039670833333336,
            56.469399099999997
          ],
          [
            -5.7019146000000003,
            56.468652383333328
          ],
          [
            -5.7000048833333343,
            56.467849716666663
          ],
          [
            -5.6986225981054268,
            56.46658050408999
          ],
          [
            -5.6976210945182837,
            56.465067500055213
          ],
          [
            -5.6968381479895509,
            56.463591983700034
          ],
          [
            -5.6961988833333335,
            56.46233156666667
          ],
          [
            -5.6953795843008628,
            56.461204707493131
          ],
          [
            -5.6942875957779693,
            56.460077432674716
          ],
          [
            -5.6933847938817754,
            56.458610623237007
          ],
          [
            -5.6926898890285607,
            56.457261883615899
          ],
          [
            -5.6920258001123258,
            56.455968128106605
          ],
          [
            -5.6914101511567408,
            56.454762157328062
          ],
          [
            -5.6909582014429931,
            56.453862217829304
          ],
          [
            -5.6906665020519105,
            56.452976635173684
          ],
          [
            -5.6910484499999994,
            56.451810683333328
          ],
          [
            -5.6909410590813936,
            56.451092075997529
          ],
          [
            -5.6909549986218133,
            56.450613033172296
          ],
          [
            -5.6905297912395065,
            56.449547743813923
          ],
          [
            -5.6897660890086303,
            56.448717434781756
          ],
          [
            -5.6887145134114006,
            56.448032778954335
          ],
          [
            -5.6872578017360826,
            56.447129047439518
          ],
          [
            -5.6851815833333337,
            56.446133416666669
          ],
          [
            -5.6834302622931032,
            56.445279813548296
          ],
          [
            -5.6820956999999996,
            56.444119850000007
          ],
          [
            -5.6819721166666657,
            56.442772516666672
          ],
          [
            -5.6826238833333349,
            56.441721183333321
          ],
          [
            -5.6833174,
            56.440811450000005
          ],
          [
            -5.6842058666666677,
            56.439694200000005
          ],
          [
            -5.685017583333333,
            56.438575966666669
          ],
          [
            -5.6858089552068893,
            56.437681500938325
          ],
          [
            -5.6872912000000007,
            56.436818116666664
          ],
          [
            -5.6887701941725766,
            56.435832521933641
          ],
          [
            -5.6897942333333331,
            56.434883249999999
          ],
          [
            -5.6904713833333327,
            56.433420733333335
          ],
          [
            -5.6910325999999998,
            56.43257271666667
          ],
          [
            -5.6929254333333335,
            56.431738166666676
          ],
          [
            -5.6949279000000006,
            56.430763133333329
          ],
          [
            -5.6959768999999989,
            56.429413899999993
          ],
          [
            -5.6970287166666669,
            56.428020100000005
          ],
          [
            -5.6979579999999999,
            56.426495383333339
          ],
          [
            -5.6983401666666662,
            56.425005866666666
          ],
          [
            -5.6986659499999988,
            56.4238103
          ],
          [
            -5.6995521833333331,
            56.422727183333336
          ],
          [
            -5.7013480833333325,
            56.4218537
          ],
          [
            -5.7035320999999994,
            56.421493166666671
          ],
          [
            -5.7051798500000004,
            56.421390666666667
          ],
          [
            -5.7078409999999993,
            56.421228133333337
          ],
          [
            -5.7102817999999997,
            56.420900899999999
          ],
          [
            -5.7125741166666666,
            56.420074666666672
          ],
          [
            -5.7144691999999999,
            56.419268233333334
          ],
          [
            -5.716161099999999,
            56.418553000000003
          ],
          [
            -5.7174399499999993,
            56.417862499999998
          ],
          [
            -5.7188176333333329,
            56.417031433333342
          ],
          [
            -5.7206390000000003,
            56.416404183333327
          ],
          [
            -5.7225824500000009,
            56.415906100000001
          ],
          [
            -5.7251399333333319,
            56.415530800000006
          ],
          [
            -5.7276956166666668,
            56.415261449999996
          ],
          [
            -5.7303048333333342,
            56.414755833333331
          ],
          [
            -5.7326236333333327,
            56.413857850000007
          ],
          [
            -5.7346462833333325,
            56.41304490000001
          ],
          [
            -5.7360596833333339,
            56.412491033333332
          ],
          [
            -5.7383412000000007,
            56.412142933333342
          ],
          [
            -5.740698066666666,
            56.412555549999993
          ],
          [
            -5.7423999999999999,
            56.413037683333336
          ],
          [
            -5.744661016666667,
            56.413694366666668
          ],
          [
            -5.7468551666666672,
            56.414106783333338
          ],
          [
            -5.7489359000000002,
            56.41387816666667
          ],
          [
            -5.7508099166666664,
            56.412991899999994
          ],
          [
            -5.7528650666666676,
            56.412308299999999
          ],
          [
            -5.7550253833333329,
            56.412338749999996
          ],
          [
            -5.7568460166666666,
            56.412462549999987
          ],
          [
            -5.7588353333333329,
            56.412576433333328
          ],
          [
            -5.760407333333335,
            56.4128562
          ],
          [
            -5.762065466666666,
            56.413419766666664
          ],
          [
            -5.7628021000000009,
            56.413657716666663
          ],
          [
            -5.7654206000000006,
            56.414264566666667
          ],
          [
            -5.7679487499999986,
            56.414825633333336
          ],
          [
            -5.7706524166666675,
            56.415426583333328
          ],
          [
            -5.7731408000000011,
            56.415980099999992
          ],
          [
            -5.7757826999999997,
            56.416521366666665
          ],
          [
            -5.7784557000000012,
            56.416580083333336
          ],
          [
            -5.7815612333333339,
            56.416505300000004
          ],
          [
            -5.7843396666666669,
            56.416841949999991
          ],
          [
            -5.7867157666666662,
            56.417516449999994
          ],
          [
            -5.7881868833333323,
            56.418029783333331
          ],
          [
            -5.7906485833333328,
            56.418603299999994
          ],
          [
            -5.7932196999999999,
            56.419277349999994
          ],
          [
            -5.7954029333333343,
            56.420093733333331
          ],
          [
            -5.7974921666666663,
            56.420870433333327
          ],
          [
            -5.7997206833333337,
            56.421703566666672
          ],
          [
            -5.8021855166666665,
            56.422628583333335
          ],
          [
            -5.8044759999999993,
            56.423767016666673
          ],
          [
            -5.8065479166666671,
            56.424891433333336
          ],
          [
            -5.8088360999999997,
            56.425660249999993
          ],
          [
            -5.8104725166666658,
            56.426074133333337
          ],
          [
            -5.8123148833333333,
            56.426522066666664
          ],
          [
            -5.8139214499999996,
            56.426943733333339
          ],
          [
            -5.8158887166666657,
            56.427706566666664
          ],
          [
            -5.8177880833333324,
            56.428682466666665
          ],
          [
            -5.8198052999999987,
            56.429468866666674
          ],
          [
            -5.8222430666666654,
            56.429685800000001
          ],
          [
            -5.824465749999999,
            56.429319749999998
          ],
          [
            -5.826128016666666,
            56.428523399999996
          ],
          [
            -5.827083599999999,
            56.427366366666668
          ],
          [
            -5.8272283333333323,
            56.426379299999994
          ],
          [
            -5.8273443999999994,
            56.425412866666669
          ],
          [
            -5.8281312166666659,
            56.423869166666663
          ],
          [
            -5.8295038499999992,
            56.422601083333333
          ],
          [
            -5.8312627166666671,
            56.421626683333336
          ],
          [
            -5.8335350999999998,
            56.420721366666669
          ],
          [
            -5.8356177166666665,
            56.419908233333338
          ],
          [
            -5.8372590000000004,
            56.419264250000005
          ],
          [
            -5.8387113666666668,
            56.418691350000003
          ],
          [
            -5.8407542333333327,
            56.417732383333338
          ],
          [
            -5.842118516666666,
            56.41670773333334
          ],
          [
            -5.8429986000000005,
            56.415828916666669
          ],
          [
            -5.8440183500000007,
            56.414704866666668
          ],
          [
            -5.8449228833333331,
            56.413591050000001
          ],
          [
            -5.8455405666666671,
            56.412653900000002
          ],
          [
            -5.8460135333333323,
            56.411789216666662
          ],
          [
            -5.8466249166666673,
            56.410389899999998
          ],
          [
            -5.8474798833333335,
            56.409190016666663
          ],
          [
            -5.8487027666666656,
            56.40819488333333
          ],
          [
            -5.8498085166666671,
            56.407493899999999
          ],
          [
            -5.8515198833333324,
            56.406564466666673
          ],
          [
            -5.8533810499999994,
            56.405923000000001
          ],
          [
            -5.8555397666666673,
            56.405477733333328
          ],
          [
            -5.8575431833333331,
            56.405121049999991
          ],
          [
            -5.8594782333333351,
            56.404778966666662
          ],
          [
            -5.8611745666666666,
            56.404600783333336
          ],
          [
            -5.8628715333333332,
            56.404581883333336
          ],
          [
            -5.865382883333333,
            56.404402499999996
          ],
          [
            -5.8669556999999992,
            56.403982116666675
          ],
          [
            -5.8694668999999999,
            56.403244950000001
          ],
          [
            -5.8721192666666653,
            56.402472566666667
          ],
          [
            -5.8744829666666663,
            56.40178370000001
          ],
          [
            -5.8771474666666652,
            56.401107500000009
          ],
          [
            -5.8799137666666654,
            56.400449233333333
          ],
          [
            -5.8828145666666671,
            56.399805600000001
          ],
          [
            -5.8854141000000011,
            56.399303350000004
          ],
          [
            -5.8879835666666667,
            56.398583049999992
          ],
          [
            -5.8898897833333326,
            56.397355883333333
          ],
          [
            -5.8905267000000006,
            56.39686141666666
          ],
          [
            -5.8916552166666669,
            56.396063683333324
          ],
          [
            -5.8932229500000002,
            56.395235183333334
          ],
          [
            -5.8946067333333341,
            56.394677533333329
          ],
          [
            -5.8968140500000006,
            56.394064833333339
          ],
          [
            -5.8989563999999994,
            56.393733083333338
          ],
          [
            -5.9012304166666674,
            56.39362358333333
          ],
          [
            -5.9032415166666663,
            56.393713866666666
          ],
          [
            -5.9049912333333339,
            56.393943116666662
          ],
          [
            -5.9070620000000007,
            56.394284933333331
          ],
          [
            -5.9096443666666669,
            56.394767166666668
          ],
          [
            -5.9119072166666662,
            56.395448333333327
          ],
          [
            -5.9139514999999996,
            56.3963866
          ],
          [
            -5.9160135333333335,
            56.397479833333328
          ],
          [
            -5.9188172500000009,
            56.397980199999999
          ],
          [
            -5.921438750000001,
            56.398422233333328
          ],
          [
            -5.9237667333333341,
            56.399199966666664
          ],
          [
            -5.9257847666666663,
            56.400344383333334
          ],
          [
            -5.9279641333333339,
            56.401648833333333
          ],
          [
            -5.9299195999999998,
            56.402804116666658
          ],
          [
            -5.932390400000001,
            56.403523233333331
          ],
          [
            -5.9351072666666669,
            56.4041128
          ],
          [
            -5.937368300000001,
            56.404598500000006
          ],
          [
            -5.9395423833333334,
            56.40487756666667
          ],
          [
            -5.9412869333333331,
            56.404914766666657
          ],
          [
            -5.9436743833333328,
            56.404877366666675
          ],
          [
            -5.9465962666666679,
            56.404834733333338
          ],
          [
            -5.9497594499999993,
            56.404801799999994
          ],
          [
            -5.9497594499999993,
            56.404801799999994
          ],
          [
            -5.9521768000000002,
            56.404771783333338
          ],
          [
            -5.9538762666666658,
            56.404753266666667
          ],
          [
            -5.9563996166666664,
            56.404716400000012
          ],
          [
            -5.9592759333333341,
            56.404691333333332
          ],
          [
            -5.9613481666666663,
            56.404541083333335
          ],
          [
            -5.9637653833333326,
            56.403682333333336
          ],
          [
            -5.966104950000001,
            56.402581899999994
          ],
          [
            -5.9680502333333347,
            56.401666416666664
          ],
          [
            -5.9702660500000002,
            56.400632399999999
          ],
          [
            -5.9719063500000003,
            56.399789399999996
          ],
          [
            -5.9729326833333332,
            56.39882304999999
          ],
          [
            -5.9734605666666667,
            56.397403500000003
          ],
          [
            -5.9736126333333326,
            56.396080550000001
          ],
          [
            -5.9737566999999991,
            56.394739433333342
          ],
          [
            -5.9744085000000009,
            56.393530566666669
          ],
          [
            -5.9756576833333321,
            56.392782566666661
          ],
          [
            -5.9766682333333332,
            56.3920265
          ],
          [
            -5.9770849499999992,
            56.391152700000006
          ],
          [
            -5.9773980166666663,
            56.390221283333325
          ],
          [
            -5.9777573333333338,
            56.389187999999997
          ],
          [
            -5.9781917166666672,
            56.387971899999997
          ],
          [
            -5.9783869570614776,
            56.387481107557015
          ],
          [
            -5.9784822648299301,
            56.386590113623306
          ],
          [
            -5.9792665999999999,
            56.385311283333344
          ],
          [
            -5.9807817499999993,
            56.384443899999994
          ],
          [
            -5.9820925833333343,
            56.383743066666661
          ],
          [
            -5.983907433333334,
            56.383375283333329
          ],
          [
            -5.9860975333333331,
            56.383400933333334
          ],
          [
            -5.9885823499999997,
            56.383373766666665
          ],
          [
            -5.9907196166666665,
            56.382903583333338
          ],
          [
            -5.9929927166666666,
            56.382713883333331
          ],
          [
            -5.9945846000000005,
            56.382899399999999
          ],
          [
            -5.9969381666666663,
            56.382806183333329
          ],
          [
            -5.999025183333333,
            56.382321866666672
          ],
          [
            -6.0006539166666659,
            56.381507183333333
          ],
          [
            -6.0015137666666671,
            56.380499049999997
          ],
          [
            -6.0019111666666678,
            56.37955276666667
          ],
          [
            -6.0026225666666679,
            56.378642450000008
          ],
          [
            -6.0031403499999989,
            56.377772800000002
          ],
          [
            -6.0040749666666668,
            56.376749100000005
          ],
          [
            -6.0049617833333331,
            56.375742466666665
          ],
          [
            -6.0066394166666672,
            56.374924733333337
          ],
          [
            -6.008115283333332,
            56.374305000000007
          ],
          [
            -6.0093121666666667,
            56.373655383333336
          ],
          [
            -6.0101945333333333,
            56.372859516666665
          ],
          [
            -6.0113300000000001,
            56.371969
          ],
          [
            -6.0129315000000005,
            56.371167433333326
          ],
          [
            -6.0134510499999996,
            56.370509599999998
          ],
          [
            -6.0138947833333338,
            56.369943300000003
          ],
          [
            -6.0146070000000007,
            56.36906368333333
          ],
          [
            -6.0154389999999998,
            56.367991033333325
          ],
          [
            -6.0164324012175738,
            56.36715091435476
          ],
          [
            -6.0174428499999992,
            56.366290116666676
          ],
          [
            -6.018339666666666,
            56.365461033333332
          ],
          [
            -6.0191301833333339,
            56.36466433333333
          ],
          [
            -6.020780733333333,
            56.364489616666667
          ],
          [
            -6.0223820786639752,
            56.364334870145981
          ],
          [
            -6.0242958446169004,
            56.364211329537234
          ],
          [
            -6.0264131833333332,
            56.364025550000001
          ],
          [
            -6.0280989333333332,
            56.363779216666671
          ],
          [
            -6.0300507333333329,
            56.363373900000006
          ],
          [
            -6.0320511166666657,
            56.363103933333335
          ],
          [
            -6.0336087833333334,
            56.362832499999996
          ],
          [
            -6.0356502833333332,
            56.362575033333336
          ],
          [
            -6.0375081666666661,
            56.362342466666661
          ],
          [
            -6.0391519333333328,
            56.361947033333337
          ],
          [
            -6.0408001333333319,
            56.361489083333332
          ],
          [
            -6.042119183333333,
            56.36086408333334
          ],
          [
            -6.0431859166666655,
            56.360105133333334
          ],
          [
            -6.0447614666666674,
            56.359835966666665
          ],
          [
            -6.0468226166666659,
            56.359692466666665
          ],
          [
            -6.0484525666666658,
            56.359534600000011
          ],
          [
            -6.0502230500000005,
            56.359262166666667
          ],
          [
            -6.0520402833333335,
            56.358720683333331
          ],
          [
            -6.0536444666666664,
            56.358361133333332
          ],
          [
            -6.0552189666666667,
            56.358027199999995
          ],
          [
            -6.0569112999999994,
            56.357634999999995
          ],
          [
            -6.0584923999999996,
            56.357278883333322
          ],
          [
            -6.0584923999999996,
            56.357278883333322
          ],
          [
            -6.0600086333333323,
            56.356919416666678
          ],
          [
            -6.0621436833333329,
            56.356626866666659
          ],
          [
            -6.0644503000000007,
            56.356105116666669
          ],
          [
            -6.0663830166666664,
            56.355677433333334
          ],
          [
            -6.0679809666666662,
            56.355332433333324
          ],
          [
            -6.069490216666666,
            56.354994616666666
          ],
          [
            -6.0710146333333341,
            56.35465451666667
          ],
          [
            -6.0725909166666669,
            56.354277749999994
          ],
          [
            -6.0741151436954395,
            56.353768977898099
          ],
          [
            -6.0752948500000006,
            56.353129350000003
          ],
          [
            -6.0775201333333326,
            56.352860783333334
          ],
          [
            -6.0796427166666662,
            56.352700949999992
          ],
          [
            -6.0817459500000002,
            56.35237226666667
          ],
          [
            -6.0826805666666672,
            56.352059333333337
          ],
          [
            -6.0836951333333333,
            56.351701533333333
          ],
          [
            -6.0852704666666666,
            56.35105466666667
          ],
          [
            -6.0864476833333336,
            56.350412383333328
          ],
          [
            -6.0868601333333325,
            56.349391883333325
          ],
          [
            -6.0881486999999996,
            56.348598049999993
          ],
          [
            -6.0884261666666664,
            56.347519833333337
          ],
          [
            -6.0895260171423446,
            56.346438911174047
          ],
          [
            -6.0915547706031461,
            56.345828146509319
          ],
          [
            -6.0938338834464849,
            56.345412532082456
          ],
          [
            -6.0962515833333324,
            56.34509589999999
          ],
          [
            -6.0983895666666665,
            56.344951700000003
          ],
          [
            -6.0999887833333339,
            56.344113399999998
          ],
          [
            -6.1012977341400507,
            56.343241559163559
          ],
          [
            -6.1027457394927636,
            56.342300969727241
          ],
          [
            -6.1047329074196375,
            56.342033945681784
          ],
          [
            -6.1065260634383796,
            56.342676863261858
          ],
          [
            -6.1083600833333334,
            56.343461866666672
          ],
          [
            -6.1102697347277495,
            56.343826672805967
          ],
          [
            -6.1125344676690379,
            56.34347288823809
          ],
          [
            -6.114585867689402,
            56.343432114262839
          ],
          [
            -6.1168631814955559,
            56.343626699751766
          ],
          [
            -6.1193367000000007,
            56.343681233333335
          ],
          [
            -6.1214230499999998,
            56.34361976666667
          ],
          [
            -6.122866833333334,
            56.342885883333338
          ],
          [
            -6.1241907768901083,
            56.34200339368585
          ],
          [
            -6.1251576111595396,
            56.341399501093775
          ],
          [
            -6.1266415696976084,
            56.340584073443409
          ],
          [
            -6.1282811315720238,
            56.339848685454555
          ],
          [
            -6.1302758934878261,
            56.33978296077963
          ],
          [
            -6.132141016666667,
            56.339824083333326
          ],
          [
            -6.1337743666666675,
            56.339936349999995
          ],
          [
            -6.1359130999999989,
            56.339904116666666
          ],
          [
            -6.1379068666666665,
            56.339387016666663
          ],
          [
            -6.139329533333334,
            56.338717883333324
          ],
          [
            -6.1395728000000007,
            56.33778521666666
          ],
          [
            -6.1400609184136412,
            56.336672511405283
          ],
          [
            -6.1420241791629362,
            56.33602148125653
          ],
          [
            -6.1443576166666674,
            56.336028133333336
          ],
          [
            -6.1463217000000006,
            56.336636433333325
          ],
          [
            -6.1487467333586459,
            56.336484528810757
          ],
          [
            -6.1511550669844741,
            56.336248406774637
          ],
          [
            -6.153605309845676,
            56.33648628612287
          ],
          [
            -6.1558139359003077,
            56.336536871162465
          ],
          [
            -6.1578853842480639,
            56.336344415003623
          ],
          [
            -6.1602424000000005,
            56.336392800000006
          ],
          [
            -6.1626242333333341,
            56.336228183333326
          ],
          [
            -6.1650566666666675,
            56.335714633333332
          ],
          [
            -6.1669523333333345,
            56.334897066666663
          ],
          [
            -6.1691228666666662,
            56.33437936666666
          ],
          [
            -6.1714931000000002,
            56.333882399999993
          ],
          [
            -6.1737101833333323,
            56.33340938333334
          ],
          [
            -6.1758722333333331,
            56.332904599999999
          ],
          [
            -6.1780463499999998,
            56.332445683333326
          ],
          [
            -6.1798843999999997,
            56.332028433333335
          ],
          [
            -6.1824298999999998,
            56.331491833333331
          ],
          [
            -6.18485,
            56.331103566666663
          ],
          [
            -6.1871963333333326,
            56.330753666666666
          ],
          [
            -6.1897871333333345,
            56.330841016666668
          ],
          [
            -6.1920799166666667,
            56.330774050000002
          ],
          [
            -6.1945736333333326,
            56.330315033333335
          ],
          [
            -6.1967020666666679,
            56.329787533333331
          ],
          [
            -6.1984075166666663,
            56.328880683333338
          ],
          [
            -6.2000454166666676,
            56.327976166666666
          ],
          [
            -6.2017616999999996,
            56.327203366666659
          ],
          [
            -6.2035635166666667,
            56.326249333333337
          ],
          [
            -6.2051630833333338,
            56.325358000000001
          ],
          [
            -6.2064028333333336,
            56.324668933333335
          ],
          [
            -6.2080936333333341,
            56.323823433333331
          ],
          [
            -6.2100999166666666,
            56.322946033333331
          ],
          [
            -6.2121110499999999,
            56.322392299999997
          ],
          [
            -6.2140912999999989,
            56.321919599999994
          ],
          [
            -6.2160002000000008,
            56.321250583333331
          ],
          [
            -6.2174087467654431,
            56.320279809140281
          ],
          [
            -6.2185543333333326,
            56.319377766666662
          ],
          [
            -6.2195098833333349,
            56.318641933333339
          ],
          [
            -6.2207049966800962,
            56.317753892734558
          ],
          [
            -6.2217957487538227,
            56.31697937995925
          ],
          [
            -6.2230234789276784,
            56.316311840964453
          ],
          [
            -6.2244356333333339,
            56.315781666666659
          ],
          [
            -6.2266442333333334,
            56.315660016666669
          ],
          [
            -6.2287057500000005,
            56.316066233333338
          ],
          [
            -6.2307004333333333,
            56.316724883333343
          ],
          [
            -6.232263866666667,
            56.317178416666671
          ],
          [
            -6.2339033500000003,
            56.317071733333329
          ],
          [
            -6.2345445166666673,
            56.316184549999996
          ],
          [
            -6.2360902946739847,
            56.315775272430486
          ],
          [
            -6.2378912499999997,
            56.315986050000006
          ],
          [
            -6.2393671166666671,
            56.316958883333335
          ],
          [
            -6.2407585500000007,
            56.317844566666658
          ],
          [
            -6.2423579,
            56.318471433333322
          ],
          [
            -6.2437947333333339,
            56.318995333333334
          ],
          [
            -6.2458196666666677,
            56.318842533333324
          ],
          [
            -6.2475525000000003,
            56.318474950000002
          ],
          [
            -6.248674164928504,
            56.317758139862413
          ],
          [
            -6.2489974500000001,
            56.316689366666665
          ],
          [
            -6.2501652833333328,
            56.315803850000002
          ],
          [
            -6.2510908833333341,
            56.314696599999991
          ],
          [
            -6.2522742666666655,
            56.313910666666665
          ],
          [
            -6.2531769999999991,
            56.313925199999993
          ],
          [
            -6.2542340166666675,
            56.314096883333335
          ],
          [
            -6.2557822166666677,
            56.315115299999995
          ],
          [
            -6.2574195499999989,
            56.316164300000011
          ],
          [
            -6.2590988666666663,
            56.316571850000003
          ],
          [
            -6.2614672833333334,
            56.317006866666667
          ],
          [
            -6.2637308666666671,
            56.317355516666673
          ],
          [
            -6.2662357499999999,
            56.317225266666668
          ],
          [
            -6.2684328999999988,
            56.317093266666674
          ],
          [
            -6.2709603999999999,
            56.317204300000007
          ],
          [
            -6.2732614999999985,
            56.317800516666658
          ],
          [
            -6.2752676833333334,
            56.318414583333336
          ],
          [
            -6.277725349999999,
            56.318929216666653
          ],
          [
            -6.2799207166666662,
            56.319346716666665
          ],
          [
            -6.2817857999999998,
            56.319741750000006
          ],
          [
            -6.2832778500000002,
            56.320123883333324
          ],
          [
            -6.2850412500000008,
            56.320452899999992
          ],
          [
            -6.2870612499999989,
            56.320921766666665
          ],
          [
            -6.2890251666666659,
            56.321709566666669
          ],
          [
            -6.2911312500000003,
            56.322505416666672
          ],
          [
            -6.2930990333333341,
            56.323071866666666
          ],
          [
            -6.2946515666666656,
            56.323501533333335
          ],
          [
            -6.2969134166666665,
            56.323952666666671
          ],
          [
            -6.2992352499999997,
            56.324226166666662
          ],
          [
            -6.3014415500000007,
            56.324484283333334
          ],
          [
            -6.3024483999999985,
            56.324604183333335
          ],
          [
            -6.3034071999999997,
            56.324714033333343
          ],
          [
            -6.3054097666666662,
            56.324816383333335
          ],
          [
            -6.3073766999999989,
            56.324718433333331
          ],
          [
            -6.3094940666666668,
            56.324587733333324
          ],
          [
            -6.3116273000000005,
            56.324614583333336
          ],
          [
            -6.3133708333333329,
            56.324668733333326
          ],
          [
            -6.3151242333333339,
            56.324697133333331
          ],
          [
            -6.3168327833333331,
            56.324724733333341
          ],
          [
            -6.3189701333388335,
            56.324722406938662
          ],
          [
            -6.3214286315790709,
            56.324772399014861
          ],
          [
            -6.3236478239563194,
            56.324799096508372
          ],
          [
            -6.3257349343416429,
            56.324344416970099
          ],
          [
            -6.3277564413091598,
            56.324053934164617
          ],
          [
            -6.329542257044344,
            56.3242627095904
          ],
          [
            -6.3314820711169899,
            56.324502570156298
          ],
          [
            -6.3331937023186686,
            56.324702026614695
          ],
          [
            -6.3352357939327435,
            56.324818314524002
          ],
          [
            -6.3372486104180004,
            56.324977924520674
          ],
          [
            -6.3388840901153856,
            56.325074493795704
          ],
          [
            -6.3410043345924363,
            56.325058714720612
          ],
          [
            -6.3430453190434477,
            56.325049825449995
          ],
          [
            -6.3450362118123094,
            56.325051890391485
          ],
          [
            -6.3473167380999458,
            56.325150814822827
          ],
          [
            -6.3495380100786045,
            56.324921504002639
          ],
          [
            -6.3513892795463844,
            56.324611899228437
          ],
          [
            -6.3536303063924819,
            56.324191693810313
          ],
          [
            -6.3560277000704746,
            56.323858046431809
          ],
          [
            -6.3584693933038645,
            56.323949358618542
          ],
          [
            -6.3604071021670405,
            56.324336741469033
          ],
          [
            -6.3620334165773329,
            56.324710590438528
          ],
          [
            -6.3637774855549214,
            56.324871846197958
          ],
          [
            -6.3653043474575677,
            56.3244716205784
          ],
          [
            -6.3658942993227194,
            56.323612270337087
          ],
          [
            -6.3665651892874564,
            56.32276350476738
          ],
          [
            -6.3673885233139638,
            56.321933251242285
          ],
          [
            -6.3681184855864252,
            56.321040403251068
          ],
          [
            -6.3687071316811803,
            56.319960150351733
          ],
          [
            -6.3682236712797193,
            56.318762892667905
          ],
          [
            -6.3676683969622729,
            56.317696828855581
          ],
          [
            -6.3668608085339695,
            56.316735574803026
          ],
          [
            -6.3660638588843499,
            56.315829395093637
          ],
          [
            -6.3650879003527958,
            56.315032007051542
          ],
          [
            -6.3644003972893852,
            56.314146102531581
          ],
          [
            -6.3648241239134844,
            56.313218514970785
          ],
          [
            -6.3647769010039843,
            56.312288292540771
          ],
          [
            -6.3643595548606342,
            56.311355207269173
          ],
          [
            -6.3644489948757652,
            56.310762750747223
          ],
          [
            -6.3648492386596942,
            56.310119163868706
          ],
          [
            -6.3633599557833342,
            56.308195533669881
          ],
          [
            -6.3671096922207022,
            56.305907348559792
          ],
          [
            -6.3661036367899504,
            56.306359138984959
          ]
        ],
        "type" : "LineString"
      },
      "properties" : {
        "start" : "2026-05-25T22:00:00Z",
        "source" : "Geory 5.3.2",
        "type" : "route",
        "end" : "2026-05-26T21:59:59Z",
        "device" : "B9E47AEB-E54C-4563-96B6-06995DD4BC56 (iPhone 16 Pro)"
      }
    }
  ]
}