{
  "features" : [
    {
      "properties" : {
        "duration" : 49918.299226284027,
        "device" : "B9E47AEB-E54C-4563-96B6-06995DD4BC56 (iPhone 16 Pro)",
        "source" : "Geory 5.3.2",
        "weather" : "Überwiegend bewölkt (11,1 °C)",
        "arrival" : "2026-04-25T20:15:55Z",
        "type" : "visit",
        "address" : "North Inishowen Coast SAC, County Donegal, Irland",
        "timestamp" : "2026-04-25T20:15:55Z",
        "rating" : 0,
        "departure" : "2026-04-26T10:07:53Z"
      },
      "type" : "Feature",
      "geometry" : {
        "coordinates" : [
          -7.3733852430354636,
          55.310701898486442
        ],
        "type" : "Point"
      }
    },
    {
      "geometry" : {
        "type" : "Point",
        "coordinates" : [
          -7.373278647540161,
          55.315470618561953
        ]
      },
      "type" : "Feature",
      "properties" : {
        "device" : "B9E47AEB-E54C-4563-96B6-06995DD4BC56 (iPhone 16 Pro)",
        "duration" : 3206.0001630783081,
        "address" : "County Donegal, F93 RV09, Irland",
        "type" : "visit",
        "departure" : "2026-04-26T11:01:20Z",
        "weather" : "Bedeckter Himmel (12,0 °C)",
        "arrival" : "2026-04-26T10:07:54Z",
        "rating" : 0,
        "timestamp" : "2026-04-26T10:07:54Z",
        "source" : "Geory 5.3.2"
      }
    },
    {
      "type" : "Feature",
      "geometry" : {
        "coordinates" : [
          -7.3920735312302739,
          55.280774429885696
        ],
        "type" : "Point"
      },
      "properties" : {
        "weather" : "Bedeckter Himmel (12,7 °C)",
        "departure" : "2026-04-26T12:30:36Z",
        "rating" : 0,
        "address" : "3 Rossaor Cottages, Ballyliffin, County Donegal, F93 H6WR, Irland",
        "arrival" : "2026-04-26T11:14:17Z",
        "duration" : 4579.694650888443,
        "timestamp" : "2026-04-26T11:14:17Z",
        "device" : "B9E47AEB-E54C-4563-96B6-06995DD4BC56 (iPhone 16 Pro)",
        "type" : "visit",
        "source" : "Geory 5.3.2"
      }
    },
    {
      "type" : "Feature",
      "properties" : {
        "type" : "visit",
        "rating" : 0,
        "source" : "Geory 5.3.2",
        "departure" : "2026-04-26T13:31:50Z",
        "timestamp" : "2026-04-26T12:54:52Z",
        "address" : "Amazing Grace Park, Inishowen Tourist Information, Railway Road, Buncrana, County Donegal, F93 V0AC, Irland",
        "weather" : "Bedeckter Himmel (14,0 °C)",
        "duration" : 2217.9944710731506,
        "device" : "B9E47AEB-E54C-4563-96B6-06995DD4BC56 (iPhone 16 Pro)",
        "arrival" : "2026-04-26T12:54:52Z"
      },
      "geometry" : {
        "coordinates" : [
          -7.4576083430838791,
          55.128064008025966
        ],
        "type" : "Point"
      }
    },
    {
      "type" : "Feature",
      "geometry" : {
        "type" : "Point",
        "coordinates" : [
          -7.7004165719951336,
          54.94444655890306
        ]
      },
      "properties" : {
        "departure" : "2026-04-26T14:26:38Z",
        "duration" : 1345.0030100345612,
        "rating" : 0,
        "source" : "Geory 5.3.2",
        "timestamp" : "2026-04-26T14:04:13Z",
        "weather" : "Bedeckter Himmel (16,2 °C)",
        "address" : "Bonagee, Letterkenny, County Donegal, F92 KWX4, Irland",
        "arrival" : "2026-04-26T14:04:13Z",
        "type" : "visit",
        "device" : "B9E47AEB-E54C-4563-96B6-06995DD4BC56 (iPhone 16 Pro)"
      }
    },
    {
      "properties" : {
        "weather" : "Überwiegend bewölkt (10,0 °C)",
        "arrival" : "2026-04-26T15:10:53Z",
        "device" : "B9E47AEB-E54C-4563-96B6-06995DD4BC56 (iPhone 16 Pro)",
        "timestamp" : "2026-04-26T15:10:53Z",
        "rating" : 0,
        "source" : "Geory 5.3.2",
        "departure" : "2026-04-26T15:57:36Z",
        "type" : "visit",
        "duration" : 2803.6993930339813,
        "address" : "Ballyhoorisky Point To Fanad Head SAC, County Donegal, Irland"
      },
      "geometry" : {
        "coordinates" : [
          -7.7276674051186616,
          55.247076359320559
        ],
        "type" : "Point"
      },
      "type" : "Feature"
    },
    {
      "geometry" : {
        "type" : "Point",
        "coordinates" : [
          -7.725759977435918,
          55.247314154846364
        ]
      },
      "properties" : {
        "departure" : "2026-04-26T19:25:23Z",
        "device" : "B9E47AEB-E54C-4563-96B6-06995DD4BC56 (iPhone 16 Pro)",
        "type" : "visit",
        "timestamp" : "2026-04-26T16:26:51Z",
        "weather" : "Überwiegend bewölkt (10,1 °C)",
        "rating" : 0,
        "address" : "Ballyhoorisky Point To Fanad Head SAC, County Donegal, Irland",
        "source" : "Geory 5.3.2",
        "duration" : 10711.291396856308,
        "arrival" : "2026-04-26T16:26:51Z"
      },
      "type" : "Feature"
    },
    {
      "type" : "Feature",
      "geometry" : {
        "type" : "Point",
        "coordinates" : [
          -7.7222707268510709,
          55.247413401503444
        ]
      },
      "properties" : {
        "source" : "Geory 5.3.2",
        "arrival" : "2026-04-26T19:28:01Z",
        "rating" : 0,
        "address" : "Ballyhoorisky Point To Fanad Head SAC, Irland",
        "weather" : "Aufgelockert bewölkt (10,4 °C)",
        "type" : "visit",
        "timestamp" : "2026-04-26T19:28:01Z",
        "duration" : 1006.9990563392639,
        "departure" : "2026-04-26T19:44:48Z",
        "device" : "B9E47AEB-E54C-4563-96B6-06995DD4BC56 (iPhone 16 Pro)"
      }
    },
    {
      "geometry" : {
        "type" : "Point",
        "coordinates" : [
          -7.7198111025374692,
          55.246945473065587
        ]
      },
      "properties" : {
        "departure" : "2026-04-26T20:29:42Z",
        "rating" : 0,
        "address" : "Ballyhoorisky Point To Fanad Head SAC, Irland",
        "source" : "Geory 5.3.2",
        "type" : "visit",
        "duration" : 2693.0009019374847,
        "arrival" : "2026-04-26T19:44:49Z",
        "device" : "B9E47AEB-E54C-4563-96B6-06995DD4BC56 (iPhone 16 Pro)",
        "weather" : "Aufgelockert bewölkt (10,4 °C)",
        "timestamp" : "2026-04-26T19:44:49Z"
      },
      "type" : "Feature"
    },
    {
      "properties" : {
        "rating" : 0,
        "duration" : 53773.00060915947,
        "arrival" : "2026-04-26T20:33:48Z",
        "timestamp" : "2026-04-26T20:33:48Z",
        "source" : "Geory 5.3.2",
        "departure" : "2026-04-27T11:30:02Z",
        "device" : "B9E47AEB-E54C-4563-96B6-06995DD4BC56 (iPhone 16 Pro)",
        "address" : "Ballyhoorisky Point To Fanad Head SAC, County Donegal, Irland",
        "weather" : "Aufgelockert bewölkt (10,2 °C)",
        "type" : "visit"
      },
      "type" : "Feature",
      "geometry" : {
        "type" : "Point",
        "coordinates" : [
          -7.7277422004199234,
          55.247143961801953
        ]
      }
    },
    {
      "properties" : {
        "device" : "B9E47AEB-E54C-4563-96B6-06995DD4BC56 (iPhone 16 Pro)",
        "start" : "2026-04-25T22:00:00Z",
        "source" : "Geory 5.3.2",
        "end" : "2026-04-26T21:59:59Z",
        "type" : "route"
      },
      "type" : "Feature",
      "geometry" : {
        "type" : "LineString",
        "coordinates" : [
          [
            -7.7277422004199234,
            55.247143961801953
          ],
          [
            -7.7260094159439827,
            55.247214427278223
          ],
          [
            -7.7244817572974904,
            55.246997595530104
          ],
          [
            -7.722035859765997,
            55.246609295807659
          ],
          [
            -7.7198111025374692,
            55.246945473065587
          ],
          [
            -7.7222707268510709,
            55.247413401503444
          ],
          [
            -7.725759977435918,
            55.247314154846364
          ],
          [
            -7.7221688021584241,
            55.246746301158268
          ],
          [
            -7.7195519045777523,
            55.246440070213076
          ],
          [
            -7.7181253910174981,
            55.246401490653923
          ],
          [
            -7.7165619731243495,
            55.246539911205772
          ],
          [
            -7.7141411205982786,
            55.246475392087163
          ],
          [
            -7.711216869895396,
            55.246868936861048
          ],
          [
            -7.71230015733871,
            55.246790157527272
          ],
          [
            -7.7136433721331787,
            55.2466700355371
          ],
          [
            -7.7163535589978141,
            55.246531575345166
          ],
          [
            -7.7179242787273443,
            55.246588528385573
          ],
          [
            -7.7201637934010794,
            55.246690010725601
          ],
          [
            -7.7210737175249617,
            55.246785078202542
          ],
          [
            -7.7226109880902332,
            55.246979265249252
          ],
          [
            -7.7276674051186616,
            55.247076359320559
          ],
          [
            -7.724918633333334,
            55.246070899999992
          ],
          [
            -7.7224616333333342,
            55.245433383333328
          ],
          [
            -7.7197239166666671,
            55.244861166666666
          ],
          [
            -7.7174751833333328,
            55.244411450000008
          ],
          [
            -7.7149420333333332,
            55.244461016666676
          ],
          [
            -7.7125397333333332,
            55.244612066666669
          ],
          [
            -7.7103933833333338,
            55.244916883333332
          ],
          [
            -7.7081697666666669,
            55.244864300000003
          ],
          [
            -7.7061990166666661,
            55.24484635000001
          ],
          [
            -7.7042656803108702,
            55.244879670682614
          ],
          [
            -7.7026237209445236,
            55.245085795929988
          ],
          [
            -7.701744399999999,
            55.244338933333331
          ],
          [
            -7.7015239166666669,
            55.243291933333332
          ],
          [
            -7.7012185333333338,
            55.241976283333329
          ],
          [
            -7.7002520000000008,
            55.24099888333334
          ],
          [
            -7.698889679211633,
            55.240266994295794
          ],
          [
            -7.6973758601470328,
            55.239262902751705
          ],
          [
            -7.6966919999999996,
            55.238155683333332
          ],
          [
            -7.6960850166666663,
            55.236958350000002
          ],
          [
            -7.6965360499999989,
            55.235909866666667
          ],
          [
            -7.6965091992661634,
            55.234578878233215
          ],
          [
            -7.6965135166666663,
            55.233673266666663
          ],
          [
            -7.6967654333333337,
            55.23312121666666
          ],
          [
            -7.6975550701848441,
            55.231759873008428
          ],
          [
            -7.699052607790704,
            55.230236384479582
          ],
          [
            -7.6992316000000001,
            55.228746450000003
          ],
          [
            -7.6992048333333321,
            55.227411849999996
          ],
          [
            -7.6996367999999995,
            55.226037700000006
          ],
          [
            -7.6997724666666665,
            55.224635266666674
          ],
          [
            -7.7003226833333338,
            55.223159349999996
          ],
          [
            -7.7020733864788005,
            55.222066782122148
          ],
          [
            -7.7032780999999995,
            55.220547633333332
          ],
          [
            -7.7032860666666672,
            55.219029016666674
          ],
          [
            -7.7025081999999996,
            55.217526699999993
          ],
          [
            -7.7020667833333327,
            55.215875216666674
          ],
          [
            -7.7024179999999998,
            55.214335466666668
          ],
          [
            -7.7020780973713974,
            55.213024811810989
          ],
          [
            -7.7000949725944974,
            55.212040702202337
          ],
          [
            -7.698756278544522,
            55.210787549543966
          ],
          [
            -7.6997128333333329,
            55.209550366666662
          ],
          [
            -7.69930621009338,
            55.2081756159698
          ],
          [
            -7.6979543333333327,
            55.2069969
          ],
          [
            -7.6979939166666664,
            55.205477716666671
          ],
          [
            -7.6970182500000002,
            55.203936266666673
          ],
          [
            -7.6962491000000002,
            55.202444299999996
          ],
          [
            -7.6952269666666666,
            55.201038666666669
          ],
          [
            -7.6942316116339819,
            55.199820665681045
          ],
          [
            -7.6927473730625007,
            55.199051695902099
          ],
          [
            -7.691792733333334,
            55.197883883333333
          ],
          [
            -7.6910834333333336,
            55.196787416666659
          ],
          [
            -7.6902129333333331,
            55.195329116666663
          ],
          [
            -7.6888535875566841,
            55.193937170079984
          ],
          [
            -7.6878145166666663,
            55.192691716666666
          ],
          [
            -7.6875427333333333,
            55.191674533333327
          ],
          [
            -7.6872223000000002,
            55.190771250000004
          ],
          [
            -7.686493866666666,
            55.189253950000001
          ],
          [
            -7.6857760833333337,
            55.187743450000006
          ],
          [
            -7.68502945,
            55.18627746666666
          ],
          [
            -7.6843121333333331,
            55.184650499999996
          ],
          [
            -7.6838075833333335,
            55.183480083333343
          ],
          [
            -7.683821,
            55.18256408333334
          ],
          [
            -7.6823470625534416,
            55.181568552783382
          ],
          [
            -7.6810302337164877,
            55.180418307809788
          ],
          [
            -7.6805736166666669,
            55.178934833333344
          ],
          [
            -7.6803368999999995,
            55.177309383333338
          ],
          [
            -7.6795964374078993,
            55.175820041554388
          ],
          [
            -7.6787104343886332,
            55.174360064053324
          ],
          [
            -7.6775903050316385,
            55.172914775966696
          ],
          [
            -7.6764900478422362,
            55.171434425883476
          ],
          [
            -7.6753475987494788,
            55.169869766995376
          ],
          [
            -7.6741103500000012,
            55.168266533333323
          ],
          [
            -7.6731247833333329,
            55.166803733333339
          ],
          [
            -7.6721507499999984,
            55.1653369
          ],
          [
            -7.6713577500000003,
            55.164179299999994
          ],
          [
            -7.6703006491935115,
            55.163290664741318
          ],
          [
            -7.6687364924373567,
            55.162491957361794
          ],
          [
            -7.6674254456320243,
            55.161537763465404
          ],
          [
            -7.6664318345582689,
            55.16066905643779
          ],
          [
            -7.6650906230848515,
            55.160043000340259
          ],
          [
            -7.6643790428792746,
            55.158719738965132
          ],
          [
            -7.6646349666666671,
            55.157732333333328
          ],
          [
            -7.6655692333333336,
            55.156242266666666
          ],
          [
            -7.6672183499999997,
            55.154741733333331
          ],
          [
            -7.667946549999999,
            55.15329546666667
          ],
          [
            -7.6684562833333336,
            55.151716950000008
          ],
          [
            -7.6682740666666671,
            55.150257116666673
          ],
          [
            -7.6688261166666658,
            55.148817700000002
          ],
          [
            -7.6683914499999988,
            55.147079183333332
          ],
          [
            -7.6682627999999999,
            55.145541616666669
          ],
          [
            -7.6682346333333324,
            55.144064899999996
          ],
          [
            -7.6686622333333334,
            55.142644033333326
          ],
          [
            -7.6684745999999997,
            55.14123626666666
          ],
          [
            -7.6679322267628516,
            55.140125634507086
          ],
          [
            -7.6666419174567961,
            55.139182687012507
          ],
          [
            -7.6663925982905106,
            55.13818411870632
          ],
          [
            -7.667816366666667,
            55.137193550000006
          ],
          [
            -7.6697699000000004,
            55.135900233333331
          ],
          [
            -7.6723993833333335,
            55.134752250000005
          ],
          [
            -7.6746002166666667,
            55.133219133333327
          ],
          [
            -7.675552866666667,
            55.131536466666667
          ],
          [
            -7.6768180666666677,
            55.129888333333341
          ],
          [
            -7.6786079166666656,
            55.128142666666655
          ],
          [
            -7.6786079166666656,
            55.128142666666655
          ],
          [
            -7.6798775833333321,
            55.126326183333333
          ],
          [
            -7.6814954333333327,
            55.124410516666664
          ],
          [
            -7.6834104166666677,
            55.122604500000001
          ],
          [
            -7.6851253500000007,
            55.121051566666665
          ],
          [
            -7.6867480166666668,
            55.119566600000013
          ],
          [
            -7.688172933333334,
            55.118104849999995
          ],
          [
            -7.6881864666666671,
            55.116305449999999
          ],
          [
            -7.688105133333333,
            55.114594466666659
          ],
          [
            -7.6890930500000003,
            55.113013766666668
          ],
          [
            -7.6890195333333331,
            55.111298950000005
          ],
          [
            -7.6879720166666674,
            55.109502949999992
          ],
          [
            -7.6865310833333336,
            55.108060400000006
          ],
          [
            -7.6867126000000008,
            55.106221750000003
          ],
          [
            -7.6879855166666662,
            55.104773216666672
          ],
          [
            -7.6881517333333331,
            55.102923066666669
          ],
          [
            -7.6882834666666673,
            55.101208216666663
          ],
          [
            -7.6880433333333329,
            55.099461450000007
          ],
          [
            -7.6885139166666665,
            55.097604583333336
          ],
          [
            -7.6886678333333336,
            55.095899033333332
          ],
          [
            -7.6875435000000003,
            55.09424138333334
          ],
          [
            -7.68618545,
            55.09245756666666
          ],
          [
            -7.6850773666666665,
            55.090795549999996
          ],
          [
            -7.6860074499999991,
            55.088993366666664
          ],
          [
            -7.6863286000000004,
            55.087242733333341
          ],
          [
            -7.686303783333333,
            55.085574416666667
          ],
          [
            -7.6862800166666663,
            55.083933200000004
          ],
          [
            -7.686701366666667,
            55.082733833333329
          ],
          [
            -7.6861299166666655,
            55.081221666666671
          ],
          [
            -7.6844201166666668,
            55.080009433333331
          ],
          [
            -7.6822468833333328,
            55.078485249999993
          ],
          [
            -7.6803573500000004,
            55.077120383333337
          ],
          [
            -7.6796412166666661,
            55.075534283333333
          ],
          [
            -7.6793547000000002,
            55.074018299999999
          ],
          [
            -7.678157616666665,
            55.072297016666667
          ],
          [
            -7.6767116000000009,
            55.070744200000007
          ],
          [
            -7.6751622499999996,
            55.069275966666659
          ],
          [
            -7.6739296166666673,
            55.067861016666662
          ],
          [
            -7.6732170166666664,
            55.066483399999996
          ],
          [
            -7.6705759499999999,
            55.065736799999996
          ],
          [
            -7.6681407166666666,
            55.065017900000008
          ],
          [
            -7.6659857333333337,
            55.064309350000002
          ],
          [
            -7.664939416666666,
            55.062468300000006
          ],
          [
            -7.6639280000000003,
            55.060430833333342
          ],
          [
            -7.6629102333333341,
            55.058426099999998
          ],
          [
            -7.6618592333333337,
            55.056360116666667
          ],
          [
            -7.6608442000000005,
            55.054460333333331
          ],
          [
            -7.6601030999999997,
            55.052609200000006
          ],
          [
            -7.6594597833333342,
            55.050839566666674
          ],
          [
            -7.6586957166666663,
            55.04901053333333
          ],
          [
            -7.6579131,
            55.047165466666669
          ],
          [
            -7.6572487500000008,
            55.045550266666673
          ],
          [
            -7.656610033333334,
            55.043915783333325
          ],
          [
            -7.6561627999999997,
            55.042278733333326
          ],
          [
            -7.655818916666667,
            55.040871783333323
          ],
          [
            -7.6555157833333336,
            55.0397344
          ],
          [
            -7.6551478179304766,
            55.038759933316832
          ],
          [
            -7.6545133746844423,
            55.037869562825435
          ],
          [
            -7.6545133746844423,
            55.037869562825435
          ],
          [
            -7.6538538666666662,
            55.036988183333335
          ],
          [
            -7.6522081833333324,
            55.037013300000005
          ],
          [
            -7.6506825333333319,
            55.036790999999994
          ],
          [
            -7.6491829499999993,
            55.036469066666662
          ],
          [
            -7.6497702666666667,
            55.035310399999993
          ],
          [
            -7.6504567833333343,
            55.034482350000012
          ],
          [
            -7.6506815833333333,
            55.032904866666662
          ],
          [
            -7.6503847666666669,
            55.031111600000003
          ],
          [
            -7.6499747833333327,
            55.029478900000008
          ],
          [
            -7.6495926333333326,
            55.027922333333329
          ],
          [
            -7.6499580833333329,
            55.026482016666655
          ],
          [
            -7.6507052333333334,
            55.024612033333341
          ],
          [
            -7.6513965833333328,
            55.022888366666663
          ],
          [
            -7.652145833333333,
            55.021069133333334
          ],
          [
            -7.6527330166666676,
            55.019685416666668
          ],
          [
            -7.6533543333333345,
            55.018243266666666
          ],
          [
            -7.654091516666667,
            55.016462633333333
          ],
          [
            -7.6547755666666664,
            55.014833166666662
          ],
          [
            -7.6554530833333327,
            55.013226016666678
          ],
          [
            -7.6559238999999986,
            55.011501866666677
          ],
          [
            -7.656450716666666,
            55.009743033333336
          ],
          [
            -7.6575067000000008,
            55.00821023333333
          ],
          [
            -7.6582433666666665,
            55.00640993333333
          ],
          [
            -7.6590551000000007,
            55.004433850000005
          ],
          [
            -7.6597842499999995,
            55.002709533333338
          ],
          [
            -7.6605726666666669,
            55.000857916666668
          ],
          [
            -7.6613730166666665,
            54.998915066666662
          ],
          [
            -7.6622042166666668,
            54.996908516666664
          ],
          [
            -7.6629243666666662,
            54.995094850000001
          ],
          [
            -7.6638625166666676,
            54.993005300000007
          ],
          [
            -7.6646894999999988,
            54.99109703333334
          ],
          [
            -7.6658405999999992,
            54.989110783333338
          ],
          [
            -7.6678561166666661,
            54.987643133333329
          ],
          [
            -7.6698379500000007,
            54.986252166666659
          ],
          [
            -7.6715919333333336,
            54.984534333333343
          ],
          [
            -7.6736131833333339,
            54.982742083333335
          ],
          [
            -7.6754822166666683,
            54.981010533333333
          ],
          [
            -7.677284900000001,
            54.979484283333342
          ],
          [
            -7.6789459166666667,
            54.978128699999992
          ],
          [
            -7.6803253499999995,
            54.976945049999998
          ],
          [
            -7.6816032999999999,
            54.976068966666659
          ],
          [
            -7.68395925,
            54.974992700000001
          ],
          [
            -7.6863830333333336,
            54.973776166666667
          ],
          [
            -7.688488266666667,
            54.972649183333331
          ],
          [
            -7.6897991333333344,
            54.971153933333333
          ],
          [
            -7.6894013500000016,
            54.969385266666663
          ],
          [
            -7.689938866666667,
            54.967505083333329
          ],
          [
            -7.6910750500000002,
            54.965961883333335
          ],
          [
            -7.6922219999999992,
            54.964637933333336
          ],
          [
            -7.6914430833333336,
            54.963147366666661
          ],
          [
            -7.6916046833333329,
            54.961514199999996
          ],
          [
            -7.6923533500000003,
            54.959858966666658
          ],
          [
            -7.6941398833333343,
            54.958353116666665
          ],
          [
            -7.6959664666666656,
            54.958245133333335
          ],
          [
            -7.6988760666666662,
            54.958175466666667
          ],
          [
            -7.701674333333334,
            54.958105583333328
          ],
          [
            -7.7042830166666665,
            54.958028050000003
          ],
          [
            -7.706152799999999,
            54.957395116666675
          ],
          [
            -7.7073890666666669,
            54.956502600000007
          ],
          [
            -7.7084150500000002,
            54.955742466666663
          ],
          [
            -7.7089173999999989,
            54.954885616666658
          ],
          [
            -7.7094863499999997,
            54.953899100000008
          ],
          [
            -7.7100715666666666,
            54.952920033333342
          ],
          [
            -7.7107594166666678,
            54.952052733333332
          ],
          [
            -7.711636416666666,
            54.951225166666667
          ],
          [
            -7.7126185500000002,
            54.950506966666673
          ],
          [
            -7.7136278878660347,
            54.949815197036308
          ],
          [
            -7.7150850195919611,
            54.949451356982237
          ],
          [
            -7.7163171333333329,
            54.948826716666666
          ],
          [
            -7.7148308666666665,
            54.948488016666673
          ],
          [
            -7.7132659500000003,
            54.9477951
          ],
          [
            -7.7117729499999994,
            54.947357583333329
          ],
          [
            -7.7094725999999998,
            54.946882533333337
          ],
          [
            -7.7070302000000002,
            54.946369850000004
          ],
          [
            -7.7070302000000002,
            54.946369850000004
          ],
          [
            -7.7047290499999992,
            54.945842783333333
          ],
          [
            -7.7027479000000012,
            54.945340783333329
          ],
          [
            -7.7025284000000003,
            54.945280516666664
          ],
          [
            -7.7004165719951336,
            54.94444655890306
          ],
          [
            -7.6994095499999995,
            54.944321366666657
          ],
          [
            -7.6975224627183607,
            54.943809619652704
          ],
          [
            -7.6962087364037224,
            54.943171798925647
          ],
          [
            -7.6930332333333338,
            54.942883049999999
          ],
          [
            -7.6894450166666672,
            54.943186383333327
          ],
          [
            -7.6860450833333331,
            54.943744299999992
          ],
          [
            -7.6827337999999994,
            54.94428285
          ],
          [
            -7.6792657333333327,
            54.944951350000004
          ],
          [
            -7.6757143833333341,
            54.945933933333329
          ],
          [
            -7.6722003500000007,
            54.947279466666664
          ],
          [
            -7.6707076333333344,
            54.947982516666663
          ],
          [
            -7.66929835,
            54.94874935
          ],
          [
            -7.6662999333333328,
            54.950457549999989
          ],
          [
            -7.6629162666666675,
            54.951369850000006
          ],
          [
            -7.6589663666666681,
            54.951390416666669
          ],
          [
            -7.6553340333333324,
            54.950408749999994
          ],
          [
            -7.6524479666666672,
            54.949025666666664
          ],
          [
            -7.6492401833333341,
            54.947543766666662
          ],
          [
            -7.6459594166666669,
            54.946428900000001
          ],
          [
            -7.6425588500000012,
            54.94556128333334
          ],
          [
            -7.6393463833333328,
            54.944751166666677
          ],
          [
            -7.6373208999999989,
            54.944236516666656
          ],
          [
            -7.6347520630994152,
            54.944705337460334
          ],
          [
            -7.6319970499999989,
            54.946192599999996
          ],
          [
            -7.629130683333333,
            54.947726683333336
          ],
          [
            -7.6271610833333341,
            54.949437383333326
          ],
          [
            -7.6259111833333328,
            54.951482116666668
          ],
          [
            -7.6248434666666656,
            54.95328756666666
          ],
          [
            -7.6236691333333342,
            54.955269899999998
          ],
          [
            -7.6224007166666672,
            54.957409899999995
          ],
          [
            -7.621091833333332,
            54.959608916666667
          ],
          [
            -7.6198234666666655,
            54.961759266666661
          ],
          [
            -7.6185226999999998,
            54.964024433333336
          ],
          [
            -7.6166897833333334,
            54.966157466666658
          ],
          [
            -7.6140109166666665,
            54.968020383333332
          ],
          [
            -7.6112476333333321,
            54.969633533333337
          ],
          [
            -7.6080460999999993,
            54.971177766666678
          ],
          [
            -7.6045739333333344,
            54.971988600000003
          ],
          [
            -7.6016222166666676,
            54.972125966666667
          ],
          [
            -7.6004811166666668,
            54.972138533333329
          ],
          [
            -7.5967570333333336,
            54.972189933333325
          ],
          [
            -7.5928990333333335,
            54.972511166666663
          ],
          [
            -7.5891616666666666,
            54.972971366666663
          ],
          [
            -7.5855057500000012,
            54.973414249999998
          ],
          [
            -7.5816394333333328,
            54.973884699999985
          ],
          [
            -7.5778557499999994,
            54.974496600000009
          ],
          [
            -7.5744070666666667,
            54.975752550000003
          ],
          [
            -7.5712522333333334,
            54.977273749999995
          ],
          [
            -7.5680131166666662,
            54.978827116666658
          ],
          [
            -7.564955283333334,
            54.98031446666667
          ],
          [
            -7.5620557333333336,
            54.981729183333336
          ],
          [
            -7.5593536166666668,
            54.983113750000001
          ],
          [
            -7.5567382833333339,
            54.98480141666667
          ],
          [
            -7.5545535500000005,
            54.986454766666675
          ],
          [
            -7.5525111666666662,
            54.987999583333341
          ],
          [
            -7.5504363666666663,
            54.98947938333334
          ],
          [
            -7.5480085999999984,
            54.990661100000004
          ],
          [
            -7.5449044499999998,
            54.991427949999995
          ],
          [
            -7.5412920500000009,
            54.991962899999997
          ],
          [
            -7.5378903333333334,
            54.992446533333336
          ],
          [
            -7.5344614000000005,
            54.992515266666672
          ],
          [
            -7.5312970000000012,
            54.993504683333335
          ],
          [
            -7.5285191833333336,
            54.99492935
          ],
          [
            -7.5249002000000003,
            54.995938399999993
          ],
          [
            -7.5212581333333333,
            54.996964383333335
          ],
          [
            -7.5179277833333327,
            54.99779671666667
          ],
          [
            -7.5146473499999997,
            54.998432749999999
          ],
          [
            -7.5112193500000011,
            54.999072200000001
          ],
          [
            -7.5095114999999995,
            54.999397500000001
          ],
          [
            -7.5077547499999993,
            54.999727266666667
          ],
          [
            -7.5038434166666663,
            55.000488100000005
          ],
          [
            -7.5001970833333349,
            55.001654366666656
          ],
          [
            -7.4967962500000001,
            55.003148583333328
          ],
          [
            -7.4936613666666663,
            55.004529166666664
          ],
          [
            -7.4906383000000005,
            55.005859350000001
          ],
          [
            -7.4877744333333336,
            55.007102283333339
          ],
          [
            -7.485175766666667,
            55.008366916666667
          ],
          [
            -7.4831809000000007,
            55.010346499999997
          ],
          [
            -7.4817359166666657,
            55.012368466666672
          ],
          [
            -7.480288916666666,
            55.014328716666661
          ],
          [
            -7.4791245499999999,
            55.016289533333335
          ],
          [
            -7.4784073999999991,
            55.01849399999999
          ],
          [
            -7.4769783999999992,
            55.020651250000007
          ],
          [
            -7.4752476166666666,
            55.022467499999991
          ],
          [
            -7.4733243999999992,
            55.024441599999996
          ],
          [
            -7.4714014000000004,
            55.026151633333335
          ],
          [
            -7.4689950166666659,
            55.02762684999999
          ],
          [
            -7.4664928999999987,
            55.028977533333332
          ],
          [
            -7.4633078499999987,
            55.029839899999999
          ],
          [
            -7.4602988833333335,
            55.030148633333326
          ],
          [
            -7.4579871833333335,
            55.030757949999995
          ],
          [
            -7.4553481000000001,
            55.031757349999992
          ],
          [
            -7.4528305500000007,
            55.032752066666667
          ],
          [
            -7.4506629999999987,
            55.033846066666662
          ],
          [
            -7.4484496333333334,
            55.034707083333323
          ],
          [
            -7.4461938666666656,
            55.035209666666667
          ],
          [
            -7.4429526833333339,
            55.036148866666657
          ],
          [
            -7.4400968499999998,
            55.037767249999995
          ],
          [
            -7.4392537999999995,
            55.038188933333338
          ],
          [
            -7.4367377333333327,
            55.038873233333334
          ],
          [
            -7.433452233333333,
            55.039304200000004
          ],
          [
            -7.4303541333333323,
            55.03970733333334
          ],
          [
            -7.4268639000000007,
            55.04043788333334
          ],
          [
            -7.4238982333333334,
            55.041825583333342
          ],
          [
            -7.4202049666666667,
            55.042707916666664
          ],
          [
            -7.4161801166666672,
            55.042692516666662
          ],
          [
            -7.4126680166666663,
            55.042283966666673
          ],
          [
            -7.4087042166666661,
            55.042130066666672
          ],
          [
            -7.4045892166666665,
            55.042262233333339
          ],
          [
            -7.4008317999999997,
            55.042386066666658
          ],
          [
            -7.3968270833333332,
            55.042508550000001
          ],
          [
            -7.3932021666666667,
            55.042698516666668
          ],
          [
            -7.3896628500000006,
            55.042860266666672
          ],
          [
            -7.3863727333333333,
            55.042913366666667
          ],
          [
            -7.3837250333333335,
            55.04261553333334
          ],
          [
            -7.3820460666666676,
            55.042654883333341
          ],
          [
            -7.3818840333333338,
            55.044084266666673
          ],
          [
            -7.3836323038233083,
            55.045342379415963
          ],
          [
            -7.3860646333333326,
            55.046425533333327
          ],
          [
            -7.3884047666666666,
            55.0476454
          ],
          [
            -7.3909395330333805,
            55.04856616732107
          ],
          [
            -7.3938759500000009,
            55.049512249999992
          ],
          [
            -7.3965785500000001,
            55.050388783333325
          ],
          [
            -7.3992332685805025,
            55.051415785908752
          ],
          [
            -7.4013755995827291,
            55.052464158787046
          ],
          [
            -7.4022774166666672,
            55.053757016666665
          ],
          [
            -7.4030177833333335,
            55.05519218333334
          ],
          [
            -7.4037993666666679,
            55.05668171666666
          ],
          [
            -7.404540383333333,
            55.057918699999995
          ],
          [
            -7.4054267333333339,
            55.05904919999999
          ],
          [
            -7.4071556999999997,
            55.059798299999997
          ],
          [
            -7.409883516032969,
            55.059679044938882
          ],
          [
            -7.4128407815754249,
            55.059494980331387
          ],
          [
            -7.4158004943772458,
            55.059496848703944
          ],
          [
            -7.4184850999999998,
            55.060505999999997
          ],
          [
            -7.421313500000001,
            55.061639083333333
          ],
          [
            -7.4238210166666665,
            55.062590066666672
          ],
          [
            -7.4261339499999997,
            55.063410366666666
          ],
          [
            -7.4285256166666667,
            55.064269449999998
          ],
          [
            -7.4308708333333335,
            55.065112966666661
          ],
          [
            -7.4333947,
            55.066041766666672
          ],
          [
            -7.4358741000000013,
            55.067194516666667
          ],
          [
            -7.4382757833333342,
            55.068626516666669
          ],
          [
            -7.4405353333333339,
            55.070322033333333
          ],
          [
            -7.442764433333334,
            55.071994583333328
          ],
          [
            -7.4451080500000009,
            55.073674833333335
          ],
          [
            -7.4475055333333327,
            55.075017383333339
          ],
          [
            -7.4498501999999984,
            55.076188683333335
          ],
          [
            -7.4523360000000007,
            55.077485733333333
          ],
          [
            -7.4546023833333344,
            55.078642866666662
          ],
          [
            -7.4567378499999997,
            55.079705933333329
          ],
          [
            -7.4587347166666671,
            55.080708216666665
          ],
          [
            -7.4604619333333329,
            55.081946716666671
          ],
          [
            -7.4614081166666661,
            55.083401950000003
          ],
          [
            -7.4633696833333341,
            55.084551583333329
          ],
          [
            -7.4657829499999995,
            55.085414583333339
          ],
          [
            -7.4683725333333335,
            55.085942599999996
          ],
          [
            -7.4704790500000007,
            55.086932899999994
          ],
          [
            -7.4727170999999997,
            55.087729416666669
          ],
          [
            -7.4749147333333328,
            55.08861173333333
          ],
          [
            -7.4764642166666668,
            55.089489233333339
          ],
          [
            -7.4775215166666671,
            55.09054290000001
          ],
          [
            -7.4785252333333334,
            55.09176875
          ],
          [
            -7.4781236999999994,
            55.093592700000002
          ],
          [
            -7.4783158333333324,
            55.095644766666666
          ],
          [
            -7.477698516666667,
            55.097702783333339
          ],
          [
            -7.4774440333333345,
            55.099557099999998
          ],
          [
            -7.4769377500000003,
            55.10119568333333
          ],
          [
            -7.4750500833333335,
            55.102695116666673
          ],
          [
            -7.4731107333333338,
            55.104145249999995
          ],
          [
            -7.4711322166666658,
            55.10578975
          ],
          [
            -7.4695399166666681,
            55.107659749999996
          ],
          [
            -7.4679927833333339,
            55.109428416666667
          ],
          [
            -7.4662471833333335,
            55.11099158333333
          ],
          [
            -7.4646027666666672,
            55.112455200000007
          ],
          [
            -7.4630142499999996,
            55.113872216666671
          ],
          [
            -7.461545833333334,
            55.115183399999992
          ],
          [
            -7.4600313833333338,
            55.11652758333333
          ],
          [
            -7.4585983666666662,
            55.117983850000002
          ],
          [
            -7.4576528833333322,
            55.119697083333328
          ],
          [
            -7.4576083430838791,
            55.128064008025966
          ],
          [
            -7.4547602166666671,
            55.132174883333327
          ],
          [
            -7.4532747833333337,
            55.132542266666668
          ],
          [
            -7.4528980333333346,
            55.133446933333332
          ],
          [
            -7.4532517333333335,
            55.134371350000009
          ],
          [
            -7.4540346166666671,
            55.135192850000003
          ],
          [
            -7.4550308833333343,
            55.135906783333333
          ],
          [
            -7.4558942500000001,
            55.136773033333334
          ],
          [
            -7.45588885,
            55.137570000000004
          ],
          [
            -7.4558590000000002,
            55.13852996666666
          ],
          [
            -7.4553681000000003,
            55.139655350000005
          ],
          [
            -7.4546190000000001,
            55.140568449999996
          ],
          [
            -7.4538920333333323,
            55.141489399999998
          ],
          [
            -7.4529324499999996,
            55.14257813333333
          ],
          [
            -7.4516762833333337,
            55.143651166666665
          ],
          [
            -7.4507392166666664,
            55.145011099999998
          ],
          [
            -7.4496345499999999,
            55.146423716666668
          ],
          [
            -7.4483740499999991,
            55.147619416666672
          ],
          [
            -7.4467172333333336,
            55.148631633333331
          ],
          [
            -7.4456636000000005,
            55.149955750000004
          ],
          [
            -7.4446865666666673,
            55.15124205
          ],
          [
            -7.4437510333333323,
            55.152652916666661
          ],
          [
            -7.4425589500000005,
            55.153886783333341
          ],
          [
            -7.4407888833333322,
            55.155210750000002
          ],
          [
            -7.4390966166666654,
            55.156462183333325
          ],
          [
            -7.4371975999999993,
            55.157875533333332
          ],
          [
            -7.4352184333333335,
            55.158972333333338
          ],
          [
            -7.4325142000000008,
            55.159547416666662
          ],
          [
            -7.4304779166666668,
            55.160848683333342
          ],
          [
            -7.4292303999999998,
            55.161721616666668
          ],
          [
            -7.4282108666666664,
            55.162452533333337
          ],
          [
            -7.4275000000000002,
            55.162939416666667
          ],
          [
            -7.4253935333333327,
            55.16441618333333
          ],
          [
            -7.4232103,
            55.165963283333333
          ],
          [
            -7.4212274000000003,
            55.167440033333335
          ],
          [
            -7.4193209333333341,
            55.168905183333329
          ],
          [
            -7.4174176166666674,
            55.170340500000002
          ],
          [
            -7.4155022499999994,
            55.171706283333336
          ],
          [
            -7.4133425500000003,
            55.17296601666667
          ],
          [
            -7.4113544333333348,
            55.174760600000006
          ],
          [
            -7.4095806333333325,
            55.176313183333335
          ],
          [
            -7.4077036166666668,
            55.178014583333336
          ],
          [
            -7.4065839999999996,
            55.179866250000003
          ],
          [
            -7.4064981534909435,
            55.181780595350723
          ],
          [
            -7.4060474166666665,
            55.183628283333334
          ],
          [
            -7.4049785999999997,
            55.185493900000004
          ],
          [
            -7.4039289999999989,
            55.187412016666663
          ],
          [
            -7.4027824333333339,
            55.189309699999995
          ],
          [
            -7.4013546166666666,
            55.191317583333323
          ],
          [
            -7.3996565999999993,
            55.193121633333341
          ],
          [
            -7.397728616666666,
            55.194579383333327
          ],
          [
            -7.3963592333333334,
            55.195783900000002
          ],
          [
            -7.3960495701778477,
            55.197306788342729
          ],
          [
            -7.3967538146596761,
            55.198830115490907
          ],
          [
            -7.397545994564088,
            55.200498251449488
          ],
          [
            -7.3982229319942476,
            55.202051955370166
          ],
          [
            -7.3988222742889258,
            55.203588787855111
          ],
          [
            -7.3993489499999994,
            55.205316699999997
          ],
          [
            -7.4003818333333342,
            55.206718733333332
          ],
          [
            -7.4018212333333331,
            55.207832750000009
          ],
          [
            -7.4027177166666664,
            55.209187533333342
          ],
          [
            -7.4028177166666671,
            55.21091426666667
          ],
          [
            -7.4029744333333323,
            55.212761916666658
          ],
          [
            -7.4038496000000009,
            55.214462050000002
          ],
          [
            -7.4049334333333334,
            55.216110566666678
          ],
          [
            -7.406191866666668,
            55.21788759999999
          ],
          [
            -7.4073815666666674,
            55.219506750000001
          ],
          [
            -7.4077966835901012,
            55.22116902730442
          ],
          [
            -7.4080857291410691,
            55.222910525909775
          ],
          [
            -7.4080433500000007,
            55.224574849999996
          ],
          [
            -7.4068431833333328,
            55.225990699999997
          ],
          [
            -7.4055929166666656,
            55.22749193333334
          ],
          [
            -7.4040572499999993,
            55.228988933333326
          ],
          [
            -7.4023405166666674,
            55.230541383333339
          ],
          [
            -7.4007105333333341,
            55.231980766666659
          ],
          [
            -7.3992431333333331,
            55.233380516666664
          ],
          [
            -7.397793899999999,
            55.234722799999993
          ],
          [
            -7.3963577666666671,
            55.23596271666667
          ],
          [
            -7.3950202666666671,
            55.237151566666668
          ],
          [
            -7.3937216000000001,
            55.238340783333328
          ],
          [
            -7.3922927666666665,
            55.23965106666666
          ],
          [
            -7.3909647166666677,
            55.240844900000006
          ],
          [
            -7.3897209333333329,
            55.241895366666654
          ],
          [
            -7.388367849999999,
            55.243236383333333
          ],
          [
            -7.38697085,
            55.244608466666662
          ],
          [
            -7.3868576999999993,
            55.245846616666661
          ],
          [
            -7.3878545666666664,
            55.247062766666673
          ],
          [
            -7.3890948666666665,
            55.248274066666667
          ],
          [
            -7.39003985,
            55.249041683333346
          ],
          [
            -7.3905962666666669,
            55.249470383333325
          ],
          [
            -7.391901738980228,
            55.250535909349225
          ],
          [
            -7.3932978605352373,
            55.251683728866382
          ],
          [
            -7.3943476587104175,
            55.252838682597911
          ],
          [
            -7.395236260026623,
            55.253915693586926
          ],
          [
            -7.396026516666665,
            55.255087883333331
          ],
          [
            -7.3967491833333323,
            55.256395549999993
          ],
          [
            -7.3983062666666664,
            55.257379466666663
          ],
          [
            -7.4002801999999992,
            55.258043000000001
          ],
          [
            -7.4024187525229133,
            55.258472797884259
          ],
          [
            -7.4043247750034427,
            55.259171087369516
          ],
          [
            -7.4055367352520971,
            55.260267766609608
          ],
          [
            -7.4068612751801233,
            55.261052098222621
          ],
          [
            -7.4084499595478368,
            55.261713728270294
          ],
          [
            -7.4096067771491807,
            55.262454796054392
          ],
          [
            -7.4080204841248678,
            55.263529140560628
          ],
          [
            -7.4064814667388168,
            55.264614931178933
          ],
          [
            -7.4056050371498809,
            55.26597271754995
          ],
          [
            -7.4052234318255366,
            55.267370678732874
          ],
          [
            -7.4057885293239778,
            55.268399761926908
          ],
          [
            -7.4048711771916693,
            55.269392323042204
          ],
          [
            -7.403783783333334,
            55.270350949999994
          ],
          [
            -7.4025438500000007,
            55.271346583333326
          ],
          [
            -7.401177183333334,
            55.272515000000006
          ],
          [
            -7.3999102166666662,
            55.273598899999996
          ],
          [
            -7.3986445999999999,
            55.274674400000002
          ],
          [
            -7.397711966666666,
            55.275476666666663
          ],
          [
            -7.3964744499999995,
            55.27649903333333
          ],
          [
            -7.3951316999999994,
            55.277172900000004
          ],
          [
            -7.3920735312302739,
            55.280774429885696
          ],
          [
            -7.3854097833333334,
            55.280947799999993
          ],
          [
            -7.3830441333333336,
            55.28138444999999
          ],
          [
            -7.3804549166666673,
            55.281821433333334
          ],
          [
            -7.3780644499999992,
            55.282520749999996
          ],
          [
            -7.3756730666666668,
            55.283261449999991
          ],
          [
            -7.3734107833333322,
            55.283962216666673
          ],
          [
            -7.3708872833333334,
            55.284754499999998
          ],
          [
            -7.3686495333333326,
            55.285237883333338
          ],
          [
            -7.3658621000000002,
            55.285233566666662
          ],
          [
            -7.3633045333333333,
            55.285315833333328
          ],
          [
            -7.3611687166666666,
            55.285277900000004
          ],
          [
            -7.3596177166666665,
            55.285625916666667
          ],
          [
            -7.3579959666666666,
            55.286872533333323
          ],
          [
            -7.3579959666666666,
            55.286872533333323
          ],
          [
            -7.3565207333333333,
            55.288084449999999
          ],
          [
            -7.3549548499999995,
            55.289368233333342
          ],
          [
            -7.3536697499999999,
            55.290429066666668
          ],
          [
            -7.3525999499999992,
            55.291298899999987
          ],
          [
            -7.3517104,
            55.292088516666674
          ],
          [
            -7.3500068499999998,
            55.292170050000003
          ],
          [
            -7.3484037833333335,
            55.291986733333339
          ],
          [
            -7.3466065333333326,
            55.291627500000004
          ],
          [
            -7.3446294999999999,
            55.290958866666671
          ],
          [
            -7.342453383333333,
            55.291110866666664
          ],
          [
            -7.3405697666666656,
            55.291443266666661
          ],
          [
            -7.338660916666667,
            55.291596133333329
          ],
          [
            -7.3371998666666665,
            55.292093949999995
          ],
          [
            -7.3371084999999985,
            55.293055900000006
          ],
          [
            -7.3371798499999992,
            55.294031883333339
          ],
          [
            -7.3369364333333333,
            55.294984016666668
          ],
          [
            -7.3366857833333334,
            55.295940916666659
          ],
          [
            -7.3365581166666658,
            55.296920683333333
          ],
          [
            -7.3366404333333337,
            55.297900133333329
          ],
          [
            -7.336818899999999,
            55.298816249999994
          ],
          [
            -7.3369530999999997,
            55.299748666666659
          ],
          [
            -7.3371574166666678,
            55.300709283333326
          ],
          [
            -7.3376256666666659,
            55.301641699999998
          ],
          [
            -7.3382887166666668,
            55.302916750000001
          ],
          [
            -7.3386545166666659,
            55.303577866666664
          ],
          [
            -7.3393078859487657,
            55.304466298915358
          ],
          [
            -7.3399363401630104,
            55.305344942677849
          ],
          [
            -7.3404087166666674,
            55.306218900000005
          ],
          [
            -7.3396791833333346,
            55.307197883333338
          ],
          [
            -7.3390571736986576,
            55.308130343870424
          ],
          [
            -7.3385865316772367,
            55.309047974829319
          ],
          [
            -7.3382123499999992,
            55.309931499999998
          ],
          [
            -7.3380389128292753,
            55.310854659664713
          ],
          [
            -7.3397491060179503,
            55.311303039093779
          ],
          [
            -7.3413493652298145,
            55.31166276782303
          ],
          [
            -7.34307922573878,
            55.311904286070053
          ],
          [
            -7.3448406166666658,
            55.312386666666669
          ],
          [
            -7.345958033333333,
            55.31307708333334
          ],
          [
            -7.3468449000000007,
            55.313842016666669
          ],
          [
            -7.3477426703480022,
            55.314634509121355
          ],
          [
            -7.3492172499999997,
            55.315058016666669
          ],
          [
            -7.3510143523112008,
            55.315091361390238
          ],
          [
            -7.3526731435541137,
            55.315120594506304
          ],
          [
            -7.354298272900742,
            55.315208636639547
          ],
          [
            -7.3559407833333337,
            55.315351550000003
          ],
          [
            -7.3576977499999998,
            55.315889916666663
          ],
          [
            -7.3596898666666677,
            55.316195366666669
          ],
          [
            -7.3617280809877261,
            55.316334000632985
          ],
          [
            -7.3633821333333325,
            55.316390183333333
          ],
          [
            -7.3652571513175813,
            55.316469575006685
          ],
          [
            -7.3669524231625498,
            55.316479425493945
          ],
          [
            -7.3669524231625498,
            55.316479425493945
          ],
          [
            -7.3685370392785821,
            55.316463607455304
          ],
          [
            -7.3701552442026923,
            55.316348000763291
          ],
          [
            -7.373278647540161,
            55.315470618561953
          ],
          [
            -7.3733852430354636,
            55.310701898486442
          ]
        ]
      }
    }
  ],
  "type" : "FeatureCollection"
}