{
  "features" : [
    {
      "geometry" : {
        "type" : "Point",
        "coordinates" : [
          -7.9659555597447618,
          55.182316581964272
        ]
      },
      "properties" : {
        "address" : "Kill, Dunfanaghy, County Donegal, F92 PT1W, Irland",
        "weather" : "Bedeckter Himmel (9,9 °C)",
        "rating" : 0,
        "timestamp" : "2026-05-04T18:24:49Z",
        "duration" : 55186.000154256821,
        "arrival" : "2026-05-04T18:24:49Z",
        "departure" : "2026-05-05T09:44:35Z",
        "source" : "Geory 5.3.2",
        "type" : "visit",
        "device" : "B9E47AEB-E54C-4563-96B6-06995DD4BC56 (iPhone 16 Pro)"
      },
      "type" : "Feature"
    },
    {
      "type" : "Feature",
      "properties" : {
        "address" : "Listillion, Letterkenny, County Donegal, F92 H7FK, Irland",
        "departure" : "2026-05-05T12:36:40Z",
        "type" : "visit",
        "timestamp" : "2026-05-05T10:50:40Z",
        "source" : "Geory 5.3.2",
        "device" : "B9E47AEB-E54C-4563-96B6-06995DD4BC56 (iPhone 16 Pro)",
        "weather" : "Aufgelockert bewölkt (10,9 °C)",
        "duration" : 6360.1222941875458,
        "rating" : 0,
        "arrival" : "2026-05-05T10:50:40Z"
      },
      "geometry" : {
        "coordinates" : [
          -7.6955477690933201,
          54.924256306791222
        ],
        "type" : "Point"
      }
    },
    {
      "properties" : {
        "arrival" : "2026-05-05T16:20:48Z",
        "address" : "North Inishowen Coast SAC, County Donegal, Irland",
        "type" : "visit",
        "rating" : 0,
        "departure" : "2026-05-05T16:37:12Z",
        "source" : "Geory 5.3.2",
        "duration" : 984.69502973556519,
        "device" : "B9E47AEB-E54C-4563-96B6-06995DD4BC56 (iPhone 16 Pro)",
        "weather" : "Überwiegend bewölkt (9,0 °C)",
        "timestamp" : "2026-05-05T16:20:48Z"
      },
      "geometry" : {
        "type" : "Point",
        "coordinates" : [
          -7.4513238239151267,
          55.283287385358697
        ]
      },
      "type" : "Feature"
    },
    {
      "properties" : {
        "weather" : "Überwiegend bewölkt (8,4 °C)",
        "timestamp" : "2026-05-05T17:14:44Z",
        "duration" : 2223.4920878410339,
        "rating" : 0,
        "device" : "B9E47AEB-E54C-4563-96B6-06995DD4BC56 (iPhone 16 Pro)",
        "source" : "Geory 5.3.2",
        "arrival" : "2026-05-05T17:14:44Z",
        "address" : "North Inishowen Coast SAC, County Donegal, Irland",
        "type" : "visit",
        "departure" : "2026-05-05T17:51:47Z"
      },
      "geometry" : {
        "type" : "Point",
        "coordinates" : [
          -7.4508640052901303,
          55.289526290930596
        ]
      },
      "type" : "Feature"
    },
    {
      "geometry" : {
        "coordinates" : [
          -7.4520090747520626,
          55.287292301328833
        ],
        "type" : "Point"
      },
      "type" : "Feature",
      "properties" : {
        "type" : "visit",
        "timestamp" : "2026-05-05T17:52:00Z",
        "departure" : "2026-05-05T18:11:13Z",
        "duration" : 1152.8472414016724,
        "weather" : "Überwiegend bewölkt (7,9 °C)",
        "source" : "Geory 5.3.2",
        "arrival" : "2026-05-05T17:52:00Z",
        "address" : "Tullagh Strand, Irland",
        "rating" : 0,
        "device" : "B9E47AEB-E54C-4563-96B6-06995DD4BC56 (iPhone 16 Pro)"
      }
    },
    {
      "geometry" : {
        "type" : "Point",
        "coordinates" : [
          -7.4507786105173732,
          55.289542034568619
        ]
      },
      "properties" : {
        "type" : "visit",
        "arrival" : "2026-05-05T18:12:25Z",
        "duration" : 17101.962844848633,
        "timestamp" : "2026-05-05T18:12:25Z",
        "weather" : "Überwiegend bewölkt (7,9 °C)",
        "rating" : 0,
        "source" : "Geory 5.3.2",
        "address" : "North Inishowen Coast SAC, County Donegal, Irland",
        "departure" : "2026-05-05T22:57:27Z",
        "device" : "B9E47AEB-E54C-4563-96B6-06995DD4BC56 (iPhone 16 Pro)"
      },
      "type" : "Feature"
    },
    {
      "geometry" : {
        "type" : "LineString",
        "coordinates" : [
          [
            -7.4507786105173732,
            55.289542034568619
          ],
          [
            -7.4520090747520626,
            55.287292301328833
          ],
          [
            -7.452042729133824,
            55.287495327281036
          ],
          [
            -7.4508640052901303,
            55.289526290930596
          ],
          [
            -7.4514647332306696,
            55.28985966195112
          ],
          [
            -7.4530546642032709,
            55.289725843032983
          ],
          [
            -7.4546234500000015,
            55.28958861666667
          ],
          [
            -7.4560900986933802,
            55.289217286416864
          ],
          [
            -7.4561679166666677,
            55.288317666666671
          ],
          [
            -7.4564615009842008,
            55.287397480217713
          ],
          [
            -7.4566546166666656,
            55.286443033333335
          ],
          [
            -7.4566546166666656,
            55.286443033333335
          ],
          [
            -7.4564583333333347,
            55.285504683333329
          ],
          [
            -7.4559385833333334,
            55.284635199999997
          ],
          [
            -7.4546116697666278,
            55.282928799790348
          ],
          [
            -7.4513605463103989,
            55.282893464913506
          ],
          [
            -7.4531092208684369,
            55.28236480319174
          ],
          [
            -7.4542192716840585,
            55.282768038867765
          ],
          [
            -7.4564405962444846,
            55.285124267773632
          ],
          [
            -7.4565678433757894,
            55.285708786069449
          ],
          [
            -7.4568219458995193,
            55.286338131090318
          ],
          [
            -7.4564965859796875,
            55.287105631401168
          ],
          [
            -7.4563193233654363,
            55.287617700617318
          ],
          [
            -7.4548383922532349,
            55.289295802285871
          ],
          [
            -7.4533149616731356,
            55.289617142764989
          ],
          [
            -7.4517183060716343,
            55.289852021387439
          ],
          [
            -7.4508810356671695,
            55.28936229168891
          ],
          [
            -7.4522164461168581,
            55.287367620036498
          ],
          [
            -7.4518852159149773,
            55.284964000431096
          ],
          [
            -7.4518779790084242,
            55.284955012591034
          ],
          [
            -7.4513238239151267,
            55.283287385358697
          ],
          [
            -7.4517251952482493,
            55.28282862918946
          ],
          [
            -7.4531806333333321,
            55.282438900000002
          ],
          [
            -7.4546209580955161,
            55.282860313218592
          ],
          [
            -7.4554704648023407,
            55.282095153380112
          ],
          [
            -7.4563426572897207,
            55.281324267214892
          ],
          [
            -7.457187756149426,
            55.280549435507837
          ],
          [
            -7.4580252646704599,
            55.27974434578892
          ],
          [
            -7.4588134204827083,
            55.278950399048881
          ],
          [
            -7.4592610750431261,
            55.278023879500672
          ],
          [
            -7.4594206354117283,
            55.276672847530271
          ],
          [
            -7.4597038333333332,
            55.276179166666665
          ],
          [
            -7.4612941833333331,
            55.276612266666675
          ],
          [
            -7.4631025333333341,
            55.277132200000004
          ],
          [
            -7.4647650488013841,
            55.277578869236734
          ],
          [
            -7.4666075589796188,
            55.277925235587247
          ],
          [
            -7.468412616666666,
            55.278121333333338
          ],
          [
            -7.470165841468388,
            55.277884493903656
          ],
          [
            -7.4718319792711254,
            55.27763147984377
          ],
          [
            -7.4734404721667262,
            55.277645940089741
          ],
          [
            -7.474178216666667,
            55.278451516666664
          ],
          [
            -7.4745456833333348,
            55.279450216666667
          ],
          [
            -7.4760184314732383,
            55.27993034349182
          ],
          [
            -7.477741131410137,
            55.279998813094124
          ],
          [
            -7.4793349237296187,
            55.280154252105646
          ],
          [
            -7.4809206333333327,
            55.280247083333336
          ],
          [
            -7.4825192189133816,
            55.28031413012166
          ],
          [
            -7.4843102076423405,
            55.279942584764783
          ],
          [
            -7.486171337769429,
            55.279552799492677
          ],
          [
            -7.487663716666666,
            55.279225233333335
          ],
          [
            -7.4891593499999995,
            55.278939266666669
          ],
          [
            -7.4906656833333329,
            55.278501999999989
          ],
          [
            -7.4917238499999996,
            55.277821366666664
          ],
          [
            -7.4928503499999994,
            55.276731550000008
          ],
          [
            -7.4933399375918057,
            55.276057008688369
          ],
          [
            -7.4939218924534678,
            55.275117607695165
          ],
          [
            -7.4945369283150551,
            55.274150784691948
          ],
          [
            -7.4952272448504864,
            55.273078594678246
          ],
          [
            -7.495871523017219,
            55.272053117525324
          ],
          [
            -7.496517087892939,
            55.271040641855421
          ],
          [
            -7.4969659090415304,
            55.270140132575079
          ],
          [
            -7.4973513437235297,
            55.269032798021492
          ],
          [
            -7.4976103442848929,
            55.267861891754642
          ],
          [
            -7.4978603106250299,
            55.266679050553954
          ],
          [
            -7.4980915929635152,
            55.265704633168575
          ],
          [
            -7.4983186564542974,
            55.264579045181691
          ],
          [
            -7.4986312525756071,
            55.263360636848724
          ],
          [
            -7.498931698500769,
            55.262101955200357
          ],
          [
            -7.499222543265522,
            55.260843256606378
          ],
          [
            -7.4994928392410092,
            55.259733882793839
          ],
          [
            -7.4997622015593306,
            55.258570686579965
          ],
          [
            -7.4999820892145692,
            55.257576143819747
          ],
          [
            -7.500171695566225,
            55.256667298997712
          ],
          [
            -7.5007676850959895,
            55.25556225713617
          ],
          [
            -7.5008554157055238,
            55.254201591088346
          ],
          [
            -7.500950982957348,
            55.253023620732677
          ],
          [
            -7.5010102431469576,
            55.251957074861082
          ],
          [
            -7.5010609307732619,
            55.250919469027906
          ],
          [
            -7.5011167916866137,
            55.24995943577256
          ],
          [
            -7.501184583333333,
            55.248737683333339
          ],
          [
            -7.5013115500000005,
            55.247795833333342
          ],
          [
            -7.5012723309429115,
            55.246868873806747
          ],
          [
            -7.5015341061619232,
            55.245124078302133
          ],
          [
            -7.501577391709267,
            55.243570453268077
          ],
          [
            -7.5022118970763749,
            55.242708961233852
          ],
          [
            -7.5023053555600265,
            55.241802384601527
          ],
          [
            -7.5031670875739982,
            55.24100148651813
          ],
          [
            -7.5033301904239975,
            55.240076290941147
          ],
          [
            -7.5027816149574038,
            55.239223942904239
          ],
          [
            -7.5017306929596774,
            55.238114343963652
          ],
          [
            -7.5012348995207043,
            55.237627460107916
          ],
          [
            -7.5003244750279947,
            55.236834296698916
          ],
          [
            -7.4997637422896153,
            55.235540032707533
          ],
          [
            -7.4993528427847158,
            55.233587173537664
          ],
          [
            -7.4985640204391091,
            55.232781850865919
          ],
          [
            -7.4976831084092836,
            55.231975209883402
          ],
          [
            -7.4968753008276412,
            55.231181106526911
          ],
          [
            -7.4963283500000006,
            55.230258916666664
          ],
          [
            -7.4957045999999989,
            55.229256033333336
          ],
          [
            -7.4950410249578212,
            55.228033156585163
          ],
          [
            -7.4941914333333335,
            55.226799250000006
          ],
          [
            -7.4933362500000014,
            55.225471833333323
          ],
          [
            -7.4925641666666669,
            55.224218783333328
          ],
          [
            -7.4918521833333331,
            55.223029833333342
          ],
          [
            -7.4912154000000006,
            55.222005700000004
          ],
          [
            -7.4906042333333325,
            55.22101095
          ],
          [
            -7.4900722745213466,
            55.220086458688954
          ],
          [
            -7.4903815417089561,
            55.219167860648675
          ],
          [
            -7.491760209250498,
            55.218486682085235
          ],
          [
            -7.4937175356481101,
            55.217489813218954
          ],
          [
            -7.4954988020759608,
            55.216588028175174
          ],
          [
            -7.4972175942823318,
            55.215727850416094
          ],
          [
            -7.4988926371344178,
            55.214915148119076
          ],
          [
            -7.5006652542201078,
            55.214078066297795
          ],
          [
            -7.502503185403727,
            55.21321373207207
          ],
          [
            -7.5039826394155833,
            55.212440880817759
          ],
          [
            -7.5055529388282292,
            55.211601160098731
          ],
          [
            -7.5073453588459795,
            55.210615418106514
          ],
          [
            -7.509019413069181,
            55.209710919323868
          ],
          [
            -7.5106122149437686,
            55.208849589878199
          ],
          [
            -7.512235727806706,
            55.207952800602236
          ],
          [
            -7.5137530912492592,
            55.20711162371159
          ],
          [
            -7.5151780688622747,
            55.206365915836145
          ],
          [
            -7.5164225205703348,
            55.205726569996465
          ],
          [
            -7.5177605070796796,
            55.205235764070551
          ],
          [
            -7.5189871116991123,
            55.204638521604544
          ],
          [
            -7.5204882407185867,
            55.203901669654527
          ],
          [
            -7.5219814433318888,
            55.203176023811196
          ],
          [
            -7.5232694162831724,
            55.202555034947423
          ],
          [
            -7.5244838391617845,
            55.201969906228634
          ],
          [
            -7.5262215295716448,
            55.201796236735241
          ],
          [
            -7.5278287798622268,
            55.201838408646275
          ],
          [
            -7.5294643126855325,
            55.201695428606605
          ],
          [
            -7.53135885163098,
            55.201388986698255
          ],
          [
            -7.5329440704039934,
            55.201005159492695
          ],
          [
            -7.5345482455958939,
            55.200622436156166
          ],
          [
            -7.5359919481129642,
            55.200242002721097
          ],
          [
            -7.5376477647242268,
            55.199658002733692
          ],
          [
            -7.5389317897332884,
            55.199080865815446
          ],
          [
            -7.5398441571062067,
            55.197943800814308
          ],
          [
            -7.5386689500000008,
            55.197344366666655
          ],
          [
            -7.5370850000000003,
            55.197211566666667
          ],
          [
            -7.5359291833333328,
            55.196509283333334
          ],
          [
            -7.5347653000000001,
            55.195841566666665
          ],
          [
            -7.5331392999999993,
            55.195176366666665
          ],
          [
            -7.5315443000000002,
            55.194630083333337
          ],
          [
            -7.5301800166666668,
            55.194001449999995
          ],
          [
            -7.5289949499999995,
            55.193355666666669
          ],
          [
            -7.527568116666667,
            55.192581349999998
          ],
          [
            -7.5260359499999989,
            55.191941100000001
          ],
          [
            -7.5243597500000003,
            55.191226916666665
          ],
          [
            -7.522554050000001,
            55.190541833333327
          ],
          [
            -7.5211551666666674,
            55.189949183333326
          ],
          [
            -7.5199731166666668,
            55.189189633333342
          ],
          [
            -7.5187471333333331,
            55.18836353333333
          ],
          [
            -7.517675183333334,
            55.187694899999997
          ],
          [
            -7.5164826666666675,
            55.186917616666669
          ],
          [
            -7.5153059166666676,
            55.186121566666664
          ],
          [
            -7.5138814499999995,
            55.18535455
          ],
          [
            -7.5125748666666672,
            55.184632383333344
          ],
          [
            -7.5108498666666668,
            55.183663166666676
          ],
          [
            -7.5091983333333339,
            55.182723199999998
          ],
          [
            -7.5077806333333337,
            55.181954100000006
          ],
          [
            -7.5065017833333325,
            55.181304566666661
          ],
          [
            -7.5052780500000003,
            55.180504266666667
          ],
          [
            -7.5037976833333326,
            55.179519016666674
          ],
          [
            -7.5021586166666658,
            55.178662716666665
          ],
          [
            -7.5004566333333322,
            55.177866866666662
          ],
          [
            -7.4991145666666661,
            55.177226900000008
          ],
          [
            -7.4978139333333331,
            55.176620450000009
          ],
          [
            -7.4960281833333342,
            55.175808333333336
          ],
          [
            -7.4943045999999995,
            55.175001766666675
          ],
          [
            -7.4926208833333323,
            55.174249583333328
          ],
          [
            -7.4906835666666662,
            55.173642000000001
          ],
          [
            -7.4885582333333334,
            55.173091850000006
          ],
          [
            -7.4865977166666671,
            55.172646500000006
          ],
          [
            -7.4849420333333345,
            55.172631566666659
          ],
          [
            -7.4835991999999996,
            55.171838899999997
          ],
          [
            -7.4826181333333333,
            55.170870266666661
          ],
          [
            -7.4817778666666657,
            55.170025333333321
          ],
          [
            -7.4807140666666667,
            55.168958700000005
          ],
          [
            -7.478792583333334,
            55.167855999999993
          ],
          [
            -7.478792583333334,
            55.167855999999993
          ],
          [
            -7.47668395,
            55.167047450000005
          ],
          [
            -7.4747060833333325,
            55.166294066666659
          ],
          [
            -7.4726526333333325,
            55.165492499999999
          ],
          [
            -7.4705662500000001,
            55.164688066666663
          ],
          [
            -7.4687151833333338,
            55.163965916666662
          ],
          [
            -7.4668820999999994,
            55.163379066666657
          ],
          [
            -7.4651992333333341,
            55.162653550000009
          ],
          [
            -7.4630963000000001,
            55.161762799999998
          ],
          [
            -7.4610132000000009,
            55.160888966666661
          ],
          [
            -7.4589110333333339,
            55.160105566666672
          ],
          [
            -7.4566846166666663,
            55.159259749999997
          ],
          [
            -7.4545897999999999,
            55.158403749999998
          ],
          [
            -7.4532643500000004,
            55.157130716666678
          ],
          [
            -7.452843783333333,
            55.155800299999996
          ],
          [
            -7.4526055000000007,
            55.154505933333333
          ],
          [
            -7.4530795333333328,
            55.153308100000004
          ],
          [
            -7.4539261166666657,
            55.152051383333344
          ],
          [
            -7.454628866666666,
            55.15088106666667
          ],
          [
            -7.4553798833333342,
            55.149660933333337
          ],
          [
            -7.4559320833333329,
            55.148380799999998
          ],
          [
            -7.4563592500000011,
            55.147212533333338
          ],
          [
            -7.4568389999999996,
            55.14612300000001
          ],
          [
            -7.4573723666666671,
            55.144968766666665
          ],
          [
            -7.4580330500000009,
            55.144143833333331
          ],
          [
            -7.4578497166666677,
            55.14311523333334
          ],
          [
            -7.4566265500000011,
            55.142299299999998
          ],
          [
            -7.4552326260907327,
            55.141723479238557
          ],
          [
            -7.4542272500000006,
            55.141384350000003
          ],
          [
            -7.4545127166666658,
            55.140899066666663
          ],
          [
            -7.4551954333333335,
            55.140009916666671
          ],
          [
            -7.4558802999999987,
            55.139164066666673
          ],
          [
            -7.4559213333333334,
            55.138225949999999
          ],
          [
            -7.4559237949437165,
            55.137304957891175
          ],
          [
            -7.4561733666666665,
            55.136406266666675
          ],
          [
            -7.4568140333333348,
            55.135580616666665
          ],
          [
            -7.4561787666666666,
            55.134749033333343
          ],
          [
            -7.455477966666666,
            55.13390558333333
          ],
          [
            -7.4549068499999995,
            55.133048466666665
          ],
          [
            -7.4551963157982089,
            55.132138058527694
          ],
          [
            -7.456586232144474,
            55.131690139508763
          ],
          [
            -7.4577324333333328,
            55.130970683333331
          ],
          [
            -7.4582385166666674,
            55.130116916666672
          ],
          [
            -7.4579082666666681,
            55.12917263333334
          ],
          [
            -7.457758368747573,
            55.128074677518619
          ],
          [
            -7.4570899333333331,
            55.127378883333328
          ],
          [
            -7.4566893666666658,
            55.126241066666672
          ],
          [
            -7.4563172333333343,
            55.125173550000007
          ],
          [
            -7.4559562666666679,
            55.124223216666657
          ],
          [
            -7.4562259166666669,
            55.123014733333335
          ],
          [
            -7.4570057499999995,
            55.12170471666667
          ],
          [
            -7.4576056333333325,
            55.120276366666666
          ],
          [
            -7.4581231333333342,
            55.118973383333334
          ],
          [
            -7.4591562333333323,
            55.117495899999994
          ],
          [
            -7.4604943333333331,
            55.116296233333337
          ],
          [
            -7.4617585833333333,
            55.115155616666669
          ],
          [
            -7.4631680166666667,
            55.113844666666665
          ],
          [
            -7.4647523833333338,
            55.112425833333326
          ],
          [
            -7.4652300499999997,
            55.112002716666666
          ],
          [
            -7.466386833333333,
            55.110973383333338
          ],
          [
            -7.4682258833333348,
            55.1093385
          ],
          [
            -7.4697456833333336,
            55.107549299999995
          ],
          [
            -7.4711385000000003,
            55.105895133333327
          ],
          [
            -7.4728300166666681,
            55.104419666666672
          ],
          [
            -7.4746663499999988,
            55.103044200000006
          ],
          [
            -7.4765502833333342,
            55.101620016666665
          ],
          [
            -7.4774370333333326,
            55.100098466666672
          ],
          [
            -7.477684599999999,
            55.098560033333328
          ],
          [
            -7.4779943000000006,
            55.097058699999998
          ],
          [
            -7.4784768500000007,
            55.095383083333338
          ],
          [
            -7.4782668999999995,
            55.093738466666672
          ],
          [
            -7.4786517833333335,
            55.092394500000005
          ],
          [
            -7.4781743331857529,
            55.091028344756943
          ],
          [
            -7.4770014914054972,
            55.089734381808327
          ],
          [
            -7.475303285362016,
            55.088645890638226
          ],
          [
            -7.4733125333333321,
            55.087737933333329
          ],
          [
            -7.4711503340363681,
            55.087052698292027
          ],
          [
            -7.4692900678218139,
            55.086225074427517
          ],
          [
            -7.4674811833333328,
            55.08545813333334
          ],
          [
            -7.4652060740026949,
            55.085186966845725
          ],
          [
            -7.4633151319815658,
            55.084387195993138
          ],
          [
            -7.4616164129988931,
            55.083396139518115
          ],
          [
            -7.4607583539755291,
            55.082030660178248
          ],
          [
            -7.4591117666666662,
            55.080755066666669
          ],
          [
            -7.4571718333333328,
            55.079771283333336
          ],
          [
            -7.4548592441584995,
            55.078628161257789
          ],
          [
            -7.4527582470705864,
            55.077574383184981
          ],
          [
            -7.4505047000000015,
            55.076384750000003
          ],
          [
            -7.4484059166666672,
            55.075347499999999
          ],
          [
            -7.4460662999999991,
            55.074110266666672
          ],
          [
            -7.4439548469049841,
            55.072744743863637
          ],
          [
            -7.4420141133321467,
            55.07128460096682
          ],
          [
            -7.4399715463234859,
            55.069743958504269
          ],
          [
            -7.4380057236642294,
            55.068293839951039
          ],
          [
            -7.436117949999999,
            55.067165966666671
          ],
          [
            -7.4341148129210124,
            55.066213480536739
          ],
          [
            -7.4320581628909483,
            55.065420977733524
          ],
          [
            -7.4298815609447013,
            55.06463697101178
          ],
          [
            -7.427559333333333,
            55.063774733333339
          ],
          [
            -7.4251428499999994,
            55.062906433333339
          ],
          [
            -7.4223904166666674,
            55.061936666666661
          ],
          [
            -7.4197477499999991,
            55.060924666666672
          ],
          [
            -7.4172853125880316,
            55.059873982458129
          ],
          [
            -7.4143570166666661,
            55.059272300000003
          ],
          [
            -7.411484783333333,
            55.059462933333336
          ],
          [
            -7.4087950999999999,
            55.05965041666667
          ],
          [
            -7.4066101,
            55.05961349999999
          ],
          [
            -7.4053298000000005,
            55.05849163333334
          ],
          [
            -7.4046582166666663,
            55.057299250000007
          ],
          [
            -7.4037707045232999,
            55.056271357713861
          ],
          [
            -7.4032683464521982,
            55.055324253397906
          ],
          [
            -7.4039040422234592,
            55.054318788044732
          ],
          [
            -7.4056775613360815,
            55.053870991936499
          ],
          [
            -7.4071930520827607,
            55.053506861475384
          ],
          [
            -7.4096385963508755,
            55.05280441440857
          ],
          [
            -7.4120889130740295,
            55.052090647737664
          ],
          [
            -7.4143635127228364,
            55.051447456017023
          ],
          [
            -7.4165165792769701,
            55.050835373006173
          ],
          [
            -7.4186117726550229,
            55.050205614500044
          ],
          [
            -7.4209064550538733,
            55.049398804623493
          ],
          [
            -7.4232598581972065,
            55.048571858670471
          ],
          [
            -7.4256739852844049,
            55.047717597367971
          ],
          [
            -7.4280623088355071,
            55.046875417349277
          ],
          [
            -7.4299201642786779,
            55.046162433725982
          ],
          [
            -7.4300095909123742,
            55.044932768196489
          ],
          [
            -7.4295587926189137,
            55.043682776404914
          ],
          [
            -7.4289300369692333,
            55.042495096031857
          ],
          [
            -7.42842781611684,
            55.041410739124558
          ],
          [
            -7.4280286082421751,
            55.040476337093857
          ],
          [
            -7.4281410949425837,
            55.039533352103334
          ],
          [
            -7.4271822523422903,
            55.038751110475651
          ],
          [
            -7.4261655066920067,
            55.037984555224746
          ],
          [
            -7.4251505412804226,
            55.037174310240204
          ],
          [
            -7.4242090679904598,
            55.036566362106285
          ],
          [
            -7.4230753910406859,
            55.035895393839013
          ],
          [
            -7.4219718157826309,
            55.035218670419582
          ],
          [
            -7.4236406739488583,
            55.035103205118624
          ],
          [
            -7.4251398420171775,
            55.034442481770419
          ],
          [
            -7.4265559803083736,
            55.033796195289973
          ],
          [
            -7.427858714154862,
            55.033195469902502
          ],
          [
            -7.4291902016690088,
            55.032541576553761
          ],
          [
            -7.4302895878611022,
            55.031765769157225
          ],
          [
            -7.43114622504278,
            55.030971353899325
          ],
          [
            -7.4315888444841169,
            55.030062495347629
          ],
          [
            -7.431709597049446,
            55.029124814921161
          ],
          [
            -7.4309650549176967,
            55.02828039360805
          ],
          [
            -7.4315831213926682,
            55.027421637737781
          ],
          [
            -7.4326570461927499,
            55.026756252667028
          ],
          [
            -7.4336148833476194,
            55.026019105627249
          ],
          [
            -7.4340207224532087,
            55.02485985928783
          ],
          [
            -7.4338501685255061,
            55.023840038368519
          ],
          [
            -7.4336561288511191,
            55.022859798410465
          ],
          [
            -7.432787116974942,
            55.02213564203948
          ],
          [
            -7.4319788863159744,
            55.022361705904949
          ],
          [
            -7.431557810256499,
            55.023243634571848
          ],
          [
            -7.4308495416211464,
            55.024076952280922
          ],
          [
            -7.4296550293035803,
            55.024663973707874
          ],
          [
            -7.4266516333333339,
            55.02476235000001
          ],
          [
            -7.428143278654975,
            55.025075965657535
          ],
          [
            -7.4296400625050429,
            55.024704056663325
          ],
          [
            -7.4308550363644921,
            55.024101421573015
          ],
          [
            -7.4316074078104819,
            55.023277113000304
          ],
          [
            -7.4320518909128035,
            55.022376689240339
          ],
          [
            -7.4335822333333343,
            55.022632850000008
          ],
          [
            -7.433803283333333,
            55.023766733333332
          ],
          [
            -7.4339826166666665,
            55.024740699999995
          ],
          [
            -7.4337907833333334,
            55.025655083333341
          ],
          [
            -7.4329602166666673,
            55.026490250000002
          ],
          [
            -7.4316592638801886,
            55.027296607580048
          ],
          [
            -7.4309350499999995,
            55.028120633333344
          ],
          [
            -7.4315586833333329,
            55.029017283333332
          ],
          [
            -7.4315438937745144,
            55.030138782852944
          ],
          [
            -7.4309437166666674,
            55.031151450000003
          ],
          [
            -7.429844833333334,
            55.032073099999998
          ],
          [
            -7.428575733333334,
            55.032833733333334
          ],
          [
            -7.4268565999999998,
            55.033633916666666
          ],
          [
            -7.4251764790636328,
            55.034387074275067
          ],
          [
            -7.4238275901210784,
            55.03498897444743
          ],
          [
            -7.4238275901210784,
            55.03498897444743
          ],
          [
            -7.4223583666666659,
            55.035540233333329
          ],
          [
            -7.4235426666666671,
            55.036216233333334
          ],
          [
            -7.4246175000000001,
            55.036920099999996
          ],
          [
            -7.4257264000000003,
            55.037719850000002
          ],
          [
            -7.4266938333333332,
            55.038550016666669
          ],
          [
            -7.4277701205668523,
            55.039207701661226
          ],
          [
            -7.4303087000000012,
            55.039857233333336
          ],
          [
            -7.4335635500000006,
            55.039429066666656
          ],
          [
            -7.4370428666666673,
            55.038946050000007
          ],
          [
            -7.439910516666667,
            55.037986666666669
          ],
          [
            -7.4424307333333326,
            55.036480566666661
          ],
          [
            -7.445761516666666,
            55.035434699999996
          ],
          [
            -7.4490106333333337,
            55.034658033333336
          ],
          [
            -7.4516781833333336,
            55.033444066666668
          ],
          [
            -7.4542740666666667,
            55.032311433333341
          ],
          [
            -7.4567942499999997,
            55.031336566666674
          ],
          [
            -7.459344183333334,
            55.030449883333326
          ],
          [
            -7.4627723000000001,
            55.030029066666678
          ],
          [
            -7.4661972166666661,
            55.029205066666655
          ],
          [
            -7.4686644999999992,
            55.027932233333331
          ],
          [
            -7.4707438333333336,
            55.026655183333332
          ],
          [
            -7.4723056166666666,
            55.025541249999996
          ],
          [
            -7.4739372166666662,
            55.023934449999992
          ],
          [
            -7.4754534999999995,
            55.022403566666668
          ],
          [
            -7.4761899333333339,
            55.021649566666675
          ],
          [
            -7.4768971000000004,
            55.020897916666669
          ],
          [
            -7.4780580666666667,
            55.019401800000004
          ],
          [
            -7.4785317166666667,
            55.018461300000006
          ],
          [
            -7.4793148673775258,
            55.017525523879989
          ],
          [
            -7.4791262499999993,
            55.016732750000003
          ],
          [
            -7.479768933333335,
            55.015277699999992
          ],
          [
            -7.4808359333333323,
            55.013812516666668
          ],
          [
            -7.482100083333334,
            55.012076549999996
          ],
          [
            -7.4835644166666668,
            55.010020850000004
          ],
          [
            -7.4852524333333328,
            55.008427583333329
          ],
          [
            -7.4873775,
            55.007389533333324
          ],
          [
            -7.4897297833333329,
            55.006350499999996
          ],
          [
            -7.4923624499999999,
            55.005193599999998
          ],
          [
            -7.4935527000000004,
            55.004669900000003
          ],
          [
            -7.4950352000000011,
            55.004024683333334
          ],
          [
            -7.4977926166666675,
            55.002804166666657
          ],
          [
            -7.500332433333333,
            55.001682433333329
          ],
          [
            -7.5030317833333333,
            55.000750833333328
          ],
          [
            -7.5062585333333329,
            55.000079683333333
          ],
          [
            -7.5095271166666668,
            54.999466500000004
          ],
          [
            -7.5125682999999999,
            54.998902466666671
          ],
          [
            -7.5154620666666672,
            54.99835933333334
          ],
          [
            -7.5186508999999999,
            54.997710533333333
          ],
          [
            -7.5215192833333333,
            54.996976866666664
          ],
          [
            -7.5241502833333342,
            54.996241333333337
          ],
          [
            -7.5266158500000007,
            54.995547383333331
          ],
          [
            -7.5293520000000003,
            54.994762116666664
          ],
          [
            -7.5315458666666668,
            54.993416199999999
          ],
          [
            -7.5345765666666678,
            54.992563466666667
          ],
          [
            -7.5381033666666664,
            54.99247059999999
          ],
          [
            -7.5417127166666651,
            54.991956183333329
          ],
          [
            -7.5451114666666665,
            54.991477166666662
          ],
          [
            -7.5483197666666664,
            54.99063628333333
          ],
          [
            -7.5510947833333333,
            54.989177599999991
          ],
          [
            -7.5535973333333324,
            54.987309966666672
          ],
          [
            -7.556101533333333,
            54.985435433333329
          ],
          [
            -7.5587190666666668,
            54.98360628333333
          ],
          [
            -7.561834666666666,
            54.981935066666658
          ],
          [
            -7.564920166666667,
            54.980421183333327
          ],
          [
            -7.5682368666666662,
            54.978817383333336
          ],
          [
            -7.5716461833333337,
            54.977168349999992
          ],
          [
            -7.5746215333333344,
            54.975722633333326
          ],
          [
            -7.5763581833333342,
            54.974977700000004
          ],
          [
            -7.5778714333333328,
            54.974552633333332
          ],
          [
            -7.5811390666666654,
            54.974004583333333
          ],
          [
            -7.5841964333333332,
            54.97362755000001
          ],
          [
            -7.5870382833333334,
            54.973286383333331
          ],
          [
            -7.5897017333333334,
            54.972964016666673
          ],
          [
            -7.5927397000000001,
            54.97258273333334
          ],
          [
            -7.5962173000000002,
            54.972273283333337
          ],
          [
            -7.5995450499999997,
            54.972218583333337
          ],
          [
            -7.6033252500000001,
            54.97217486666667
          ],
          [
            -7.606859083333334,
            54.971651433333335
          ],
          [
            -7.6097477833333347,
            54.970550066666661
          ],
          [
            -7.6123561833333326,
            54.969145033333341
          ],
          [
            -7.6149237166666675,
            54.967520183333335
          ],
          [
            -7.6175119333333328,
            54.965573516666666
          ],
          [
            -7.6190609,
            54.963309200000005
          ],
          [
            -7.6202804333333329,
            54.961219299999996
          ],
          [
            -7.6214752166666671,
            54.95920301666667
          ],
          [
            -7.6226304500000008,
            54.957264899999998
          ],
          [
            -7.6237280499999995,
            54.955395616666664
          ],
          [
            -7.6249630333333336,
            54.953334699999999
          ],
          [
            -7.6260545999999998,
            54.951488000000005
          ],
          [
            -7.6272139000000001,
            54.949594183333325
          ],
          [
            -7.6291197666666672,
            54.947808133333332
          ],
          [
            -7.6316033500000007,
            54.946458933333325
          ],
          [
            -7.6337852000000002,
            54.945277016666658
          ],
          [
            -7.6352554166666664,
            54.944485833333324
          ],
          [
            -7.6368603833333335,
            54.944339300000003
          ],
          [
            -7.6392622999999995,
            54.944950333333324
          ],
          [
            -7.6419218000000004,
            54.945611849999992
          ],
          [
            -7.6452678666666678,
            54.946424350000008
          ],
          [
            -7.6486305833333326,
            54.947489666666662
          ],
          [
            -7.6514189166666666,
            54.94877056666666
          ],
          [
            -7.6543221166666671,
            54.950195216666664
          ],
          [
            -7.6575973126038344,
            54.951463330332828
          ],
          [
            -7.661081666666667,
            54.95190663333333
          ],
          [
            -7.6646903335595011,
            54.95136612882483
          ],
          [
            -7.6677752610477699,
            54.949972093038291
          ],
          [
            -7.6708640666666668,
            54.948192533333334
          ],
          [
            -7.6744511285471804,
            54.946589981553139
          ],
          [
            -7.678013785565696,
            54.945453314331658
          ],
          [
            -7.6813728739831975,
            54.944689137657747
          ],
          [
            -7.685190908335251,
            54.944053485348341
          ],
          [
            -7.6886109087831889,
            54.943494731323653
          ],
          [
            -7.6917050813311825,
            54.94306278484413
          ],
          [
            -7.6941067833333321,
            54.943128499999993
          ],
          [
            -7.6958980666666665,
            54.942445016666674
          ],
          [
            -7.6961080958701604,
            54.940504905298845
          ],
          [
            -7.6960503224122547,
            54.938361773259736
          ],
          [
            -7.6960898264870146,
            54.936370713591053
          ],
          [
            -7.6961444163729791,
            54.934341813495784
          ],
          [
            -7.6960414999999989,
            54.932488550000002
          ],
          [
            -7.6956248,
            54.930790133333325
          ],
          [
            -7.6955194666666671,
            54.92884586666667
          ],
          [
            -7.6959141833333344,
            54.927479933333338
          ],
          [
            -7.6959733666666672,
            54.926406416666666
          ],
          [
            -7.6955477690933201,
            54.924256306791222
          ],
          [
            -7.6958024666666676,
            54.926846183333325
          ],
          [
            -7.6953521166666672,
            54.928680383333329
          ],
          [
            -7.6953797333333345,
            54.930522700000004
          ],
          [
            -7.6957918633122935,
            54.932136678788083
          ],
          [
            -7.6959609004322562,
            54.933879171347954
          ],
          [
            -7.6959282345202817,
            54.93548439099736
          ],
          [
            -7.6959142832169221,
            54.935959232447779
          ],
          [
            -7.6958772278818586,
            54.937231596942922
          ],
          [
            -7.6958726166666658,
            54.9387835
          ],
          [
            -7.6959293333333338,
            54.940271683333343
          ],
          [
            -7.6958692000000006,
            54.941668399999998
          ],
          [
            -7.6956882833333333,
            54.942687283333328
          ],
          [
            -7.6963362166666665,
            54.943555950000004
          ],
          [
            -7.6983479333333342,
            54.944203350000002
          ],
          [
            -7.7006672999999992,
            54.944891116666668
          ],
          [
            -7.7032738666666658,
            54.945616900000005
          ],
          [
            -7.7057146166666675,
            54.946185450000002
          ],
          [
            -7.7084460833333326,
            54.946776783333341
          ],
          [
            -7.7109143666666657,
            54.947283749999997
          ],
          [
            -7.7130985333333344,
            54.947853583333334
          ],
          [
            -7.7146777166666674,
            54.948480999999994
          ],
          [
            -7.7147673499999998,
            54.949398000000002
          ],
          [
            -7.7134270666666662,
            54.949881583333337
          ],
          [
            -7.7124092833333329,
            54.95059934999999
          ],
          [
            -7.7114210166666668,
            54.95131893333334
          ],
          [
            -7.7106030833333321,
            54.952097583333341
          ],
          [
            -7.7099328833333329,
            54.95293323333334
          ],
          [
            -7.7093921166666668,
            54.953807883333333
          ],
          [
            -7.7089091166666659,
            54.954698283333329
          ],
          [
            -7.708321783333334,
            54.955544583333328
          ],
          [
            -7.7074568499999998,
            54.956306700000006
          ],
          [
            -7.706493533333334,
            54.957042416666674
          ],
          [
            -7.7048963333333331,
            54.957893216666662
          ],
          [
            -7.7027985333333335,
            54.958048266666673
          ],
          [
            -7.7009925166666671,
            54.958087616666674
          ],
          [
            -7.699292464700501,
            54.958118761754449
          ],
          [
            -7.6974244549181909,
            54.958157316987865
          ],
          [
            -7.6954161833333332,
            54.958191100000008
          ],
          [
            -7.6932738666666669,
            54.958549066666663
          ],
          [
            -7.6923442166666671,
            54.959603833333325
          ],
          [
            -7.6917596166666673,
            54.960864049999991
          ],
          [
            -7.691140766666666,
            54.962304333333336
          ],
          [
            -7.6916558000000004,
            54.9636177
          ],
          [
            -7.691978633333334,
            54.964927416666661
          ],
          [
            -7.6910978833333328,
            54.965783600000002
          ],
          [
            -7.68994935,
            54.967255183333329
          ],
          [
            -7.6894368833333333,
            54.968474116666663
          ],
          [
            -7.6894612666666662,
            54.96978683333333
          ],
          [
            -7.6897460557765855,
            54.970924501363349
          ],
          [
            -7.6893888499999994,
            54.971848833333326
          ],
          [
            -7.6879652583033149,
            54.972360772798702
          ],
          [
            -7.6895609333333335,
            54.971851883333322
          ],
          [
            -7.6898325999999999,
            54.971144349999996
          ],
          [
            -7.6895210833333332,
            54.969680349999997
          ],
          [
            -7.6896699999999996,
            54.968102249999994
          ],
          [
            -7.6903649333333322,
            54.966625549999996
          ],
          [
            -7.6917200833333332,
            54.965372250000001
          ],
          [
            -7.6920509499999996,
            54.963992766666657
          ],
          [
            -7.6912774999999991,
            54.962663300000003
          ],
          [
            -7.6917082999999993,
            54.961248899999994
          ],
          [
            -7.6923036833333338,
            54.959960766666669
          ],
          [
            -7.6932191666666681,
            54.95868801666667
          ],
          [
            -7.6955628000000011,
            54.958236266666667
          ],
          [
            -7.6980928833333344,
            54.958186249999997
          ],
          [
            -7.6997676833333326,
            54.958151516666668
          ],
          [
            -7.7019010833333335,
            54.95811878333334
          ],
          [
            -7.7042513999999995,
            54.958056999999997
          ],
          [
            -7.7061754500000008,
            54.957435683333337
          ],
          [
            -7.7073921000000007,
            54.956502900000004
          ],
          [
            -7.7089515666666673,
            54.956417899999998
          ],
          [
            -7.7088965166666661,
            54.957476050000004
          ],
          [
            -7.709075283333334,
            54.958507366666666
          ],
          [
            -7.7094000666666664,
            54.959427933333338
          ],
          [
            -7.7114431833333343,
            54.960235799999992
          ],
          [
            -7.7132094999999996,
            54.961421733333331
          ],
          [
            -7.7152829333333326,
            54.962832599999999
          ],
          [
            -7.7178559000000009,
            54.963784533333332
          ],
          [
            -7.7178559000000009,
            54.963784533333332
          ],
          [
            -7.7205896166666665,
            54.964284116666676
          ],
          [
            -7.7237380499999988,
            54.964658249999999
          ],
          [
            -7.7265600166666664,
            54.964846900000005
          ],
          [
            -7.7289830999999989,
            54.964921033333333
          ],
          [
            -7.7304514666666666,
            54.96589543333333
          ],
          [
            -7.7298735999999995,
            54.967378766666663
          ],
          [
            -7.7292620999999997,
            54.968957883333324
          ],
          [
            -7.7286824166666674,
            54.970473866666659
          ],
          [
            -7.7280289333333325,
            54.972071200000002
          ],
          [
            -7.7264726166666664,
            54.973518383333342
          ],
          [
            -7.7251909166666657,
            54.974842466666658
          ],
          [
            -7.7248976000000011,
            54.976328950000003
          ],
          [
            -7.725438116666667,
            54.977533616666669
          ],
          [
            -7.7260707000000002,
            54.978397666666659
          ],
          [
            -7.7267913500000001,
            54.979308750000008
          ],
          [
            -7.7274239000000007,
            54.981059949999988
          ],
          [
            -7.7278819166666661,
            54.983103666666665
          ],
          [
            -7.728292933333333,
            54.984982966666664
          ],
          [
            -7.7287034333333331,
            54.986816749999996
          ],
          [
            -7.7292769333333338,
            54.988634349999998
          ],
          [
            -7.7297595499999998,
            54.990409200000009
          ],
          [
            -7.7294148833333347,
            54.992130449999998
          ],
          [
            -7.7291299999999996,
            54.99377355
          ],
          [
            -7.7295930000000004,
            54.995193866666661
          ],
          [
            -7.7302921333333341,
            54.996102366666676
          ],
          [
            -7.7310552499999998,
            54.996940016666663
          ],
          [
            -7.7324837500000001,
            54.998474383333331
          ],
          [
            -7.7335359666666674,
            54.999628000000001
          ],
          [
            -7.7353029333333323,
            55.001498033333334
          ],
          [
            -7.7372439333333336,
            55.003508433333337
          ],
          [
            -7.7390543000000003,
            55.005340949999997
          ],
          [
            -7.7409121333333344,
            55.007224833333339
          ],
          [
            -7.7427695833333345,
            55.0089933
          ],
          [
            -7.7453966999999988,
            55.010306466666663
          ],
          [
            -7.7491314333333339,
            55.011144200000004
          ],
          [
            -7.752615566666667,
            55.011829516666658
          ],
          [
            -7.7561208833333328,
            55.012641716666671
          ],
          [
            -7.759341683333334,
            55.013705600000009
          ],
          [
            -7.7622353500000001,
            55.014657366666675
          ],
          [
            -7.7646696166666667,
            55.015932850000006
          ],
          [
            -7.7659823999999995,
            55.017560000000003
          ],
          [
            -7.7662486666666668,
            55.019348683333327
          ],
          [
            -7.7663086333333338,
            55.021090083333334
          ],
          [
            -7.7670521333333342,
            55.022939550000004
          ],
          [
            -7.7689905333333344,
            55.024204783333332
          ],
          [
            -7.77087445,
            55.025374049999996
          ],
          [
            -7.7724773833333334,
            55.02645900000001
          ],
          [
            -7.7745415999999992,
            55.027551700000011
          ],
          [
            -7.7763705666666665,
            55.028406250000003
          ],
          [
            -7.777883583333332,
            55.02933603333333
          ],
          [
            -7.7791359166666663,
            55.030137916666668
          ],
          [
            -7.7803447164181474,
            55.030893035373325
          ],
          [
            -7.781793566666666,
            55.031806883333338
          ],
          [
            -7.7822193833333344,
            55.033316333333332
          ],
          [
            -7.7830035833333344,
            55.034926333333338
          ],
          [
            -7.7845598499999991,
            55.036079016666662
          ],
          [
            -7.7874327666666652,
            55.036450183333329
          ],
          [
            -7.7904547000000006,
            55.036833049999991
          ],
          [
            -7.7930249333333341,
            55.037396616666662
          ],
          [
            -7.7954474333333339,
            55.038298033333334
          ],
          [
            -7.7980463499999999,
            55.039275733333334
          ],
          [
            -7.8004483333333328,
            55.04018554999999
          ],
          [
            -7.8031392833333335,
            55.041181666666674
          ],
          [
            -7.8056124166666665,
            55.04261318333333
          ],
          [
            -7.8078235666666673,
            55.043967183333336
          ],
          [
            -7.8104989333333341,
            55.044920249999997
          ],
          [
            -7.8130490500000009,
            55.045823166666672
          ],
          [
            -7.8150365833333337,
            55.046935183333332
          ],
          [
            -7.8168253333333331,
            55.048323866666671
          ],
          [
            -7.8179120666666657,
            55.04970551666667
          ],
          [
            -7.8192369499999996,
            55.051045716666671
          ],
          [
            -7.8214711333333335,
            55.05222246666667
          ],
          [
            -7.8230947499999992,
            55.053616616666673
          ],
          [
            -7.8256014999999994,
            55.054924133333337
          ],
          [
            -7.8280861166666664,
            55.056040600000003
          ],
          [
            -7.8306430499999999,
            55.057058350000005
          ],
          [
            -7.8335356000000003,
            55.058187916666675
          ],
          [
            -7.8363998833333337,
            55.059316283333324
          ],
          [
            -7.8391018499999996,
            55.060382700000005
          ],
          [
            -7.8416618000000007,
            55.061379883333331
          ],
          [
            -7.844682033333334,
            55.062301566666669
          ],
          [
            -7.8474789333333339,
            55.063116049999991
          ],
          [
            -7.8501866833333338,
            55.063905616666673
          ],
          [
            -7.8526070727032238,
            55.064508148815676
          ],
          [
            -7.8540230833333338,
            55.064451999999996
          ],
          [
            -7.8551327833333326,
            55.06481671666667
          ],
          [
            -7.8565290333333335,
            55.066313133333338
          ],
          [
            -7.8577710833333336,
            55.068014233333329
          ],
          [
            -7.859097366666667,
            55.069830699999997
          ],
          [
            -7.8604308000000005,
            55.071667699999999
          ],
          [
            -7.8614224999999998,
            55.073338083333333
          ],
          [
            -7.862547283333333,
            55.075115466666659
          ],
          [
            -7.8636447333333326,
            55.07672663333333
          ],
          [
            -7.8651434166666663,
            55.078085866666669
          ],
          [
            -7.8660312166666655,
            55.079721950000007
          ],
          [
            -7.8674329500000004,
            55.081022116666659
          ],
          [
            -7.86944175,
            55.082269833333342
          ],
          [
            -7.8712929166666656,
            55.083616349999993
          ],
          [
            -7.872893283333334,
            55.08501563333332
          ],
          [
            -7.8742614500000006,
            55.086477866666669
          ],
          [
            -7.8754353999999998,
            55.088076299999997
          ],
          [
            -7.8766935000000009,
            55.089510900000008
          ],
          [
            -7.8780847166666659,
            55.09063355
          ],
          [
            -7.8804078866159992,
            55.090813807271537
          ],
          [
            -7.8825328333333324,
            55.090287599999996
          ],
          [
            -7.8853635166666667,
            55.089894850000007
          ],
          [
            -7.8881060333333348,
            55.090081099999999
          ],
          [
            -7.8907705333333329,
            55.09038721666667
          ],
          [
            -7.8933659499999997,
            55.090774466666666
          ],
          [
            -7.8955217833333338,
            55.091155066666673
          ],
          [
            -7.8971154233677847,
            55.091498638999141
          ],
          [
            -7.8985886020445468,
            55.092095531151493
          ],
          [
            -7.899506866666667,
            55.092741250000003
          ],
          [
            -7.9008742500000002,
            55.094283383333341
          ],
          [
            -7.9023725833333325,
            55.095974216666669
          ],
          [
            -7.9040394499999991,
            55.09745121666667
          ],
          [
            -7.9061578547224434,
            55.098664896233586
          ],
          [
            -7.9077219717600391,
            55.100267307605044
          ],
          [
            -7.9074959666666667,
            55.102021616666661
          ],
          [
            -7.9059576833333329,
            55.103483933333337
          ],
          [
            -7.9049524,
            55.1052052
          ],
          [
            -7.9061867261026491,
            55.106862908290182
          ],
          [
            -7.9080268500000006,
            55.108296100000004
          ],
          [
            -7.9090729157656616,
            55.109616449952654
          ],
          [
            -7.9084579640503216,
            55.111262262948088
          ],
          [
            -7.9080394290124074,
            55.112798776515078
          ],
          [
            -7.9079904500073388,
            55.114546237625738
          ],
          [
            -7.9069386975577629,
            55.116057568765605
          ],
          [
            -7.9063114053616781,
            55.11741810605352
          ],
          [
            -7.9056796236513458,
            55.11883062970044
          ],
          [
            -7.9049832499999999,
            55.119811216666662
          ],
          [
            -7.9046381094986655,
            55.12082030950598
          ],
          [
            -7.9059295677680783,
            55.121486228031692
          ],
          [
            -7.9072433400606563,
            55.122259328399608
          ],
          [
            -7.9087679,
            55.123016700000001
          ],
          [
            -7.9104704991714874,
            55.123846807664727
          ],
          [
            -7.9118610714146085,
            55.125114334471412
          ],
          [
            -7.9126376128797427,
            55.12634662697689
          ],
          [
            -7.9129887999999999,
            55.127784033333334
          ],
          [
            -7.9133284333333336,
            55.129158233333321
          ],
          [
            -7.9145833666666672,
            55.13049706666667
          ],
          [
            -7.9158697567920804,
            55.131872340581822
          ],
          [
            -7.9159674962324065,
            55.133583072827733
          ],
          [
            -7.9151953300303051,
            55.135389350704699
          ],
          [
            -7.9147534666666672,
            55.137033666666667
          ],
          [
            -7.9152535333333338,
            55.138851833333334
          ],
          [
            -7.9158427666666666,
            55.140418016666672
          ],
          [
            -7.9174705833333325,
            55.141747049999999
          ],
          [
            -7.9196427333333341,
            55.142953050000003
          ],
          [
            -7.9217568000000007,
            55.144059400000003
          ],
          [
            -7.9243518833333324,
            55.144814866666671
          ],
          [
            -7.9268265594323761,
            55.145133220475039
          ],
          [
            -7.9286486390988369,
            55.146176520265577
          ],
          [
            -7.9291282088565209,
            55.147883882464271
          ],
          [
            -7.9283093674987253,
            55.14950971430585
          ],
          [
            -7.9282990603829662,
            55.151392768156178
          ],
          [
            -7.9271783350473211,
            55.153241411514927
          ],
          [
            -7.9260855757421496,
            55.15499730258788
          ],
          [
            -7.92473641191184,
            55.15666787582073
          ],
          [
            -7.9240585864287949,
            55.157404611230696
          ],
          [
            -7.9232192663812349,
            55.158327232917564
          ],
          [
            -7.9219228666666668,
            55.15948418333334
          ],
          [
            -7.920699297785311,
            55.160948356752925
          ],
          [
            -7.9208339977374687,
            55.162811952117693
          ],
          [
            -7.9209812409696934,
            55.164487637862372
          ],
          [
            -7.9212106666666671,
            55.166019616666674
          ],
          [
            -7.9209346298918941,
            55.167634495647832
          ],
          [
            -7.9208245732951656,
            55.169211894384077
          ],
          [
            -7.92210482414532,
            55.170792270447691
          ],
          [
            -7.9242260282363697,
            55.171900461686093
          ],
          [
            -7.925893826028215,
            55.173087927668526
          ],
          [
            -7.9276126419832531,
            55.17404667881496
          ],
          [
            -7.9285436234729714,
            55.175348039844081
          ],
          [
            -7.9295577366183601,
            55.176705381141502
          ],
          [
            -7.9316654666666677,
            55.177706916666665
          ],
          [
            -7.9336457534034972,
            55.178450677693952
          ],
          [
            -7.9365627902295062,
            55.178154728974043
          ],
          [
            -7.9391362018914,
            55.177692812691959
          ],
          [
            -7.9416023184592133,
            55.177276876358299
          ],
          [
            -7.9448590500000007,
            55.1775515
          ],
          [
            -7.9481147000000005,
            55.178650633333334
          ],
          [
            -7.9510890499999993,
            55.179520249999996
          ],
          [
            -7.9541039499999986,
            55.180195866666658
          ],
          [
            -7.9566783333333335,
            55.180539466666666
          ],
          [
            -7.9589437862164996,
            55.180568028605173
          ],
          [
            -7.9610021405955438,
            55.181139602500835
          ],
          [
            -7.9626406598292334,
            55.182013988984671
          ],
          [
            -7.9659555597447618,
            55.182316581964272
          ]
        ]
      },
      "type" : "Feature",
      "properties" : {
        "device" : "B9E47AEB-E54C-4563-96B6-06995DD4BC56 (iPhone 16 Pro)",
        "type" : "route",
        "start" : "2026-05-04T22:00:00Z",
        "end" : "2026-05-05T21:59:59Z",
        "source" : "Geory 5.3.2"
      }
    }
  ],
  "type" : "FeatureCollection"
}