{
  "type" : "FeatureCollection",
  "features" : [
    {
      "geometry" : {
        "coordinates" : [
          -4.5510635423246644,
          55.074544697436885
        ],
        "type" : "Point"
      },
      "properties" : {
        "departure" : "2026-05-09T09:53:21Z",
        "duration" : 52698.546325683594,
        "weather" : "Bedeckter Himmel (10,3 °C)",
        "device" : "B9E47AEB-E54C-4563-96B6-06995DD4BC56 (iPhone 16 Pro)",
        "address" : "Newton Stewart, DG8, Schottland",
        "arrival" : "2026-05-08T19:15:03Z",
        "timestamp" : "2026-05-08T19:15:03Z",
        "source" : "Geory 5.3.2",
        "rating" : 0,
        "type" : "visit"
      },
      "type" : "Feature"
    },
    {
      "type" : "Feature",
      "geometry" : {
        "coordinates" : [
          -4.5443652567262465,
          55.070789510626668
        ],
        "type" : "Point"
      },
      "properties" : {
        "arrival" : "2026-05-09T10:09:27Z",
        "timestamp" : "2026-05-09T10:09:27Z",
        "weather" : "Überwiegend bewölkt (10,1 °C)",
        "type" : "visit",
        "departure" : "2026-05-09T10:30:53Z",
        "duration" : 1286.0001616477966,
        "device" : "B9E47AEB-E54C-4563-96B6-06995DD4BC56 (iPhone 16 Pro)",
        "rating" : 0,
        "source" : "Geory 5.3.2",
        "address" : "European Long Distance Path Two, Bargrennan, Newton Stewart, DG8, Schottland"
      }
    },
    {
      "geometry" : {
        "type" : "Point",
        "coordinates" : [
          -4.5388591478112597,
          55.070911762683579
        ]
      },
      "properties" : {
        "arrival" : "2026-05-09T10:30:54Z",
        "device" : "B9E47AEB-E54C-4563-96B6-06995DD4BC56 (iPhone 16 Pro)",
        "address" : "European Long Distance Path Two, Bargrennan, Newton Stewart, DG8, Schottland",
        "departure" : "2026-05-09T10:46:34Z",
        "type" : "visit",
        "duration" : 940.00028967857361,
        "timestamp" : "2026-05-09T10:30:54Z",
        "rating" : 0,
        "weather" : "Bedeckter Himmel (10,4 °C)",
        "source" : "Geory 5.3.2"
      },
      "type" : "Feature"
    },
    {
      "type" : "Feature",
      "geometry" : {
        "type" : "Point",
        "coordinates" : [
          -4.5322707908682656,
          55.072553338250039
        ]
      },
      "properties" : {
        "type" : "visit",
        "departure" : "2026-05-09T11:06:19Z",
        "device" : "B9E47AEB-E54C-4563-96B6-06995DD4BC56 (iPhone 16 Pro)",
        "rating" : 0,
        "source" : "Geory 5.3.2",
        "arrival" : "2026-05-09T10:46:35Z",
        "duration" : 1183.9998977184296,
        "address" : "European Long Distance Path Two, Bargrennan, Newton Stewart, DG8, Schottland",
        "timestamp" : "2026-05-09T10:46:35Z",
        "weather" : "Bedeckter Himmel (10,4 °C)"
      }
    },
    {
      "type" : "Feature",
      "geometry" : {
        "type" : "Point",
        "coordinates" : [
          -4.512241730822339,
          55.079065767325886
        ]
      },
      "properties" : {
        "arrival" : "2026-05-09T11:40:31Z",
        "departure" : "2026-05-09T12:23:53Z",
        "duration" : 2601.0004947185516,
        "timestamp" : "2026-05-09T11:40:31Z",
        "rating" : 0,
        "address" : "European Long Distance Path Two, Bargrennan, Newton Stewart, DG8, Schottland",
        "device" : "B9E47AEB-E54C-4563-96B6-06995DD4BC56 (iPhone 16 Pro)",
        "weather" : "Bedeckter Himmel (10,0 °C)",
        "type" : "visit",
        "source" : "Geory 5.3.2"
      }
    },
    {
      "geometry" : {
        "coordinates" : [
          -4.5089779240901988,
          55.0822593145718
        ],
        "type" : "Point"
      },
      "type" : "Feature",
      "properties" : {
        "type" : "visit",
        "device" : "B9E47AEB-E54C-4563-96B6-06995DD4BC56 (iPhone 16 Pro)",
        "timestamp" : "2026-05-09T12:23:54Z",
        "departure" : "2026-05-09T13:21:03Z",
        "duration" : 3429.9989399909973,
        "rating" : 0,
        "source" : "Geory 5.3.2",
        "arrival" : "2026-05-09T12:23:54Z",
        "address" : "Newton Stewart, DG8, Schottland",
        "weather" : "Bedeckter Himmel (10,8 °C)"
      }
    },
    {
      "geometry" : {
        "type" : "Point",
        "coordinates" : [
          -4.5236675629837544,
          55.080324159994909
        ]
      },
      "properties" : {
        "duration" : 1305.9998412132263,
        "rating" : 0,
        "source" : "Geory 5.3.2",
        "arrival" : "2026-05-09T13:37:19Z",
        "type" : "visit",
        "timestamp" : "2026-05-09T13:37:19Z",
        "device" : "B9E47AEB-E54C-4563-96B6-06995DD4BC56 (iPhone 16 Pro)",
        "weather" : "Bedeckter Himmel (10,4 °C)",
        "departure" : "2026-05-09T13:59:05Z",
        "address" : "Newton Stewart, DG8, Schottland"
      },
      "type" : "Feature"
    },
    {
      "properties" : {
        "departure" : "2026-05-10T10:01:05Z",
        "device" : "B9E47AEB-E54C-4563-96B6-06995DD4BC56 (iPhone 16 Pro)",
        "timestamp" : "2026-05-09T14:30:35Z",
        "weather" : "Bedeckter Himmel (10,3 °C)",
        "arrival" : "2026-05-09T14:30:35Z",
        "address" : "Newton Stewart, DG8, Schottland",
        "rating" : 0,
        "source" : "Geory 5.3.2",
        "duration" : 70229.522278308868,
        "type" : "visit"
      },
      "type" : "Feature",
      "geometry" : {
        "type" : "Point",
        "coordinates" : [
          -4.5511823539072216,
          55.074646320068418
        ]
      }
    },
    {
      "type" : "Feature",
      "properties" : {
        "type" : "route",
        "source" : "Geory 5.3.2",
        "device" : "B9E47AEB-E54C-4563-96B6-06995DD4BC56 (iPhone 16 Pro)",
        "end" : "2026-05-09T21:59:59Z",
        "start" : "2026-05-08T22:00:00Z"
      },
      "geometry" : {
        "coordinates" : [
          [
            -4.5511823539072216,
            55.074646320068418
          ],
          [
            -4.5489623316072096,
            55.077031399581884
          ],
          [
            -4.5474045450935447,
            55.076895636577753
          ],
          [
            -4.5456621456444921,
            55.077527715586143
          ],
          [
            -4.5446261686253315,
            55.077195690534396
          ],
          [
            -4.5440492692592258,
            55.076358400873339
          ],
          [
            -4.542624197616437,
            55.07598377342385
          ],
          [
            -4.5422094987082193,
            55.075116317818569
          ],
          [
            -4.5406786380345272,
            55.075326641195545
          ],
          [
            -4.539170358117385,
            55.075597720368336
          ],
          [
            -4.5379025543856493,
            55.076137577785396
          ],
          [
            -4.5364140012704857,
            55.076441553133414
          ],
          [
            -4.5351710937660554,
            55.077002883471614
          ],
          [
            -4.533803758720155,
            55.077447950515264
          ],
          [
            -4.5325611974260704,
            55.077998613188925
          ],
          [
            -4.5312143441381725,
            55.078459837393261
          ],
          [
            -4.5300355292117009,
            55.079062925598684
          ],
          [
            -4.5285931697744983,
            55.079432621557729
          ],
          [
            -4.5273781142231515,
            55.08001464334432
          ],
          [
            -4.5236675629837544,
            55.080324159994909
          ],
          [
            -4.5205915181488106,
            55.081202256793752
          ],
          [
            -4.5194179038068842,
            55.081802105782955
          ],
          [
            -4.5179455891914229,
            55.082496539137075
          ],
          [
            -4.5170026999566684,
            55.081909038655333
          ],
          [
            -4.515471955132103,
            55.081707139569886
          ],
          [
            -4.5143965215797346,
            55.081042188787755
          ],
          [
            -4.5136235260326387,
            55.080260828269886
          ],
          [
            -4.5108476628840792,
            55.080308560497421
          ],
          [
            -4.5089779240901988,
            55.0822593145718
          ],
          [
            -4.512241730822339,
            55.079065767325886
          ],
          [
            -4.5146832387478053,
            55.077613094054222
          ],
          [
            -4.5159069534629266,
            55.077030889002927
          ],
          [
            -4.5169251147200313,
            55.07605883927333
          ],
          [
            -4.5179218421473477,
            55.075664208933873
          ],
          [
            -4.519217615046915,
            55.075154015613421
          ],
          [
            -4.5207864140099074,
            55.075129456090394
          ],
          [
            -4.5223406603776137,
            55.074972472217667
          ],
          [
            -4.52416720991764,
            55.074338087095683
          ],
          [
            -4.5251830779983102,
            55.074205109907545
          ],
          [
            -4.5267261656529865,
            55.074040426121272
          ],
          [
            -4.5278957492835161,
            55.073431994764476
          ],
          [
            -4.5322707908682656,
            55.072553338250039
          ],
          [
            -4.5388591478112597,
            55.070911762683579
          ],
          [
            -4.5443652567262465,
            55.070789510626668
          ],
          [
            -4.5476599217967797,
            55.071433418538227
          ],
          [
            -4.5483977504828017,
            55.072040564035873
          ],
          [
            -4.5492696379930981,
            55.072793062692142
          ],
          [
            -4.5508764096837364,
            55.073837589227942
          ],
          [
            -4.5534066763041494,
            55.074676490301371
          ],
          [
            -4.5541563456335625,
            55.074399594406259
          ],
          [
            -4.5510635423246644,
            55.074544697436885
          ]
        ],
        "type" : "LineString"
      }
    }
  ]
}