{
  "type" : "FeatureCollection",
  "features" : [
    {
      "geometry" : {
        "type" : "Point",
        "coordinates" : [
          -4.0401604902846646,
          57.931100776667797
        ]
      },
      "properties" : {
        "departure" : "2026-09-19T10:43:01Z",
        "source" : "Geory 5.3.2",
        "weather" : "Bedeckter Himmel (13,9 °C)",
        "rating" : 0,
        "address" : "Dornoch, IV25, Schottland",
        "arrival" : "2026-09-18T16:53:43Z",
        "device" : "B9E47AEB-E54C-4563-96B6-06995DD4BC56 (iPhone 16 Pro)",
        "type" : "visit",
        "duration" : 64157.986993074417,
        "timestamp" : "2026-09-18T16:53:43Z"
      },
      "type" : "Feature"
    },
    {
      "geometry" : {
        "coordinates" : [
          -4.0186871763640619,
          57.878376846662761
        ],
        "type" : "Point"
      },
      "type" : "Feature",
      "properties" : {
        "address" : "Royal Dornoch Golf Club, Dornoch, IV25, Schottland",
        "timestamp" : "2026-09-19T11:51:01Z",
        "rating" : 0,
        "duration" : 1562.073296546936,
        "departure" : "2026-09-19T12:17:03Z",
        "device" : "B9E47AEB-E54C-4563-96B6-06995DD4BC56 (iPhone 16 Pro)",
        "source" : "Geory 5.3.2",
        "weather" : "Aufgelockert bewölkt (13,9 °C)",
        "arrival" : "2026-09-19T11:51:01Z",
        "type" : "visit"
      }
    },
    {
      "properties" : {
        "source" : "Geory 5.3.2",
        "device" : "B9E47AEB-E54C-4563-96B6-06995DD4BC56 (iPhone 16 Pro)",
        "duration" : 8412.8256213665009,
        "arrival" : "2026-09-19T12:22:11Z",
        "address" : "4 The Meadows, Dornoch, IV25 3SF, Schottland",
        "type" : "visit",
        "timestamp" : "2026-09-19T12:22:11Z",
        "departure" : "2026-09-19T14:42:24Z",
        "weather" : "Aufgelockert bewölkt (14,9 °C)",
        "rating" : 0
      },
      "geometry" : {
        "coordinates" : [
          -4.0344410326498048,
          57.8799109454554
        ],
        "type" : "Point"
      },
      "type" : "Feature"
    },
    {
      "geometry" : {
        "coordinates" : [
          -3.8645688646465208,
          58.011767965819551
        ],
        "type" : "Point"
      },
      "properties" : {
        "arrival" : "2026-09-19T15:19:30Z",
        "timestamp" : "2026-09-19T15:19:30Z",
        "duration" : 3343.7721109390259,
        "departure" : "2026-09-19T16:15:14Z",
        "address" : "Brora, KW9, Schottland",
        "rating" : 0,
        "source" : "Geory 5.3.2",
        "type" : "visit",
        "weather" : "Aufgelockert bewölkt (14,9 °C)",
        "device" : "B9E47AEB-E54C-4563-96B6-06995DD4BC56 (iPhone 16 Pro)"
      },
      "type" : "Feature"
    },
    {
      "type" : "Feature",
      "geometry" : {
        "type" : "Point",
        "coordinates" : [
          -3.8553919577635778,
          58.011198219284012
        ]
      },
      "properties" : {
        "address" : "Rosslyn House, Rosslyn Street, Brora, KW9 6NY, Schottland",
        "rating" : 0,
        "timestamp" : "2026-09-19T16:15:44Z",
        "device" : "B9E47AEB-E54C-4563-96B6-06995DD4BC56 (iPhone 16 Pro)",
        "type" : "visit",
        "departure" : "2026-09-19T16:50:35Z",
        "weather" : "Aufgelockert bewölkt (14,9 °C)",
        "source" : "Geory 5.3.2",
        "duration" : 2091.3348577022552,
        "arrival" : "2026-09-19T16:15:44Z"
      }
    },
    {
      "properties" : {
        "duration" : 19191.417173862457,
        "weather" : "Überwiegend bewölkt (12,9 °C)",
        "source" : "Geory 5.3.2",
        "address" : "Brora, KW9, Schottland",
        "rating" : 0,
        "device" : "B9E47AEB-E54C-4563-96B6-06995DD4BC56 (iPhone 16 Pro)",
        "type" : "visit",
        "timestamp" : "2026-09-19T17:28:45Z",
        "arrival" : "2026-09-19T17:28:45Z"
      },
      "type" : "Feature",
      "geometry" : {
        "coordinates" : [
          -3.8646375973197804,
          58.011721196295618
        ],
        "type" : "Point"
      }
    },
    {
      "type" : "Feature",
      "geometry" : {
        "type" : "LineString",
        "coordinates" : [
          [
            -3.8646375973197804,
            58.011721196295618
          ],
          [
            -3.8627454545293674,
            58.011416959662498
          ],
          [
            -3.8599734367696148,
            58.01179445814234
          ],
          [
            -3.8584448515535321,
            58.012312495525407
          ],
          [
            -3.8551556651199812,
            58.011933353517726
          ],
          [
            -3.8504910064651248,
            58.012022446647585
          ],
          [
            -3.8463957021396253,
            58.011935751880998
          ],
          [
            -3.8429984230772223,
            58.012590961642388
          ],
          [
            -3.8440499086462081,
            58.011603102965552
          ],
          [
            -3.8475662018056411,
            58.011468188053563
          ],
          [
            -3.8492093878064377,
            58.012072002647855
          ],
          [
            -3.851591814642445,
            58.01210481345462
          ],
          [
            -3.8553919577635778,
            58.011198219284012
          ],
          [
            -3.8645688646465208,
            58.011767965819551
          ],
          [
            -3.8529852333333339,
            58.011837916666678
          ],
          [
            -3.8543679166666664,
            58.011313533333336
          ],
          [
            -3.8562477333333334,
            58.011106950000006
          ],
          [
            -3.8579512,
            58.01088433333333
          ],
          [
            -3.8599747666666664,
            58.010275233333338
          ],
          [
            -3.8612820166666664,
            58.009010050000008
          ],
          [
            -3.8626147666666668,
            58.007494966666677
          ],
          [
            -3.8641887335418752,
            58.005815725650805
          ],
          [
            -3.8669710166666662,
            58.004482000000003
          ],
          [
            -3.8707100666666663,
            58.00366296666666
          ],
          [
            -3.8740033666666669,
            58.002816466666673
          ],
          [
            -3.8772405000000001,
            58.001982516666679
          ],
          [
            -3.880382,
            58.001161916666661
          ],
          [
            -3.8832800833333336,
            58.000348233333334
          ],
          [
            -3.8857921333333336,
            57.999530116666662
          ],
          [
            -3.8874597666666668,
            57.997767566666667
          ],
          [
            -3.8889277500000001,
            57.996010599999998
          ],
          [
            -3.8910201666666668,
            57.994213216666672
          ],
          [
            -3.8932014499999998,
            57.9923614
          ],
          [
            -3.8949311000000004,
            57.990488083333339
          ],
          [
            -3.8978249333333337,
            57.988899000000011
          ],
          [
            -3.9017196833333334,
            57.988446933333343
          ],
          [
            -3.9060894166666666,
            57.988360416666666
          ],
          [
            -3.9097779333333338,
            57.987944516666659
          ],
          [
            -3.9137116833333332,
            57.987615533333333
          ],
          [
            -3.9173507999999999,
            57.9878377
          ],
          [
            -3.9194367333333333,
            57.98779403333333
          ],
          [
            -3.9211601666666667,
            57.987709216666659
          ],
          [
            -3.9246995499999997,
            57.987541166666674
          ],
          [
            -3.9286631166666668,
            57.987362200000007
          ],
          [
            -3.9322955166666662,
            57.987199466666667
          ],
          [
            -3.9360620499999999,
            57.987043383333337
          ],
          [
            -3.9394624499999997,
            57.986901133333333
          ],
          [
            -3.9427065666666663,
            57.986491333333333
          ],
          [
            -3.9458520500000001,
            57.985937450000002
          ],
          [
            -3.9484248333333332,
            57.985464450000002
          ],
          [
            -3.9511547166666667,
            57.984946450000002
          ],
          [
            -3.9539871333333338,
            57.9842546
          ],
          [
            -3.9562316652212131,
            57.98318197250169
          ],
          [
            -3.9570674166666664,
            57.98169424999999
          ],
          [
            -3.9575244999999994,
            57.980354633333334
          ],
          [
            -3.9593347666666667,
            57.979497666666674
          ],
          [
            -3.9614093499999994,
            57.979102633333333
          ],
          [
            -3.96319585,
            57.978686516666663
          ],
          [
            -3.9645601999999998,
            57.97770936666668
          ],
          [
            -3.9654225666666671,
            57.976771266666674
          ],
          [
            -3.9661464500000005,
            57.975959349999989
          ],
          [
            -3.9678480833333327,
            57.97572108333334
          ],
          [
            -3.9699312166666667,
            57.97537883333333
          ],
          [
            -3.972011066666667,
            57.974932766666669
          ],
          [
            -3.9737728666666672,
            57.974317100000015
          ],
          [
            -3.9752620999999992,
            57.973776266666668
          ],
          [
            -3.9766668999999997,
            57.973224950000002
          ],
          [
            -3.9780612903625876,
            57.972610315043944
          ],
          [
            -3.9794083833333334,
            57.972007516666658
          ],
          [
            -3.9811142333333334,
            57.971898433333337
          ],
          [
            -3.9827047166666669,
            57.972271050000003
          ],
          [
            -3.9846063500000004,
            57.972384966666674
          ],
          [
            -3.9870297166666671,
            57.971819199999992
          ],
          [
            -3.9893237499999996,
            57.971330916666659
          ],
          [
            -3.9918901666666669,
            57.970766183333339
          ],
          [
            -3.9948554666666669,
            57.970079349999999
          ],
          [
            -3.9979170000000002,
            57.969198000000006
          ],
          [
            -4.0010587320654158,
            57.968438627321241
          ],
          [
            -4.0040470710250915,
            57.967534349913379
          ],
          [
            -4.0075804536426674,
            57.966745196509102
          ],
          [
            -4.0110853502976127,
            57.966104693826026
          ],
          [
            -4.0145016776929197,
            57.965407670063662
          ],
          [
            -4.018245623197342,
            57.964602006067814
          ],
          [
            -4.0215080356433308,
            57.963577874100046
          ],
          [
            -4.024701936610052,
            57.962607082840101
          ],
          [
            -4.0283734352335445,
            57.96172105778674
          ],
          [
            -4.032360949737793,
            57.961323869326726
          ],
          [
            -4.0365821340006205,
            57.961217236704051
          ],
          [
            -4.0408699624190421,
            57.961185038990685
          ],
          [
            -4.0449084901355841,
            57.961182787013612
          ],
          [
            -4.0487735999999996,
            57.96120388333334
          ],
          [
            -4.0522267604787441,
            57.961160135526804
          ],
          [
            -4.0559556736833793,
            57.960337787078281
          ],
          [
            -4.0594436299123506,
            57.959525934730991
          ],
          [
            -4.0628069522467678,
            57.958716822935173
          ],
          [
            -4.0658344347531896,
            57.95771863082247
          ],
          [
            -4.0676713770043076,
            57.957097726224134
          ],
          [
            -4.0688783131288195,
            57.956690528012281
          ],
          [
            -4.0723373333333335,
            57.955504383333334
          ],
          [
            -4.0754428591150909,
            57.954364200063686
          ],
          [
            -4.0783355297331667,
            57.953080485740372
          ],
          [
            -4.0809056503744996,
            57.951936211150887
          ],
          [
            -4.0834129412270075,
            57.950585233442673
          ],
          [
            -4.0842664969926643,
            57.948825265007308
          ],
          [
            -4.0843498871578472,
            57.94709734208643
          ],
          [
            -4.0820220191646426,
            57.945531946579401
          ],
          [
            -4.0791521672665025,
            57.944739328370687
          ],
          [
            -4.0773619319715282,
            57.943340588347752
          ],
          [
            -4.0778091382844632,
            57.941822835952614
          ],
          [
            -4.079869207164128,
            57.940791274802983
          ],
          [
            -4.082607638836433,
            57.940370170246489
          ],
          [
            -4.0837933176935568,
            57.938968905387561
          ],
          [
            -4.084306687510054,
            57.937507573532883
          ],
          [
            -4.0822051813876179,
            57.935925487080276
          ],
          [
            -4.0793281423045187,
            57.934624092244214
          ],
          [
            -4.0764515303023208,
            57.933287744942021
          ],
          [
            -4.0745216039191163,
            57.931577132663136
          ],
          [
            -4.0751193625500841,
            57.929503884803871
          ],
          [
            -4.0767349787496663,
            57.927665887103771
          ],
          [
            -4.0766362717437081,
            57.92569053460889
          ],
          [
            -4.0741299836614946,
            57.92417984893266
          ],
          [
            -4.071152755982455,
            57.923265778876747
          ],
          [
            -4.068219595121799,
            57.922354730513774
          ],
          [
            -4.0650713882345118,
            57.921271328936697
          ],
          [
            -4.0630378368836917,
            57.919603131620782
          ],
          [
            -4.0614566350744949,
            57.917849620829664
          ],
          [
            -4.0603273046845381,
            57.916037737898485
          ],
          [
            -4.0594207290912276,
            57.914378789417505
          ],
          [
            -4.058119020821727,
            57.912788874384674
          ],
          [
            -4.0571513454841668,
            57.911155000846904
          ],
          [
            -4.0563512167564131,
            57.909590387151958
          ],
          [
            -4.0565103786199801,
            57.908419392396212
          ],
          [
            -4.057231321376781,
            57.907561842836174
          ],
          [
            -4.0568221754962126,
            57.906187753099914
          ],
          [
            -4.0557828301920864,
            57.904718971697449
          ],
          [
            -4.0544689694902702,
            57.903273021136854
          ],
          [
            -4.0532852361890228,
            57.901751839792766
          ],
          [
            -4.0522379970536857,
            57.900278865263495
          ],
          [
            -4.0509513540229527,
            57.898900102549682
          ],
          [
            -4.0496413094063906,
            57.897568274459807
          ],
          [
            -4.0482723506834093,
            57.896362342978563
          ],
          [
            -4.0471684401529648,
            57.895117834380827
          ],
          [
            -4.0462860848878348,
            57.893896539195055
          ],
          [
            -4.0456152188471188,
            57.89267551344696
          ],
          [
            -4.0455798422419038,
            57.891366006403153
          ],
          [
            -4.0445976355979383,
            57.89013658896797
          ],
          [
            -4.0438869398999033,
            57.889018780972769
          ],
          [
            -4.0438450821342293,
            57.887835647650256
          ],
          [
            -4.043802770121542,
            57.886657089806434
          ],
          [
            -4.0431087689821696,
            57.885594110670134
          ],
          [
            -4.0414847967915275,
            57.88514012416347
          ],
          [
            -4.0404287467288915,
            57.884180559804179
          ],
          [
            -4.0399744944699103,
            57.883735409217387
          ],
          [
            -4.039301204565958,
            57.883243309632952
          ],
          [
            -4.0380556279227191,
            57.882507889227774
          ],
          [
            -4.0345229649205754,
            57.879842445038626
          ],
          [
            -4.0344410326498048,
            57.8799109454554
          ],
          [
            -4.0324372377288356,
            57.880414550176631
          ],
          [
            -4.0308507196528351,
            57.880049298803307
          ],
          [
            -4.0292025491017842,
            57.879824965647813
          ],
          [
            -4.0275342641615435,
            57.879591341807163
          ],
          [
            -4.0275187397877472,
            57.878675935389275
          ],
          [
            -4.0269150492285481,
            57.877808367592785
          ],
          [
            -4.0257250294947164,
            57.877089233842511
          ],
          [
            -4.0241567640829539,
            57.876603770676162
          ],
          [
            -4.0186871763640619,
            57.878376846662761
          ],
          [
            -4.0178024637595273,
            57.878500683033728
          ],
          [
            -4.0166852391999495,
            57.878984848693221
          ],
          [
            -4.0152053706881379,
            57.879418514022554
          ],
          [
            -4.0125313452167068,
            57.879779502867216
          ],
          [
            -4.0120809548858665,
            57.880686757791331
          ],
          [
            -4.0107999617849091,
            57.881406171776355
          ],
          [
            -4.0123057304686762,
            57.884798134175071
          ],
          [
            -4.0123557730049786,
            57.884348859153839
          ],
          [
            -4.011133289324821,
            57.882966191876029
          ],
          [
            -4.0110993700864439,
            57.882800774665405
          ],
          [
            -4.0110993700864439,
            57.882800774665405
          ],
          [
            -4.0110330791395361,
            57.881424438239272
          ],
          [
            -4.0123608735383112,
            57.88016801675888
          ],
          [
            -4.012363118984446,
            57.880168083423229
          ],
          [
            -4.0144780033711456,
            57.878743454121867
          ],
          [
            -4.0183152499999997,
            57.878611033333328
          ],
          [
            -4.0187403000000002,
            57.87813143333333
          ],
          [
            -4.0194984666666675,
            57.877323049999994
          ],
          [
            -4.0209452333333333,
            57.876774916666669
          ],
          [
            -4.0226584166666672,
            57.876646616666662
          ],
          [
            -4.0243818801449196,
            57.876679246415783
          ],
          [
            -4.0257842999999998,
            57.87723866666667
          ],
          [
            -4.0269398660339553,
            57.87793603696128
          ],
          [
            -4.0272102999999992,
            57.878364666666663
          ],
          [
            -4.0274817638967519,
            57.878807315377138
          ],
          [
            -4.0275393825922077,
            57.879724425951835
          ],
          [
            -4.0278961038236085,
            57.880641098743418
          ],
          [
            -4.0277555833333336,
            57.882270433333332
          ],
          [
            -4.0271550864780341,
            57.883141033399298
          ],
          [
            -4.0261635790709516,
            57.883897105743515
          ],
          [
            -4.0260868833333339,
            57.884836566666671
          ],
          [
            -4.0262636666666669,
            57.885751783333333
          ],
          [
            -4.0256069012742026,
            57.886688721823269
          ],
          [
            -4.0243925877013975,
            57.887539116327389
          ],
          [
            -4.0229369237862285,
            57.888425258715415
          ],
          [
            -4.0214781713226495,
            57.8892639074706
          ],
          [
            -4.0202545774466332,
            57.889985943985273
          ],
          [
            -4.019173642084044,
            57.890992603307375
          ],
          [
            -4.018249383333333,
            57.89197455
          ],
          [
            -4.018086733333333,
            57.89305963333333
          ],
          [
            -4.0180661666666673,
            57.89411428333333
          ],
          [
            -4.0180915499999994,
            57.895085100000003
          ],
          [
            -4.0181520333333332,
            57.895989266666653
          ],
          [
            -4.0182549666666665,
            57.896920216666665
          ],
          [
            -4.0186046333333341,
            57.897849666666659
          ],
          [
            -4.0190997999999993,
            57.898776799999993
          ],
          [
            -4.0196981666666671,
            57.899840216666675
          ],
          [
            -4.0204606833333338,
            57.901158233333334
          ],
          [
            -4.0213642333333333,
            57.902778383333327
          ],
          [
            -4.022207233333333,
            57.904270700000005
          ],
          [
            -4.022207233333333,
            57.904270700000005
          ],
          [
            -4.022802716666666,
            57.905570233333336
          ],
          [
            -4.0225637166666663,
            57.90726466666667
          ],
          [
            -4.0226283500000006,
            57.908792550000001
          ],
          [
            -4.0227681611273622,
            57.909952223526339
          ],
          [
            -4.0232483500000003,
            57.911287783333336
          ],
          [
            -4.0238053666666662,
            57.912645533333333
          ],
          [
            -4.0241773833333339,
            57.913926466666666
          ],
          [
            -4.0241235999999994,
            57.915143283333329
          ],
          [
            -4.0242229666666667,
            57.916325749999999
          ],
          [
            -4.0242680000000002,
            57.917576883333339
          ],
          [
            -4.0244421333333333,
            57.918622333333332
          ],
          [
            -4.0245200333333333,
            57.91963053333334
          ],
          [
            -4.0241738499999995,
            57.920714116666673
          ],
          [
            -4.0238091666666662,
            57.921844883333343
          ],
          [
            -4.0235078,
            57.92281218333332
          ],
          [
            -4.0231854166666663,
            57.923785966666678
          ],
          [
            -4.0228322666666667,
            57.92471991666666
          ],
          [
            -4.0241921530182756,
            57.925628014246072
          ],
          [
            -4.0260881757027054,
            57.926114699614814
          ],
          [
            -4.0278009916461626,
            57.926425301523373
          ],
          [
            -4.0296323155062979,
            57.926536074382646
          ],
          [
            -4.0314632567868767,
            57.926639996865106
          ],
          [
            -4.0331875502756125,
            57.92642298557594
          ],
          [
            -4.0345627999999989,
            57.92697884999999
          ],
          [
            -4.0358902297821535,
            57.92762832394277
          ],
          [
            -4.0371436636661731,
            57.928281383259694
          ],
          [
            -4.0389261370408329,
            57.929276041513333
          ],
          [
            -4.0401604902846646,
            57.931100776667797
          ]
        ]
      },
      "properties" : {
        "start" : "2026-09-18T23:00:00Z",
        "source" : "Geory 5.3.2",
        "device" : "B9E47AEB-E54C-4563-96B6-06995DD4BC56 (iPhone 16 Pro)",
        "type" : "route",
        "end" : "2026-09-19T22:48:29Z"
      }
    }
  ]
}