{
  "type" : "FeatureCollection",
  "features" : [
    {
      "geometry" : {
        "coordinates" : [
          -3.2943255466349957,
          58.952387880532058
        ],
        "type" : "Point"
      },
      "properties" : {
        "type" : "visit",
        "timestamp" : "2026-09-26T18:59:51Z",
        "arrival" : "2026-09-26T18:59:51Z",
        "address" : "Point of Ness Caravan & Camping Site, Ness Road, Stromness, KW16, Schottland",
        "weather" : "Überwiegend bewölkt (12,8 °C)",
        "rating" : 0,
        "source" : "Geory 5.3.2",
        "device" : "B9E47AEB-E54C-4563-96B6-06995DD4BC56 (iPhone 16 Pro)",
        "duration" : 53215.108727693558,
        "departure" : "2026-09-27T09:46:46Z"
      },
      "type" : "Feature"
    },
    {
      "properties" : {
        "source" : "Geory 5.3.2",
        "timestamp" : "2026-09-27T09:48:22Z",
        "address" : "Stromness Golf Club, Stromness, KW16, Schottland",
        "weather" : "Leichter Regen (13,9 °C)",
        "device" : "B9E47AEB-E54C-4563-96B6-06995DD4BC56 (iPhone 16 Pro)",
        "rating" : 0,
        "type" : "visit",
        "duration" : 1952,
        "arrival" : "2026-09-27T09:48:22Z",
        "departure" : "2026-09-27T10:20:54Z"
      },
      "type" : "Feature",
      "geometry" : {
        "type" : "Point",
        "coordinates" : [
          -3.2963923372457979,
          58.952525793226492
        ]
      }
    },
    {
      "properties" : {
        "departure" : "2026-09-27T11:12:10Z",
        "timestamp" : "2026-09-27T10:44:37Z",
        "duration" : 1652.8266839981079,
        "arrival" : "2026-09-27T10:44:37Z",
        "weather" : "Regen (13,3 °C)",
        "type" : "visit",
        "source" : "Geory 5.3.2",
        "address" : "Stromness, KW16, Schottland",
        "rating" : 0,
        "device" : "B9E47AEB-E54C-4563-96B6-06995DD4BC56 (iPhone 16 Pro)"
      },
      "type" : "Feature",
      "geometry" : {
        "coordinates" : [
          -3.3344955580737636,
          59.04836612626908
        ],
        "type" : "Point"
      }
    },
    {
      "properties" : {
        "departure" : "2026-09-27T12:41:07Z",
        "duration" : 4328.1889357566833,
        "arrival" : "2026-09-27T11:28:59Z",
        "address" : "Skara Brae, Sandwick, Stromness, KW16 3LR, Schottland",
        "type" : "visit",
        "source" : "Geory 5.3.2",
        "device" : "B9E47AEB-E54C-4563-96B6-06995DD4BC56 (iPhone 16 Pro)",
        "timestamp" : "2026-09-27T11:28:59Z",
        "rating" : 0
      },
      "geometry" : {
        "type" : "Point",
        "coordinates" : [
          -3.3353706070667566,
          59.048267958903985
        ]
      },
      "type" : "Feature"
    },
    {
      "properties" : {
        "arrival" : "2026-09-27T12:55:57Z",
        "type" : "visit",
        "address" : "Stromness Harbour, Harbour Masters Office, Terminal Building, Ferry Road, Stromness, KW16 3BH, Schottland",
        "rating" : 0,
        "departure" : "2026-09-27T14:57:25Z",
        "weather" : "Regen (13,2 °C)",
        "source" : "Geory 5.3.2",
        "timestamp" : "2026-09-27T12:55:57Z",
        "duration" : 7288.4272081851959,
        "device" : "B9E47AEB-E54C-4563-96B6-06995DD4BC56 (iPhone 16 Pro)"
      },
      "type" : "Feature",
      "geometry" : {
        "coordinates" : [
          -3.2958533076225809,
          58.964296552636995
        ],
        "type" : "Point"
      }
    },
    {
      "type" : "Feature",
      "properties" : {
        "address" : "Stromness, Stromness, KW16, Schottland",
        "timestamp" : "2026-09-27T14:58:54Z",
        "arrival" : "2026-09-27T14:58:54Z",
        "duration" : 1685.1698567867279,
        "type" : "visit",
        "rating" : 0,
        "source" : "Geory 5.3.2",
        "device" : "B9E47AEB-E54C-4563-96B6-06995DD4BC56 (iPhone 16 Pro)",
        "weather" : "Starker Regen (12,6 °C)",
        "departure" : "2026-09-27T15:27:00Z"
      },
      "geometry" : {
        "type" : "Point",
        "coordinates" : [
          -3.2956170018133766,
          58.963208231106123
        ]
      }
    },
    {
      "properties" : {
        "device" : "B9E47AEB-E54C-4563-96B6-06995DD4BC56 (iPhone 16 Pro)",
        "source" : "Geory 5.3.2",
        "start" : "2026-09-26T23:00:00Z",
        "end" : "2026-09-27T21:31:44Z",
        "type" : "route"
      },
      "geometry" : {
        "coordinates" : [
          [
            -3.346142640660962,
            58.615856853411678
          ],
          [
            -3.3451795333333338,
            58.615509949999996
          ],
          [
            -3.3443546666666664,
            58.615121883333323
          ],
          [
            -3.3438678500000001,
            58.613857750000001
          ],
          [
            -3.3434225833333326,
            58.612307533333329
          ],
          [
            -3.3432709666666662,
            58.610735883333334
          ],
          [
            -3.3437619999999999,
            58.609158750000006
          ],
          [
            -3.3442750999999999,
            58.607580283333334
          ],
          [
            -3.3455954000000001,
            58.606038783333325
          ],
          [
            -3.3471443666666669,
            58.604431333333331
          ],
          [
            -3.3484260833333339,
            58.602858400000002
          ],
          [
            -3.3496476927322525,
            58.601366934433308
          ],
          [
            -3.3509161996436325,
            58.599976281210949
          ],
          [
            -3.3525347746359748,
            58.598724011185553
          ],
          [
            -3.3543738535331946,
            58.597713721679028
          ],
          [
            -3.3562772829263889,
            58.59685471842112
          ],
          [
            -3.3580899420581058,
            58.596111406072389
          ],
          [
            -3.3602274805853294,
            58.595322633023272
          ],
          [
            -3.362391033333334,
            58.594669583333342
          ],
          [
            -3.3646074922010074,
            58.594313103633198
          ],
          [
            -3.366673416666667,
            58.593981249999999
          ],
          [
            -3.3685850166666667,
            58.593629916666671
          ],
          [
            -3.370803,
            58.593223633333338
          ],
          [
            -3.3726571903808358,
            58.593042350971992
          ],
          [
            -3.3743884437681184,
            58.593449752219684
          ],
          [
            -3.3759498855811643,
            58.593827946189791
          ],
          [
            -3.3773716833333332,
            58.593307333333328
          ],
          [
            -3.3787550533518576,
            58.592753229535916
          ],
          [
            -3.3807904506355753,
            58.592607083240793
          ],
          [
            -3.3820574666917698,
            58.591950363341368
          ],
          [
            -3.3830899572444784,
            58.591140425907135
          ],
          [
            -3.3848080896698027,
            58.591042133104132
          ],
          [
            -3.3863670410652533,
            58.591513224669463
          ],
          [
            -3.3879400854470552,
            58.591993665364122
          ],
          [
            -3.3894787977022256,
            58.592464224791449
          ],
          [
            -3.390971584296274,
            58.592915271515317
          ],
          [
            -3.3925910900538856,
            58.593410385788815
          ],
          [
            -3.394232705051607,
            58.593912346418875
          ],
          [
            -3.3957501361491258,
            58.59437593724266
          ],
          [
            -3.3972497864560629,
            58.594836330549562
          ],
          [
            -3.3988326435463456,
            58.595319994313051
          ],
          [
            -3.4005342159600125,
            58.595506078357069
          ],
          [
            -3.4023619412829911,
            58.595481626399859
          ],
          [
            -3.4045799388648059,
            58.595450813279363
          ],
          [
            -3.4068366201360094,
            58.595422348879559
          ],
          [
            -3.4097602481243414,
            58.595351900125898
          ],
          [
            -3.4125976130455906,
            58.595253695817668
          ],
          [
            -3.4156848336012855,
            58.595148578105103
          ],
          [
            -3.4188924466894028,
            58.595035134916941
          ],
          [
            -3.4221478773391749,
            58.594922104982196
          ],
          [
            -3.4251139423611665,
            58.594817786591612
          ],
          [
            -3.4284839561209179,
            58.594695468853573
          ],
          [
            -3.4315308027237288,
            58.594580928522852
          ],
          [
            -3.4343491302265088,
            58.594477867271657
          ],
          [
            -3.4372248432828041,
            58.594375658171103
          ],
          [
            -3.4402626306251811,
            58.594261716792055
          ],
          [
            -3.4435847397041623,
            58.594143173787366
          ],
          [
            -3.4466684938934264,
            58.594034262579946
          ],
          [
            -3.4497150630162925,
            58.593929751669563
          ],
          [
            -3.4526496430138449,
            58.593827940208023
          ],
          [
            -3.4554437644012328,
            58.593729101009743
          ],
          [
            -3.4585621904594612,
            58.593619326605186
          ],
          [
            -3.4619083014426515,
            58.593500367211497
          ],
          [
            -3.4652867417852482,
            58.593381734084048
          ],
          [
            -3.468384205921446,
            58.593266514414985
          ],
          [
            -3.4712941759449669,
            58.593163812070308
          ],
          [
            -3.4741060514959923,
            58.593064119513059
          ],
          [
            -3.4741060514959923,
            58.593064119513059
          ],
          [
            -3.476828757452354,
            58.592967337128201
          ],
          [
            -3.4800049,
            58.592835699999995
          ],
          [
            -3.4834083500000004,
            58.592726733333329
          ],
          [
            -3.4869248499999999,
            58.592600616666672
          ],
          [
            -3.4900112333333331,
            58.592484933333324
          ],
          [
            -3.4928119548426042,
            58.592392489528976
          ],
          [
            -3.4952472999999999,
            58.592807283333329
          ],
          [
            -3.4974840999999999,
            58.593671566666671
          ],
          [
            -3.5003635000000002,
            58.594038866666672
          ],
          [
            -3.5029001166666669,
            58.594368533333338
          ],
          [
            -3.5049234500000002,
            58.59498511666667
          ],
          [
            -3.5068151666666663,
            58.595657583333328
          ],
          [
            -3.5088841333333334,
            58.595277100000004
          ],
          [
            -3.5103825499999997,
            58.594340416666668
          ],
          [
            -3.5118605097434386,
            58.593455154137317
          ],
          [
            -3.5133915250218553,
            58.59262032964353
          ],
          [
            -3.5153658793273661,
            58.59190785331225
          ],
          [
            -3.5172665000000007,
            58.591691366666659
          ],
          [
            -3.5189861999999992,
            58.592382499999999
          ],
          [
            -3.5204498666666666,
            58.592945083333341
          ],
          [
            -3.5219625408068462,
            58.59337629943893
          ],
          [
            -3.5209548415187957,
            58.594146344570063
          ],
          [
            -3.5213410999999994,
            58.595152599999999
          ],
          [
            -3.5228835333333337,
            58.595612616666664
          ],
          [
            -3.5245276333333333,
            58.596130800000005
          ],
          [
            -3.5265227166666668,
            58.596825050000014
          ],
          [
            -3.5285775999999998,
            58.597412516666665
          ],
          [
            -3.5309263259962345,
            58.597921542194349
          ],
          [
            -3.5328715592366664,
            58.598099686539371
          ],
          [
            -3.5347969525927656,
            58.598271753211584
          ],
          [
            -3.5366278500000004,
            58.598428516666672
          ],
          [
            -3.537976683333333,
            58.599063066666666
          ],
          [
            -3.5393507499999997,
            58.599956033333335
          ],
          [
            -3.5410648666666669,
            58.60099386666667
          ],
          [
            -3.5431525000000006,
            58.601578416666669
          ],
          [
            -3.5455181833333329,
            58.602118416666663
          ],
          [
            -3.5479075666666673,
            58.602771366666673
          ],
          [
            -3.5498457000000001,
            58.603850016666669
          ],
          [
            -3.5508315333333331,
            58.605108599999994
          ],
          [
            -3.5511280499999995,
            58.60641558333333
          ],
          [
            -3.551896133333333,
            58.60778333333333
          ],
          [
            -3.5524114499999997,
            58.609031366666677
          ],
          [
            -3.5526274166666663,
            58.610080950000004
          ],
          [
            -3.5524600500000001,
            58.611043333333335
          ],
          [
            -3.5510475166666668,
            58.611564333333341
          ],
          [
            -3.5493997499999996,
            58.611886999999996
          ],
          [
            -3.5475941610439525,
            58.612322837873506
          ],
          [
            -3.5459786693065021,
            58.612375398723742
          ],
          [
            -3.5446945693421594,
            58.613014944467992
          ],
          [
            -3.5430418815839881,
            58.613416942236043
          ],
          [
            -3.5414336314291335,
            58.613747060130933
          ],
          [
            -3.5400097993864721,
            58.613214683448497
          ],
          [
            -3.5400653761770275,
            58.612278474231346
          ],
          [
            -3.53571973820479,
            58.610910564685121
          ],
          [
            -3.5343806406687057,
            58.611514491469791
          ],
          [
            -3.5332330954555604,
            58.612241394967256
          ],
          [
            -3.5321322184637469,
            58.612955113496135
          ],
          [
            -3.5309877540036436,
            58.613669261877106
          ],
          [
            -3.529982728139617,
            58.61442344946974
          ],
          [
            -3.5289256974128924,
            58.615170364329963
          ],
          [
            -3.5275446547096325,
            58.615933871405232
          ],
          [
            -3.5262407154751783,
            58.616761557603013
          ],
          [
            -3.5254139451221809,
            58.617594408131701
          ],
          [
            -3.5195770559949819,
            58.624402103327625
          ],
          [
            -3.5197659777455761,
            58.625387875695665
          ],
          [
            -3.5196913545270085,
            58.626289587881502
          ],
          [
            -3.5199011277380388,
            58.628317890753728
          ],
          [
            -3.5201353493237169,
            58.628463674759175
          ],
          [
            -3.5205170983661982,
            58.628519472851991
          ],
          [
            -3.5177629661630014,
            58.638224988045422
          ],
          [
            -3.5177378145158107,
            58.642068951046639
          ],
          [
            -3.5172254838137622,
            58.643731763084602
          ],
          [
            -3.5168114335228551,
            58.646382926993446
          ],
          [
            -3.5164435142475581,
            58.650886547600436
          ],
          [
            -3.5159657763423784,
            58.651445280792402
          ],
          [
            -3.5144472135696967,
            58.651906879623404
          ],
          [
            -3.5148731457392755,
            58.652902957818782
          ],
          [
            -3.5150725013140249,
            58.656786407186573
          ],
          [
            -3.5149728021161479,
            58.657693538821562
          ],
          [
            -3.5149612421421237,
            58.65862246601403
          ],
          [
            -3.5146826728856313,
            58.659718348892376
          ],
          [
            -3.5146790435192097,
            58.661128713591062
          ],
          [
            -3.5143875913930769,
            58.663223465057015
          ],
          [
            -3.5140708893871784,
            58.664317194989174
          ],
          [
            -3.513857797678039,
            58.665298286725744
          ],
          [
            -3.5137581473198827,
            58.667794696172272
          ],
          [
            -3.5131330347307697,
            58.671710917407218
          ],
          [
            -3.5122077447101838,
            58.67629016242136
          ],
          [
            -3.5115918448202992,
            58.679379126325948
          ],
          [
            -3.511359761320664,
            58.68416732307076
          ],
          [
            -3.5096404948000024,
            58.695682587672373
          ],
          [
            -3.5095890958231459,
            58.696637634438702
          ],
          [
            -3.5095889748720923,
            58.698668362496505
          ],
          [
            -3.5094114600718282,
            58.699569868560367
          ],
          [
            -3.5093249641797781,
            58.700534171665474
          ],
          [
            -3.5091190262492336,
            58.701865134283381
          ],
          [
            -3.509072975054838,
            58.702382003004061
          ],
          [
            -3.5087785656740462,
            58.703377104684265
          ],
          [
            -3.5081393759038377,
            58.705129265379909
          ],
          [
            -3.508024826670384,
            58.707331028672392
          ],
          [
            -3.5079810407928749,
            58.709260851592539
          ],
          [
            -3.5078251404215917,
            58.710778829860097
          ],
          [
            -3.5075470096847883,
            58.712726468873456
          ],
          [
            -3.5057414815013317,
            58.715923361546245
          ],
          [
            -3.5055807141350597,
            58.716818019828381
          ],
          [
            -3.5051364017017015,
            58.72034663220181
          ],
          [
            -3.5052950917470671,
            58.723029458978203
          ],
          [
            -3.5046720349044311,
            58.723957877529649
          ],
          [
            -3.5045479957784713,
            58.724858196625974
          ],
          [
            -3.5043567675724057,
            58.725956611674697
          ],
          [
            -3.5043567675724057,
            58.725956611674697
          ],
          [
            -3.5033748688833857,
            58.731132735055965
          ],
          [
            -3.5016180978088927,
            58.735272311837271
          ],
          [
            -3.5015259183423755,
            58.73537553820357
          ],
          [
            -3.5008817863073589,
            58.738766261907642
          ],
          [
            -3.5004156591813338,
            58.741934663534479
          ],
          [
            -3.5000965634324359,
            58.744724987679881
          ],
          [
            -3.4990669103595251,
            58.750655238997659
          ],
          [
            -3.4990669103595251,
            58.750655238997659
          ],
          [
            -3.4986163414499818,
            58.753502705916375
          ],
          [
            -3.4980420256050664,
            58.757041888793943
          ],
          [
            -3.4970769516269411,
            58.75918888167292
          ],
          [
            -3.495229717419527,
            58.761711829632119
          ],
          [
            -3.4951194024598857,
            58.764325319320911
          ],
          [
            -3.493764321833726,
            58.770614355267796
          ],
          [
            -3.4913917482306021,
            58.776292103240017
          ],
          [
            -3.4907420823224422,
            58.78161962916613
          ],
          [
            -3.4895634799818986,
            58.783483679234109
          ],
          [
            -3.4885284452081233,
            58.788214830436331
          ],
          [
            -3.4875909528736342,
            58.789023964775616
          ],
          [
            -3.4850208918841625,
            58.797496044762504
          ],
          [
            -3.4842992211823152,
            58.801868896777165
          ],
          [
            -3.4829603421373294,
            58.806013770576385
          ],
          [
            -3.4794788558970318,
            58.814516822338994
          ],
          [
            -3.4761791539734186,
            58.825941672223841
          ],
          [
            -3.4736764279575802,
            58.832576179572548
          ],
          [
            -3.4730024785225839,
            58.835439631078316
          ],
          [
            -3.4718656067479956,
            58.83813150387418
          ],
          [
            -3.4709147790347306,
            58.840558644897222
          ],
          [
            -3.4701621329607204,
            58.843778560292868
          ],
          [
            -3.4691471838580221,
            58.849921416146898
          ],
          [
            -3.4681746654310106,
            58.852281474403561
          ],
          [
            -3.4681332467427106,
            58.855226811573623
          ],
          [
            -3.4650140666636866,
            58.866257537750172
          ],
          [
            -3.4640631285660874,
            58.869542722670914
          ],
          [
            -3.4631777207108203,
            58.87033329939684
          ],
          [
            -3.4615037678814935,
            58.874774008464705
          ],
          [
            -3.4609185766413542,
            58.875696003129875
          ],
          [
            -3.4599848529531858,
            58.876488638556815
          ],
          [
            -3.4577834233558185,
            58.879479667201757
          ],
          [
            -3.4579522567269478,
            58.87995754687536
          ],
          [
            -3.4544383201372866,
            58.883315977654931
          ],
          [
            -3.4520496792311843,
            58.886574293023884
          ],
          [
            -3.4514305928050715,
            58.887422221265602
          ],
          [
            -3.4510963555868979,
            58.888337654097143
          ],
          [
            -3.4505382636674629,
            58.889212099221233
          ],
          [
            -3.4494421784192641,
            58.889952887099184
          ],
          [
            -3.4451941250862284,
            58.895318006004501
          ],
          [
            -3.4431613810868917,
            58.898183027536902
          ],
          [
            -3.4427203709356538,
            58.89910477132215
          ],
          [
            -3.4420138537263218,
            58.899953901957417
          ],
          [
            -3.4396717240721491,
            58.902543186349021
          ],
          [
            -3.4391654186422813,
            58.903126203285481
          ],
          [
            -3.4384785743766204,
            58.903972353123585
          ],
          [
            -3.4378158643406516,
            58.904831474563458
          ],
          [
            -3.4372276721322956,
            58.905693966244932
          ],
          [
            -3.43651808812597,
            58.906538631002263
          ],
          [
            -3.4357808807377692,
            58.907388200779792
          ],
          [
            -3.4351267723918162,
            58.908223195251857
          ],
          [
            -3.4344009362479122,
            58.90904129678637
          ],
          [
            -3.4336922970889754,
            58.909910880431347
          ],
          [
            -3.4329378307779312,
            58.910784055248861
          ],
          [
            -3.4322866488270294,
            58.911622097037451
          ],
          [
            -3.4315602185048037,
            58.912502961365966
          ],
          [
            -3.430918864501074,
            58.913338364700607
          ],
          [
            -3.4301928570750762,
            58.914156923192252
          ],
          [
            -3.4296106451007264,
            58.915047700296483
          ],
          [
            -3.4288518257294562,
            58.915866136895616
          ],
          [
            -3.4254709905221761,
            58.918575060632769
          ],
          [
            -3.4214964922367064,
            58.92452426426113
          ],
          [
            -3.4175730288243322,
            58.927685674573006
          ],
          [
            -3.4138038585456942,
            58.929914618024277
          ],
          [
            -3.4095690891423378,
            58.931966665112654
          ],
          [
            -3.4044534753410041,
            58.934040213844909
          ],
          [
            -3.4002404022741084,
            58.935790095666306
          ],
          [
            -3.3954841659643109,
            58.937504703924297
          ],
          [
            -3.3902039182612063,
            58.938873850630465
          ],
          [
            -3.3688511451168375,
            58.943668213222729
          ],
          [
            -3.3637762997447118,
            58.943972373988174
          ],
          [
            -3.3620891572847555,
            58.944202631661831
          ],
          [
            -3.3475358786669687,
            58.944399744437611
          ],
          [
            -3.3433497828182741,
            58.945357713043236
          ],
          [
            -3.3275273061420854,
            58.946202437083215
          ],
          [
            -3.3195537636878627,
            58.946870670041157
          ],
          [
            -3.3121704260364933,
            58.946786782406477
          ],
          [
            -3.305274828354356,
            58.946788870761679
          ],
          [
            -3.30407511365659,
            58.946730437451272
          ],
          [
            -3.2975060240736673,
            58.94678257352016
          ],
          [
            -3.2958635643238834,
            58.947101648487632
          ],
          [
            -3.2899644056992741,
            58.948058639368426
          ],
          [
            -3.2894390916522362,
            58.94900926383729
          ],
          [
            -3.2881647748783647,
            58.951031015570223
          ],
          [
            -3.2906053454990576,
            58.953081902848318
          ],
          [
            -3.2924035176958468,
            58.954250832505728
          ],
          [
            -3.2940356496661383,
            58.955189935518042
          ],
          [
            -3.2952646560699703,
            58.955849469467374
          ],
          [
            -3.2962401215021249,
            58.956625649636294
          ],
          [
            -3.2966035514135088,
            58.957503662543353
          ],
          [
            -3.2963632108750409,
            58.958399205148439
          ],
          [
            -3.2956170018133766,
            58.963208231106123
          ],
          [
            -3.2958533076225809,
            58.964296552636995
          ],
          [
            -3.2956707999999999,
            58.965383633333339
          ],
          [
            -3.2949825166666673,
            58.966263516666672
          ],
          [
            -3.2942471166666669,
            58.9671442
          ],
          [
            -3.2937172000000006,
            58.968033733333336
          ],
          [
            -3.2936325833333329,
            58.9689312
          ],
          [
            -3.2935912333333333,
            58.969978366666659
          ],
          [
            -3.2929137166666664,
            58.971091333333334
          ],
          [
            -3.2916754666666663,
            58.972166900000005
          ],
          [
            -3.2897917333333333,
            58.973062533333326
          ],
          [
            -3.2888411333333329,
            58.974283116666662
          ],
          [
            -3.2882505833333329,
            58.975675450000004
          ],
          [
            -3.2877126666666667,
            58.976934283333335
          ],
          [
            -3.2872139000000007,
            58.978027999999995
          ],
          [
            -3.2871301666666666,
            58.979030300000005
          ],
          [
            -3.2892627939861736,
            58.979815025801827
          ],
          [
            -3.2907308999999998,
            58.98096808333333
          ],
          [
            -3.2906985,
            58.982428466666668
          ],
          [
            -3.2905767333333329,
            58.98399469999999
          ],
          [
            -3.2904415166666663,
            58.985580283333334
          ],
          [
            -3.2902831166666666,
            58.9874863
          ],
          [
            -3.2901738333333337,
            58.98873008333333
          ],
          [
            -3.290020666666666,
            58.990274116666662
          ],
          [
            -3.29048585,
            58.991797200000001
          ],
          [
            -3.2913103333333331,
            58.993092383333334
          ],
          [
            -3.2924482666666668,
            58.994358499999997
          ],
          [
            -3.293102046370771,
            58.99566648254504
          ],
          [
            -3.2917823833333331,
            58.996976799999992
          ],
          [
            -3.2897045333333335,
            58.997909866666667
          ],
          [
            -3.2876773333333338,
            58.998828183333337
          ],
          [
            -3.2854326833333336,
            58.999825066666673
          ],
          [
            -3.2843545666666669,
            59.001083900000005
          ],
          [
            -3.285709216666667,
            59.002390733333336
          ],
          [
            -3.287231433333333,
            59.003655666666667
          ],
          [
            -3.2888791166666667,
            59.0050059
          ],
          [
            -3.2903747999999995,
            59.006227016666664
          ],
          [
            -3.2920199166666664,
            59.007561683333343
          ],
          [
            -3.2934691166666661,
            59.00875606666667
          ],
          [
            -3.2949379666666667,
            59.009969583333337
          ],
          [
            -3.296741766666667,
            59.011146583333328
          ],
          [
            -3.2988805500000002,
            59.012174183333336
          ],
          [
            -3.3009319166666673,
            59.013125533333337
          ],
          [
            -3.3026415666666669,
            59.014131366666668
          ],
          [
            -3.3037469499999998,
            59.015278516666669
          ],
          [
            -3.3053092666666664,
            59.016049633333331
          ],
          [
            -3.3068620000000002,
            59.016483383333323
          ],
          [
            -3.3088360187128285,
            59.016923746551122
          ],
          [
            -3.3109852315947865,
            59.01755320017142
          ],
          [
            -3.312306998226048,
            59.018508698710981
          ],
          [
            -3.3128612052066981,
            59.01942413882518
          ],
          [
            -3.3133275064643652,
            59.020619876378014
          ],
          [
            -3.3132654666666665,
            59.021817600000006
          ],
          [
            -3.3130553666666662,
            59.022973049999997
          ],
          [
            -3.3144512999999995,
            59.024082849999999
          ],
          [
            -3.3160777755581394,
            59.025149814356411
          ],
          [
            -3.3171944576877195,
            59.026184666570991
          ],
          [
            -3.3171915225202633,
            59.027628306220464
          ],
          [
            -3.3162440000000006,
            59.02893495
          ],
          [
            -3.3152329166666665,
            59.03031756666666
          ],
          [
            -3.3142471000000002,
            59.031691683333335
          ],
          [
            -3.3134107333333334,
            59.033107766666667
          ],
          [
            -3.3127353999999998,
            59.034415299999999
          ],
          [
            -3.3121791265396494,
            59.035782415712703
          ],
          [
            -3.3116559621111641,
            59.037164608802101
          ],
          [
            -3.3111966521687104,
            59.038376510590091
          ],
          [
            -3.3108186984626524,
            59.039619053918102
          ],
          [
            -3.3097452666666669,
            59.040686533333336
          ],
          [
            -3.3099310166666673,
            59.041939199999995
          ],
          [
            -3.3118466600980829,
            59.04278044423598
          ],
          [
            -3.313993602361339,
            59.043232018620444
          ],
          [
            -3.3160735884995507,
            59.043883697761387
          ],
          [
            -3.3176471747725058,
            59.04454135433803
          ],
          [
            -3.3191040032041013,
            59.045449505522662
          ],
          [
            -3.3207641884010295,
            59.046260332066318
          ],
          [
            -3.3224213502065036,
            59.046864491714743
          ],
          [
            -3.3239684623889239,
            59.047436786267326
          ],
          [
            -3.3251247194330773,
            59.047515335255078
          ],
          [
            -3.326008022264856,
            59.047649098767792
          ],
          [
            -3.3276136689356957,
            59.048047097804101
          ],
          [
            -3.3289324499999999,
            59.048750616666666
          ],
          [
            -3.3305570833333333,
            59.049430399999999
          ],
          [
            -3.3353706070667566,
            59.048267958903985
          ],
          [
            -3.3423937860924835,
            59.048791420744031
          ],
          [
            -3.3423937860924835,
            59.048791420744031
          ],
          [
            -3.3423937860924835,
            59.048791420744031
          ],
          [
            -3.3406929666427301,
            59.048722896159383
          ],
          [
            -3.3344955580737636,
            59.04836612626908
          ],
          [
            -3.3276683666666669,
            59.048037133333338
          ],
          [
            -3.3253522166666669,
            59.04752311666666
          ],
          [
            -3.3229720333333339,
            59.047078933333324
          ],
          [
            -3.3210251666666668,
            59.046363466666662
          ],
          [
            -3.3193015030557462,
            59.045486681429487
          ],
          [
            -3.3176332333333338,
            59.044506299999995
          ],
          [
            -3.3154645833333332,
            59.043661966666662
          ],
          [
            -3.3132202499999992,
            59.043023350000006
          ],
          [
            -3.3110645500000007,
            59.0425282
          ],
          [
            -3.3097588,
            59.041569616666656
          ],
          [
            -3.3098360000000002,
            59.040485500000003
          ],
          [
            -3.310978,
            59.039525966666666
          ],
          [
            -3.3112458500000002,
            59.038401233333325
          ],
          [
            -3.3114322333333326,
            59.037899566666667
          ],
          [
            -3.3116564166666671,
            59.037289333333334
          ],
          [
            -3.3119886666666662,
            59.036400933333333
          ],
          [
            -3.3123639452602638,
            59.035468816372635
          ],
          [
            -3.3127024658927735,
            59.034555860013867
          ],
          [
            -3.3131614500000004,
            59.033624283333332
          ],
          [
            -3.3136812666666668,
            59.032635700000007
          ],
          [
            -3.3144643666666664,
            59.031510583333322
          ],
          [
            -3.3152018999999999,
            59.030480750000002
          ],
          [
            -3.3158707000000005,
            59.029544066666666
          ],
          [
            -3.3165437,
            59.028641600000007
          ],
          [
            -3.3172259499999996,
            59.027743866666668
          ],
          [
            -3.3173703666666663,
            59.026399783333332
          ],
          [
            -3.3161460719976468,
            59.025141022384375
          ],
          [
            -3.314501633454249,
            59.024079631987142
          ],
          [
            -3.3132132500000004,
            59.023008866666665
          ],
          [
            -3.3134140333333333,
            59.02161293333333
          ],
          [
            -3.3133284999999999,
            59.020342849999999
          ],
          [
            -3.3127986333333337,
            59.01913321666666
          ],
          [
            -3.3119907166666671,
            59.018107849999993
          ],
          [
            -3.3105790833333337,
            59.017358633333338
          ],
          [
            -3.3089827392854798,
            59.016918670847744
          ],
          [
            -3.3072734472774385,
            59.016547218266659
          ],
          [
            -3.3048553268307659,
            59.01584697460958
          ],
          [
            -3.3031521999999995,
            59.014543599999996
          ],
          [
            -3.3009953500000004,
            59.013123849999999
          ],
          [
            -3.2997788333333338,
            59.012543066666659
          ],
          [
            -3.2985459000000001,
            59.011973833333329
          ],
          [
            -3.2963384166666665,
            59.010850016666673
          ],
          [
            -3.294511616666667,
            59.009519399999995
          ],
          [
            -3.29286351323517,
            59.008145202750356
          ],
          [
            -3.2909970999169644,
            59.006624651251144
          ],
          [
            -3.2892158666666669,
            59.005202899999993
          ],
          [
            -3.287412812334543,
            59.003701359592284
          ],
          [
            -3.2857720291867216,
            59.002359297917074
          ],
          [
            -3.2844676531644712,
            59.00110299111838
          ],
          [
            -3.2859207448446917,
            58.999681413169178
          ],
          [
            -3.2879416151301424,
            58.998767331954049
          ],
          [
            -3.290083178564128,
            58.997807137224171
          ],
          [
            -3.2919709143648372,
            58.996960126337093
          ],
          [
            -3.2931762833333331,
            58.995746716666659
          ],
          [
            -3.2922402500000003,
            58.994096416666657
          ],
          [
            -3.2909657166666668,
            58.992452466666663
          ],
          [
            -3.290076719099241,
            58.990868629454688
          ],
          [
            -3.2901807917768453,
            58.989133945461887
          ],
          [
            -3.2903137905185269,
            58.987548800455166
          ],
          [
            -3.2904379479905512,
            58.985987934666454
          ],
          [
            -3.2905638059339424,
            58.984466672304741
          ],
          [
            -3.2906988329676428,
            58.982802239161117
          ],
          [
            -3.2908210323542395,
            58.981329394190027
          ],
          [
            -3.2899836132075659,
            58.98014032018758
          ],
          [
            -3.2884367197582325,
            58.979407535707814
          ],
          [
            -3.2870028892455756,
            58.978669983040952
          ],
          [
            -3.2876121319550355,
            58.977329551574535
          ],
          [
            -3.2881788137829444,
            58.975973199518521
          ],
          [
            -3.2884379013904987,
            58.975350411470259
          ],
          [
            -3.2886901382049865,
            58.974755915322142
          ],
          [
            -3.2891878586245098,
            58.973647153879284
          ],
          [
            -3.2902944894507873,
            58.972860346579367
          ],
          [
            -3.291680546342461,
            58.972201120905687
          ],
          [
            -3.2929151599889424,
            58.971154059592813
          ],
          [
            -3.2935488437705969,
            58.970189423467211
          ],
          [
            -3.2938013520409184,
            58.969280278211336
          ],
          [
            -3.2968990499999999,
            58.9636669
          ],
          [
            -3.2942616021069364,
            58.968341138299195
          ],
          [
            -3.2948678176790174,
            58.967814330771404
          ],
          [
            -3.2953615870944555,
            58.966908923460586
          ],
          [
            -3.29611296015544,
            58.9660387590719
          ],
          [
            -3.2971656974712746,
            58.96531797028176
          ],
          [
            -3.2987552144417296,
            58.964850469398655
          ],
          [
            -3.3002284056014681,
            58.964283801954927
          ],
          [
            -3.3015699670963183,
            58.963625304598303
          ],
          [
            -3.3024553575639537,
            58.96277160974914
          ],
          [
            -3.303578848359467,
            58.962069980877068
          ],
          [
            -3.304632536592965,
            58.961294308459266
          ],
          [
            -3.3040988467587984,
            58.960403644294971
          ],
          [
            -3.3049736735141662,
            58.959493988174003
          ],
          [
            -3.3051948707737964,
            58.958558678141678
          ],
          [
            -3.3045851498908068,
            58.957717396706876
          ],
          [
            -3.3037194646737564,
            58.956876692424963
          ],
          [
            -3.3024099904262814,
            58.956216900522783
          ],
          [
            -3.3018469320213475,
            58.955343346891283
          ],
          [
            -3.3015463990170999,
            58.954440064110905
          ],
          [
            -3.3002733383239033,
            58.953808891232505
          ],
          [
            -3.2963923372457979,
            58.952525793226492
          ],
          [
            -3.2943255466349957,
            58.952387880532058
          ]
        ],
        "type" : "LineString"
      },
      "type" : "Feature"
    }
  ]
}