{
  "type" : "FeatureCollection",
  "features" : [
    {
      "type" : "Feature",
      "properties" : {
        "weather" : "Bedeckter Himmel (10,9 °C)",
        "departure" : "2026-04-16T08:45:52Z",
        "rating" : 0,
        "address" : "The Old Sawmill, Austwick Road, Horton-In-Ribblesdale, Settle, BD24 0EH, England",
        "arrival" : "2026-04-15T17:00:19Z",
        "duration" : 56732.977728128433,
        "timestamp" : "2026-04-15T17:00:19Z",
        "device" : "B9E47AEB-E54C-4563-96B6-06995DD4BC56 (iPhone 16 Pro)",
        "type" : "visit",
        "source" : "Geory 5.3.2"
      },
      "geometry" : {
        "type" : "Point",
        "coordinates" : [
          -2.2912251583778565,
          54.121478299297578
        ]
      }
    },
    {
      "properties" : {
        "type" : "visit",
        "timestamp" : "2026-04-16T08:46:02Z",
        "weather" : "Überwiegend bewölkt (9,7 °C)",
        "address" : "The Old Sawmill, Austwick Road, Horton-In-Ribblesdale, Settle, BD24 0EH, England",
        "arrival" : "2026-04-16T08:46:02Z",
        "device" : "B9E47AEB-E54C-4563-96B6-06995DD4BC56 (iPhone 16 Pro)",
        "source" : "Geory 5.3.2",
        "duration" : 2474.2922515869141,
        "departure" : "2026-04-16T09:27:16Z",
        "rating" : 0
      },
      "geometry" : {
        "type" : "Point",
        "coordinates" : [
          -2.2912051734280543,
          54.121591178079726
        ]
      },
      "type" : "Feature"
    },
    {
      "type" : "Feature",
      "geometry" : {
        "type" : "Point",
        "coordinates" : [
          -2.3591154496134989,
          54.209707573487471
        ]
      },
      "properties" : {
        "device" : "B9E47AEB-E54C-4563-96B6-06995DD4BC56 (iPhone 16 Pro)",
        "duration" : 1407.7014679908752,
        "timestamp" : "2026-04-16T09:43:56Z",
        "arrival" : "2026-04-16T09:43:56Z",
        "type" : "visit",
        "departure" : "2026-04-16T10:07:24Z",
        "source" : "Geory 5.3.2",
        "address" : "Blea Moor Road, Chapel Le Dale, Carnforth, LA6, England",
        "rating" : 0
      }
    },
    {
      "geometry" : {
        "type" : "Point",
        "coordinates" : [
          -2.3611021598741124,
          54.212683379690368
        ]
      },
      "properties" : {
        "source" : "Geory 5.3.2",
        "address" : "Yorkshire Dales National Park, Carnforth, LA6, England",
        "device" : "B9E47AEB-E54C-4563-96B6-06995DD4BC56 (iPhone 16 Pro)",
        "timestamp" : "2026-04-16T10:07:25Z",
        "duration" : 2028.9997508525848,
        "rating" : 0,
        "type" : "visit",
        "departure" : "2026-04-16T10:41:13Z",
        "arrival" : "2026-04-16T10:07:25Z"
      },
      "type" : "Feature"
    },
    {
      "geometry" : {
        "coordinates" : [
          -2.3699459536799745,
          54.21041733215354
        ],
        "type" : "Point"
      },
      "properties" : {
        "source" : "Geory 5.3.2",
        "rating" : 0,
        "departure" : "2026-04-16T11:42:52Z",
        "address" : "Yorkshire Dales National Park, Carnforth, LA6, England",
        "timestamp" : "2026-04-16T11:08:14Z",
        "type" : "visit",
        "device" : "B9E47AEB-E54C-4563-96B6-06995DD4BC56 (iPhone 16 Pro)",
        "arrival" : "2026-04-16T11:08:14Z",
        "duration" : 2078.9993176460266
      },
      "type" : "Feature"
    },
    {
      "geometry" : {
        "type" : "Point",
        "coordinates" : [
          -2.359042533673728,
          54.209546299424765
        ]
      },
      "type" : "Feature",
      "properties" : {
        "source" : "Geory 5.3.2",
        "timestamp" : "2026-04-16T11:52:48Z",
        "rating" : 0,
        "duration" : 2212.9994299411774,
        "type" : "visit",
        "device" : "B9E47AEB-E54C-4563-96B6-06995DD4BC56 (iPhone 16 Pro)",
        "address" : "Blea Moor Road, Chapel Le Dale, Carnforth, LA6, England",
        "arrival" : "2026-04-16T11:52:48Z",
        "departure" : "2026-04-16T12:29:41Z"
      }
    },
    {
      "properties" : {
        "type" : "visit",
        "weather" : "Überwiegend bewölkt (12,2 °C)",
        "timestamp" : "2026-04-16T15:26:57Z",
        "duration" : 8335.6945579051971,
        "arrival" : "2026-04-16T15:26:57Z",
        "device" : "B9E47AEB-E54C-4563-96B6-06995DD4BC56 (iPhone 16 Pro)",
        "rating" : 0,
        "departure" : "2026-04-16T17:45:52Z",
        "address" : "Burns, Threlkeld, Keswick, CA12, England",
        "source" : "Geory 5.3.2"
      },
      "type" : "Feature",
      "geometry" : {
        "coordinates" : [
          -3.074615402929179,
          54.608712192618242
        ],
        "type" : "Point"
      }
    },
    {
      "properties" : {
        "address" : "Burns, Threlkeld, Keswick, CA12, England",
        "departure" : "2026-04-17T09:28:19Z",
        "weather" : "Leichter Regen (10,0 °C)",
        "arrival" : "2026-04-16T18:01:44Z",
        "rating" : 0,
        "source" : "Geory 5.3.2",
        "device" : "B9E47AEB-E54C-4563-96B6-06995DD4BC56 (iPhone 16 Pro)",
        "timestamp" : "2026-04-16T18:01:44Z",
        "duration" : 55595.999306678772,
        "type" : "visit"
      },
      "type" : "Feature",
      "geometry" : {
        "type" : "Point",
        "coordinates" : [
          -3.0748290715588227,
          54.60863722275446
        ]
      }
    },
    {
      "properties" : {
        "start" : "2026-04-15T22:00:00Z",
        "source" : "Geory 5.3.2",
        "end" : "2026-04-16T21:59:59Z",
        "type" : "route",
        "device" : "B9E47AEB-E54C-4563-96B6-06995DD4BC56 (iPhone 16 Pro)"
      },
      "geometry" : {
        "type" : "LineString",
        "coordinates" : [
          [
            -3.0748290715588227,
            54.60863722275446
          ],
          [
            -3.0747830296194021,
            54.608519023439811
          ],
          [
            -3.0766007624518656,
            54.607609871968755
          ],
          [
            -3.077985326919793,
            54.606116085103125
          ],
          [
            -3.076432750208419,
            54.606099737011888
          ],
          [
            -3.0776404214737116,
            54.606663257089956
          ],
          [
            -3.074615402929179,
            54.608712192618242
          ],
          [
            -3.0743316333333333,
            54.608467500000003
          ],
          [
            -3.0731789333333337,
            54.609070433333336
          ],
          [
            -3.0719754166666671,
            54.609698516666668
          ],
          [
            -3.070651433333333,
            54.610232583333328
          ],
          [
            -3.0692591666666669,
            54.610705533333338
          ],
          [
            -3.0676555407087367,
            54.610991010714976
          ],
          [
            -3.0659835070619135,
            54.611373904489888
          ],
          [
            -3.0644428127385832,
            54.611770857645489
          ],
          [
            -3.0630484666666669,
            54.612313666666658
          ],
          [
            -3.0621631999999996,
            54.61309876666666
          ],
          [
            -3.06161035,
            54.614139866666662
          ],
          [
            -3.0596828833333327,
            54.615209300000004
          ],
          [
            -3.0572485,
            54.616054550000001
          ],
          [
            -3.0540286833333332,
            54.616406966666666
          ],
          [
            -3.050759583333333,
            54.61713928333333
          ],
          [
            -3.0480301666666665,
            54.618278383333333
          ],
          [
            -3.045640633333333,
            54.619936066666668
          ],
          [
            -3.0433699499999998,
            54.621787066666663
          ],
          [
            -3.0410142999999996,
            54.623682350000003
          ],
          [
            -3.0383532666666668,
            54.625504433333326
          ],
          [
            -3.0350543499999993,
            54.627302616666668
          ],
          [
            -3.0326725333333333,
            54.628372400000011
          ],
          [
            -3.0295803333333327,
            54.629542449999995
          ],
          [
            -3.0261770833333337,
            54.630761399999997
          ],
          [
            -3.0231889999999999,
            54.631704766666665
          ],
          [
            -3.0197722666666666,
            54.63258501666666
          ],
          [
            -3.016091583333333,
            54.633294099999993
          ],
          [
            -3.0125624166666665,
            54.633848800000003
          ],
          [
            -3.0090198666666668,
            54.634233416666667
          ],
          [
            -3.0054953999999996,
            54.634462183333333
          ],
          [
            -3.0019753666666666,
            54.634542250000003
          ],
          [
            -2.9981684166666667,
            54.634480616666664
          ],
          [
            -2.9943282333333334,
            54.634572899999995
          ],
          [
            -2.9902667166666665,
            54.635022233333331
          ],
          [
            -2.9861788499999995,
            54.635850566666669
          ],
          [
            -2.9825227666666665,
            54.636646883333327
          ],
          [
            -2.9783500666666667,
            54.63693645
          ],
          [
            -2.9745209666666663,
            54.636727133333331
          ],
          [
            -2.9709957833333331,
            54.636343349999997
          ],
          [
            -2.9670719999999999,
            54.635925166666659
          ],
          [
            -2.9633947166666661,
            54.635523499999998
          ],
          [
            -2.9597250166666669,
            54.635187116666671
          ],
          [
            -2.9557356833333328,
            54.635297016666662
          ],
          [
            -2.9521921333333334,
            54.635680733333324
          ],
          [
            -2.9483443666666669,
            54.636279749999993
          ],
          [
            -2.9445102166666666,
            54.637047433333329
          ],
          [
            -2.940843516666666,
            54.637984716666672
          ],
          [
            -2.9371803333333335,
            54.639002099999999
          ],
          [
            -2.9338457500000006,
            54.639894783333325
          ],
          [
            -2.9306001333333329,
            54.640737566666665
          ],
          [
            -2.9274069000000003,
            54.641473116666674
          ],
          [
            -2.9242142833333329,
            54.64201491666666
          ],
          [
            -2.9206378666666666,
            54.642302350000001
          ],
          [
            -2.9169711166666668,
            54.642086583333331
          ],
          [
            -2.9134135499999996,
            54.641369766666671
          ],
          [
            -2.9103257833333331,
            54.640463050000001
          ],
          [
            -2.9070721333333331,
            54.639375050000012
          ],
          [
            -2.9035790000000001,
            54.63831643333333
          ],
          [
            -2.8999657666666669,
            54.637687433333333
          ],
          [
            -2.8963362666666668,
            54.637464683333334
          ],
          [
            -2.8923700500000002,
            54.637672216666672
          ],
          [
            -2.8884223666666666,
            54.638157533333334
          ],
          [
            -2.8843166999999998,
            54.638215733333332
          ],
          [
            -2.8808341166666667,
            54.637977849999999
          ],
          [
            -2.8775387333333331,
            54.638030799999996
          ],
          [
            -2.8738487500000001,
            54.638506049999997
          ],
          [
            -2.8704333000000002,
            54.639067083333337
          ],
          [
            -2.8671588499999996,
            54.639688533333342
          ],
          [
            -2.8641173333333332,
            54.640238100000005
          ],
          [
            -2.8609413666666672,
            54.640467050000005
          ],
          [
            -2.8580250000000005,
            54.640862550000001
          ],
          [
            -2.8550552666666666,
            54.641446099999996
          ],
          [
            -2.8516816166666668,
            54.64196905
          ],
          [
            -2.8480665166666665,
            54.64298385
          ],
          [
            -2.8445546999999998,
            54.643797183333334
          ],
          [
            -2.8411615863377691,
            54.644373839973163
          ],
          [
            -2.8379538723171049,
            54.644690652916267
          ],
          [
            -2.8342933171714604,
            54.645041211985898
          ],
          [
            -2.8328817394361554,
            54.645173359274807
          ],
          [
            -2.8304366666666665,
            54.645400550000012
          ],
          [
            -2.8269253999999999,
            54.645734566666668
          ],
          [
            -2.8236332499999999,
            54.646030216666674
          ],
          [
            -2.8202354666666665,
            54.64633220000001
          ],
          [
            -2.8166738333333332,
            54.646664583333333
          ],
          [
            -2.8131188499999999,
            54.646995883333325
          ],
          [
            -2.8099606333333331,
            54.647346749999997
          ],
          [
            -2.8066068666666664,
            54.6480368
          ],
          [
            -2.8030811,
            54.648993183333339
          ],
          [
            -2.7991473666666673,
            54.649406066666671
          ],
          [
            -2.7951980666666669,
            54.649127433333327
          ],
          [
            -2.7916601333333331,
            54.648598266666674
          ],
          [
            -2.7882029500000005,
            54.648271700000002
          ],
          [
            -2.7850146833333334,
            54.648210599999999
          ],
          [
            -2.7827598,
            54.648277383333337
          ],
          [
            -2.7812982999999996,
            54.64796663333334
          ],
          [
            -2.779756233333333,
            54.648653416666669
          ],
          [
            -2.7764297,
            54.649451083333332
          ],
          [
            -2.7729843333333335,
            54.650130083333337
          ],
          [
            -2.7695505666666667,
            54.650764766666661
          ],
          [
            -2.7663816666666667,
            54.651525766666666
          ],
          [
            -2.7635118999999997,
            54.652173699999999
          ],
          [
            -2.7613703833333334,
            54.652307599999993
          ],
          [
            -2.758775558779468,
            54.651798643160895
          ],
          [
            -2.7560916333333334,
            54.650683100000002
          ],
          [
            -2.7531098666666667,
            54.649531033333339
          ],
          [
            -2.7501849999999997,
            54.648382833333329
          ],
          [
            -2.7471990833333333,
            54.647327016666672
          ],
          [
            -2.7457761999999999,
            54.646829383333341
          ],
          [
            -2.7442117166666664,
            54.646238583333322
          ],
          [
            -2.7418689499999997,
            54.645278566666668
          ],
          [
            -2.7398690000000001,
            54.644297116666664
          ],
          [
            -2.7380233833333336,
            54.643281399999992
          ],
          [
            -2.7362302499999998,
            54.642161399999999
          ],
          [
            -2.7345468333333334,
            54.640971800000003
          ],
          [
            -2.7330546333333334,
            54.639779633333333
          ],
          [
            -2.7315710666666666,
            54.638432899999998
          ],
          [
            -2.7301970833333336,
            54.63706595
          ],
          [
            -2.7290722833333332,
            54.635838799999988
          ],
          [
            -2.7279039666666667,
            54.634460300000001
          ],
          [
            -2.7268911333333334,
            54.633134299999995
          ],
          [
            -2.7258730833333331,
            54.631678966666676
          ],
          [
            -2.7250579666666668,
            54.630386666666666
          ],
          [
            -2.7242372499999998,
            54.628903350000002
          ],
          [
            -2.723549583333333,
            54.627480366666667
          ],
          [
            -2.7229605000000001,
            54.626094950000002
          ],
          [
            -2.7225284500000004,
            54.624795183333326
          ],
          [
            -2.7221254166666666,
            54.623360516666658
          ],
          [
            -2.7215153833333332,
            54.621748233333328
          ],
          [
            -2.720900466666667,
            54.620343933333338
          ],
          [
            -2.7201882999999998,
            54.618948916666675
          ],
          [
            -2.7192444333333334,
            54.61731673333334
          ],
          [
            -2.7182441666666666,
            54.615773183333346
          ],
          [
            -2.7169451666666666,
            54.614000249999997
          ],
          [
            -2.7153226166666666,
            54.612065950000002
          ],
          [
            -2.713386583333333,
            54.610042850000006
          ],
          [
            -2.7111940833333334,
            54.608031749999995
          ],
          [
            -2.7097671833333332,
            54.606773583333343
          ],
          [
            -2.7090031999999997,
            54.606041216666668
          ],
          [
            -2.7070251666666669,
            54.603905550000007
          ],
          [
            -2.7054764499999999,
            54.601896566666667
          ],
          [
            -2.7040914000000003,
            54.599656583333335
          ],
          [
            -2.7029842666666668,
            54.597316633333335
          ],
          [
            -2.7022379499999998,
            54.595123333333341
          ],
          [
            -2.7017456166666665,
            54.592729200000001
          ],
          [
            -2.7015742666666669,
            54.590345300000003
          ],
          [
            -2.7014629499999998,
            54.587865416666666
          ],
          [
            -2.7009413000000002,
            54.585640766666671
          ],
          [
            -2.699805833333333,
            54.583344050000008
          ],
          [
            -2.6982475333333333,
            54.581147416666667
          ],
          [
            -2.6966191333333329,
            54.578947800000002
          ],
          [
            -2.6950159999999999,
            54.576754433333328
          ],
          [
            -2.6934014666666664,
            54.574552633333326
          ],
          [
            -2.6917781000000001,
            54.572340516666664
          ],
          [
            -2.6901682500000001,
            54.570129383333338
          ],
          [
            -2.6886513833333336,
            54.568137033333343
          ],
          [
            -2.6866510999999997,
            54.566068066666674
          ],
          [
            -2.6842290833333329,
            54.564169449999994
          ],
          [
            -2.6815196833333332,
            54.56241068333334
          ],
          [
            -2.6787995000000002,
            54.560659749999999
          ],
          [
            -2.6761362333333332,
            54.558863400000007
          ],
          [
            -2.6742387166666663,
            54.556766616666664
          ],
          [
            -2.6733110333333334,
            54.554464066666661
          ],
          [
            -2.6724978666666672,
            54.552128049999993
          ],
          [
            -2.6713830999999999,
            54.549840233333335
          ],
          [
            -2.6699770166666665,
            54.547600266666663
          ],
          [
            -2.6693891999999999,
            54.546798666666668
          ],
          [
            -2.6682678333333332,
            54.54542095
          ],
          [
            -2.6662894499999998,
            54.543329016666668
          ],
          [
            -2.6644030166666668,
            54.541205616666673
          ],
          [
            -2.6627895666666666,
            54.539012833333324
          ],
          [
            -2.6614796833333334,
            54.53676488333334
          ],
          [
            -2.6604808666666666,
            54.534480716666664
          ],
          [
            -2.6597751000000001,
            54.532143916666669
          ],
          [
            -2.6593792833333332,
            54.529785750000002
          ],
          [
            -2.6592951833333336,
            54.527400300000004
          ],
          [
            -2.6592829666666664,
            54.52501276666667
          ],
          [
            -2.6590876833333335,
            54.522616333333332
          ],
          [
            -2.657985183333333,
            54.520308333333332
          ],
          [
            -2.6559929000000002,
            54.518242350000008
          ],
          [
            -2.6539821666666668,
            54.516178566666667
          ],
          [
            -2.6525964499999999,
            54.513964599999994
          ],
          [
            -2.6517676166666666,
            54.511665950000001
          ],
          [
            -2.6507157666666665,
            54.509364866666665
          ],
          [
            -2.6492733999999998,
            54.507112499999998
          ],
          [
            -2.6474753500000001,
            54.504961700000003
          ],
          [
            -2.6457935666666668,
            54.502784400000003
          ],
          [
            -2.6447642333333334,
            54.50047630000001
          ],
          [
            -2.6444193,
            54.498107200000007
          ],
          [
            -2.6441594166666662,
            54.495737133333328
          ],
          [
            -2.6434764666666664,
            54.493403199999996
          ],
          [
            -2.6423702999999996,
            54.491103499999994
          ],
          [
            -2.6408753499999995,
            54.488880500000008
          ],
          [
            -2.6389732500000003,
            54.486764516666668
          ],
          [
            -2.6376941166666672,
            54.485202566666672
          ],
          [
            -2.6372875833333334,
            54.484599416666669
          ],
          [
            -2.636161616666667,
            54.482316750000003
          ],
          [
            -2.6356217333333336,
            54.479962449999995
          ],
          [
            -2.6351236833333331,
            54.477605066666662
          ],
          [
            -2.6342552833333337,
            54.475282733333337
          ],
          [
            -2.6331381166666668,
            54.473221133333332
          ],
          [
            -2.6315658499999999,
            54.471027916666664
          ],
          [
            -2.6296488500000001,
            54.468931133333342
          ],
          [
            -2.6276215499999998,
            54.467115733333337
          ],
          [
            -2.6253351666666664,
            54.465416450000006
          ],
          [
            -2.6226132666666668,
            54.463648933333332
          ],
          [
            -2.6203354499999998,
            54.461942033333322
          ],
          [
            -2.6181976999999996,
            54.459920016666665
          ],
          [
            -2.6166078500000003,
            54.457968083333327
          ],
          [
            -2.6154708666666662,
            54.456128749999998
          ],
          [
            -2.6149230500000002,
            54.455097200000004
          ],
          [
            -2.6134888833333334,
            54.453241733333336
          ],
          [
            -2.6126237166666666,
            54.452451683333322
          ],
          [
            -2.6110938884220225,
            54.451343670073712
          ],
          [
            -2.6102131384866141,
            54.450573966696453
          ],
          [
            -2.6094905333333331,
            54.449743549999994
          ],
          [
            -2.6089213833333331,
            54.448903550000004
          ],
          [
            -2.6072697312096191,
            54.449101151879205
          ],
          [
            -2.6045079999999996,
            54.449077283333324
          ],
          [
            -2.6016419333333332,
            54.44818149999999
          ],
          [
            -2.5992118333333334,
            54.446969999999993
          ],
          [
            -2.5972146166666668,
            54.445373183333338
          ],
          [
            -2.595879,
            54.443493999999994
          ],
          [
            -2.5953301666666664,
            54.441388949999997
          ],
          [
            -2.5956742499999996,
            54.439277416666663
          ],
          [
            -2.59663735,
            54.437452666666665
          ],
          [
            -2.597617033333333,
            54.435789899999996
          ],
          [
            -2.5984967333333335,
            54.434286633333336
          ],
          [
            -2.5994272833333332,
            54.432709600000003
          ],
          [
            -2.6004442499999998,
            54.43098526666666
          ],
          [
            -2.6013314000000003,
            54.429137799999999
          ],
          [
            -2.6016288666666667,
            54.427177633333329
          ],
          [
            -2.6013276000000003,
            54.425396866666674
          ],
          [
            -2.6005745166666667,
            54.423493550000003
          ],
          [
            -2.6000427833333335,
            54.421758683333337
          ],
          [
            -2.5998339999999995,
            54.419926216666667
          ],
          [
            -2.6000608499999998,
            54.417978049999995
          ],
          [
            -2.6008076,
            54.416000666666669
          ],
          [
            -2.6012916333333331,
            54.414170966666674
          ],
          [
            -2.6018295166666667,
            54.412465683333323
          ],
          [
            -2.6028870833333335,
            54.41065489999999
          ],
          [
            -2.6039825833333334,
            54.408937066666674
          ],
          [
            -2.6047903333333333,
            54.407196850000005
          ],
          [
            -2.6052090666666667,
            54.40545671666667
          ],
          [
            -2.6052322333333335,
            54.403497933333334
          ],
          [
            -2.6047935666666668,
            54.401560050000001
          ],
          [
            -2.6040584499999997,
            54.399932933333339
          ],
          [
            -2.6029181333333331,
            54.39827278333334
          ],
          [
            -2.6014501333333335,
            54.396736666666662
          ],
          [
            -2.5996713499999999,
            54.395269283333327
          ],
          [
            -2.5975741166666664,
            54.393903749999993
          ],
          [
            -2.5957702833333336,
            54.392605233333342
          ],
          [
            -2.5940982499999996,
            54.391131166666675
          ],
          [
            -2.5924583333333335,
            54.389727416666666
          ],
          [
            -2.5902363833333335,
            54.388339066666667
          ],
          [
            -2.5877765500000001,
            54.387204216666667
          ],
          [
            -2.5852366,
            54.3858976
          ],
          [
            -2.5834342500000003,
            54.384344550000002
          ],
          [
            -2.5823470166666667,
            54.382532283333333
          ],
          [
            -2.5820873500000001,
            54.380721366666663
          ],
          [
            -2.5826071333333331,
            54.378847849999993
          ],
          [
            -2.5833834166666665,
            54.376948999999996
          ],
          [
            -2.5836868833333333,
            54.375997633333327
          ],
          [
            -2.5838805166666665,
            54.374801966666666
          ],
          [
            -2.5839236166666666,
            54.372812066666668
          ],
          [
            -2.5845842166666664,
            54.37075346666667
          ],
          [
            -2.5859339333333335,
            54.369073166666674
          ],
          [
            -2.5880649666666664,
            54.367546800000007
          ],
          [
            -2.5903105833333333,
            54.366580733333329
          ],
          [
            -2.5930534333333335,
            54.365876216666656
          ],
          [
            -2.5960098833333332,
            54.365261950000004
          ],
          [
            -2.59884805,
            54.364355350000004
          ],
          [
            -2.6010951999999996,
            54.363214783333319
          ],
          [
            -2.6033885166666666,
            54.361973199999994
          ],
          [
            -2.6056740666666665,
            54.360975333333336
          ],
          [
            -2.6082340166666671,
            54.360109349999995
          ],
          [
            -2.6111667666666669,
            54.359157633333339
          ],
          [
            -2.6143622,
            54.358010116666676
          ],
          [
            -2.6169730166666669,
            54.356418683333338
          ],
          [
            -2.6187940666666667,
            54.354261016666669
          ],
          [
            -2.6193435666666671,
            54.351691000000002
          ],
          [
            -2.6183542166666669,
            54.349157416666671
          ],
          [
            -2.6167217166666665,
            54.346996616666665
          ],
          [
            -2.6159506833333332,
            54.34446603333334
          ],
          [
            -2.6165409999999998,
            54.341891333333322
          ],
          [
            -2.6173707833333335,
            54.339316099999998
          ],
          [
            -2.6181119333333336,
            54.337032183333335
          ],
          [
            -2.6191288333333329,
            54.334943966666664
          ],
          [
            -2.6206477701723379,
            54.333143647716696
          ],
          [
            -2.6223303062349079,
            54.331922511218508
          ],
          [
            -2.6233046000000004,
            54.331142933333332
          ],
          [
            -2.6220230500000001,
            54.330545550000004
          ],
          [
            -2.6211908666666668,
            54.330156866666655
          ],
          [
            -2.6192002666666667,
            54.32918633333334
          ],
          [
            -2.6183162000000002,
            54.327642566666661
          ],
          [
            -2.6181982499999998,
            54.326025000000001
          ],
          [
            -2.6165432666666666,
            54.324756499999992
          ],
          [
            -2.6145611333333334,
            54.32378155
          ],
          [
            -2.6125588500000005,
            54.323327716666668
          ],
          [
            -2.6103091333333337,
            54.324140466666655
          ],
          [
            -2.6081527666666671,
            54.324495433333333
          ],
          [
            -2.6066911666666668,
            54.323837633333341
          ],
          [
            -2.6056245333333332,
            54.322944933333339
          ],
          [
            -2.6040546999999998,
            54.322479733333331
          ],
          [
            -2.6034213500000001,
            54.321316849999995
          ],
          [
            -2.6020591833333331,
            54.320624383333346
          ],
          [
            -2.5998100666666666,
            54.320488133333342
          ],
          [
            -2.5977339666666666,
            54.31998085
          ],
          [
            -2.59597685,
            54.319695466666666
          ],
          [
            -2.5936984000000001,
            54.319370349999993
          ],
          [
            -2.5916931166666664,
            54.318944883333337
          ],
          [
            -2.5897167166666666,
            54.318697833333331
          ],
          [
            -2.5879979166666667,
            54.318409383333332
          ],
          [
            -2.5862257499999997,
            54.318604833333332
          ],
          [
            -2.5848554333333333,
            54.319333766666659
          ],
          [
            -2.5835774999999996,
            54.320413433333336
          ],
          [
            -2.5822383031457901,
            54.321276582196802
          ],
          [
            -2.5803443833333333,
            54.321740366666667
          ],
          [
            -2.5784896333333331,
            54.322050499999996
          ],
          [
            -2.5760054666666665,
            54.322640833333331
          ],
          [
            -2.5748326999999995,
            54.323017766666666
          ],
          [
            -2.5738974333333333,
            54.323767016666672
          ],
          [
            -2.572081166666667,
            54.323887366666668
          ],
          [
            -2.5703260499999998,
            54.324463799999997
          ],
          [
            -2.5687481833333332,
            54.324754383333321
          ],
          [
            -2.5671589333333333,
            54.324643500000001
          ],
          [
            -2.5654619666666667,
            54.324828783333338
          ],
          [
            -2.5640334499999997,
            54.324239599999991
          ],
          [
            -2.5621366166666668,
            54.324211550000001
          ],
          [
            -2.5601660333333331,
            54.323761333333337
          ],
          [
            -2.5592887333333332,
            54.322376616666659
          ],
          [
            -2.5580078500000001,
            54.321606416666661
          ],
          [
            -2.5564521833333336,
            54.321599216666662
          ],
          [
            -2.5543056333333336,
            54.32163216666666
          ],
          [
            -2.5522927666666666,
            54.321392583333328
          ],
          [
            -2.5503569500000003,
            54.320827549999997
          ],
          [
            -2.5486222500000002,
            54.320979616666662
          ],
          [
            -2.5459895166666664,
            54.320688733333327
          ],
          [
            -2.5438559499999998,
            54.320367550000007
          ],
          [
            -2.5420535000000002,
            54.320427283333331
          ],
          [
            -2.5401481166666664,
            54.320826066666662
          ],
          [
            -2.5383760333333334,
            54.321294850000001
          ],
          [
            -2.5367805166666666,
            54.32128363333333
          ],
          [
            -2.5355345499999999,
            54.320661833333325
          ],
          [
            -2.5335229166666662,
            54.320681366666669
          ],
          [
            -2.5316699021282996,
            54.320422446735776
          ],
          [
            -2.530134571986852,
            54.319771904475417
          ],
          [
            -2.5283202833333336,
            54.319829016666667
          ],
          [
            -2.526731166666667,
            54.320098066666667
          ],
          [
            -2.5272531385868366,
            54.32096863345614
          ],
          [
            -2.5277707570573194,
            54.32189442686478
          ],
          [
            -2.5277140500000002,
            54.32281485
          ],
          [
            -2.5262017000000001,
            54.323081233333333
          ],
          [
            -2.5247051672885306,
            54.323295936722602
          ],
          [
            -2.5231908847744409,
            54.323453452045989
          ],
          [
            -2.5214502082690973,
            54.323307454327399
          ],
          [
            -2.5198973445520672,
            54.323165179449305
          ],
          [
            -2.5185509947664464,
            54.322664237970997
          ],
          [
            -2.517066538747307,
            54.322360777494204
          ],
          [
            -2.5159554666666666,
            54.321723066666664
          ],
          [
            -2.5137570999999999,
            54.321728050000004
          ],
          [
            -2.5130610333333334,
            54.321463399999992
          ],
          [
            -2.5119107000000001,
            54.321225166666665
          ],
          [
            -2.5100484999999999,
            54.320956199999998
          ],
          [
            -2.5083973999999998,
            54.320578116666667
          ],
          [
            -2.5066269333333331,
            54.320287033333337
          ],
          [
            -2.5041790499999999,
            54.320093366666661
          ],
          [
            -2.5020601166666667,
            54.319966516666668
          ],
          [
            -2.5000183833333334,
            54.320058133333333
          ],
          [
            -2.4977348333333333,
            54.319928466666674
          ],
          [
            -2.4955499333333333,
            54.319894249999997
          ],
          [
            -2.4933096333333333,
            54.319893900000004
          ],
          [
            -2.491424248183193,
            54.319495014355617
          ],
          [
            -2.4897683501101167,
            54.318962718089317
          ],
          [
            -2.4886345828317458,
            54.318194815050489
          ],
          [
            -2.4872919000000002,
            54.317530016666659
          ],
          [
            -2.4853959166666666,
            54.316785400000001
          ],
          [
            -2.4832819499999998,
            54.316639233333333
          ],
          [
            -2.48065925,
            54.316703433333338
          ],
          [
            -2.4776845333333335,
            54.316381466666662
          ],
          [
            -2.4750692000000001,
            54.316098566666675
          ],
          [
            -2.4731291166666667,
            54.315864866666672
          ],
          [
            -2.4713653833333336,
            54.315585899999995
          ],
          [
            -2.469667733333333,
            54.31522545
          ],
          [
            -2.4680488333333335,
            54.314981116666672
          ],
          [
            -2.4665800833333336,
            54.314559066666668
          ],
          [
            -2.4647464499999998,
            54.314117183333337
          ],
          [
            -2.4631343499999998,
            54.313696016666668
          ],
          [
            -2.4614440759026524,
            54.313649131264071
          ],
          [
            -2.4599107500000001,
            54.313214616666663
          ],
          [
            -2.4582796329814727,
            54.312655076653542
          ],
          [
            -2.4559192753555705,
            54.312172219844022
          ],
          [
            -2.4537142721670042,
            54.311697895487541
          ],
          [
            -2.4518106439733311,
            54.311378348091338
          ],
          [
            -2.450040533333333,
            54.311397283333328
          ],
          [
            -2.4484407629096987,
            54.311262588304636
          ],
          [
            -2.4464197666666667,
            54.311150849999997
          ],
          [
            -2.4445810505468564,
            54.311017479066543
          ],
          [
            -2.443055366666667,
            54.310619700000011
          ],
          [
            -2.4412936666666667,
            54.310972566666671
          ],
          [
            -2.4393642333333334,
            54.311098049999991
          ],
          [
            -2.4376393461726478,
            54.311044077315358
          ],
          [
            -2.4359942833333332,
            54.310463033333328
          ],
          [
            -2.4341409296513539,
            54.310704351802251
          ],
          [
            -2.4321702333333333,
            54.310794049999998
          ],
          [
            -2.4304213333333333,
            54.310489800000006
          ],
          [
            -2.4287770744717667,
            54.310435970394259
          ],
          [
            -2.4270237507739796,
            54.309598528657958
          ],
          [
            -2.425682019870099,
            54.308930390989779
          ],
          [
            -2.4243211331828531,
            54.307934393160821
          ],
          [
            -2.4232116231389687,
            54.306838085938352
          ],
          [
            -2.420694216666667,
            54.306425333333337
          ],
          [
            -2.4182102000000003,
            54.306609283333337
          ],
          [
            -2.4161156333333333,
            54.306357833333337
          ],
          [
            -2.41430035,
            54.30542333333333
          ],
          [
            -2.412617416666667,
            54.304808516666661
          ],
          [
            -2.4116873068272651,
            54.304146888435874
          ],
          [
            -2.4109590553094145,
            54.303965131031319
          ],
          [
            -2.4084491285662453,
            54.303613811452131
          ],
          [
            -2.4065974521824973,
            54.302770901042948
          ],
          [
            -2.4053935635770185,
            54.301459393590598
          ],
          [
            -2.4029902298476689,
            54.300573246633711
          ],
          [
            -2.4007587999999997,
            54.300121549999993
          ],
          [
            -2.3988243499999999,
            54.300303100000001
          ],
          [
            -2.3967252333333331,
            54.300847083333338
          ],
          [
            -2.3950196166666666,
            54.301241349999991
          ],
          [
            -2.393217233333333,
            54.301238883333326
          ],
          [
            -2.3923477333333332,
            54.300470500000003
          ],
          [
            -2.3905550166666667,
            54.300944283333337
          ],
          [
            -2.3887347166666668,
            54.301506233333342
          ],
          [
            -2.3868556000000001,
            54.302039716666663
          ],
          [
            -2.38460055,
            54.302233066666666
          ],
          [
            -2.3822633660645862,
            54.302377355466604
          ],
          [
            -2.3797890101041532,
            54.302484291993423
          ],
          [
            -2.3777466197967509,
            54.302216652090692
          ],
          [
            -2.3763134176762604,
            54.302580906752404
          ],
          [
            -2.3757203702375631,
            54.303461172475892
          ],
          [
            -2.3742214499999998,
            54.304006516666675
          ],
          [
            -2.3721857333333336,
            54.303850333333337
          ],
          [
            -2.3703530166666669,
            54.304025366666679
          ],
          [
            -2.3687220500000001,
            54.304897250000003
          ],
          [
            -2.3670332999999997,
            54.305539799999991
          ],
          [
            -2.3648030166666669,
            54.306458183333341
          ],
          [
            -2.3633496333333328,
            54.306899666666673
          ],
          [
            -2.3610785166666668,
            54.307218050000003
          ],
          [
            -2.3586011333333334,
            54.307667099999996
          ],
          [
            -2.3563130666666665,
            54.308205683333341
          ],
          [
            -2.3546340853369823,
            54.309172721562113
          ],
          [
            -2.3523514593765222,
            54.309992327638717
          ],
          [
            -2.3501381706259199,
            54.310798344812461
          ],
          [
            -2.3477682093602619,
            54.31165980373639
          ],
          [
            -2.3458145999999997,
            54.312343133333329
          ],
          [
            -2.3446271666666663,
            54.313584216666676
          ],
          [
            -2.34267205,
            54.314463533333345
          ],
          [
            -2.3406820000000002,
            54.315251783333331
          ],
          [
            -2.3395147833333336,
            54.316519100000008
          ],
          [
            -2.3385640166666666,
            54.317672633333324
          ],
          [
            -2.3371613596361867,
            54.318632372742677
          ],
          [
            -2.3354679166666665,
            54.319817033333329
          ],
          [
            -2.3336054166666664,
            54.320719533333339
          ],
          [
            -2.3319947333333331,
            54.32198833333333
          ],
          [
            -2.3298419333333333,
            54.3230419
          ],
          [
            -2.3273617833333335,
            54.323782183333329
          ],
          [
            -2.3253237000000002,
            54.324718666666669
          ],
          [
            -2.3235699000000003,
            54.325755033333344
          ],
          [
            -2.3214073666666666,
            54.326720400000006
          ],
          [
            -2.3195942999999999,
            54.327757916666663
          ],
          [
            -2.3173789666666669,
            54.328251466666671
          ],
          [
            -2.3156945500000004,
            54.328770349999999
          ],
          [
            -2.3140728666666663,
            54.329080283333333
          ],
          [
            -2.3131391467076412,
            54.329158107710235
          ],
          [
            -2.3128614499999998,
            54.329650333333333
          ],
          [
            -2.3128921666666664,
            54.330820750000008
          ],
          [
            -2.3139562833333334,
            54.332113600000007
          ],
          [
            -2.3159665833333332,
            54.333229616666664
          ],
          [
            -2.3179715666666669,
            54.33455428333334
          ],
          [
            -2.3196560499999999,
            54.335683299999992
          ],
          [
            -2.3212714333333335,
            54.33681683333333
          ],
          [
            -2.3224378666666667,
            54.337639216666673
          ],
          [
            -2.3238482666666664,
            54.338701949999994
          ],
          [
            -2.3251105499999998,
            54.339729166666665
          ],
          [
            -2.3261723333333331,
            54.340945183333332
          ],
          [
            -2.3265349166666667,
            54.342183133333343
          ],
          [
            -2.3271907500000002,
            54.343610766666671
          ],
          [
            -2.3278348333333332,
            54.34482473333334
          ],
          [
            -2.3288315000000002,
            54.346146349999998
          ],
          [
            -2.3297988833333334,
            54.347402250000009
          ],
          [
            -2.3306287000000001,
            54.348544066666669
          ],
          [
            -2.3310652000000003,
            54.349691833333331
          ],
          [
            -2.3311780500000001,
            54.350671100000007
          ],
          [
            -2.3319488000000002,
            54.35146901666667
          ],
          [
            -2.3333894166666669,
            54.351836533333334
          ],
          [
            -2.3347862166666671,
            54.352937666666669
          ],
          [
            -2.3360431833333335,
            54.354186633333335
          ],
          [
            -2.3372641000000001,
            54.355337016666667
          ],
          [
            -2.3379583333333334,
            54.356807783333338
          ],
          [
            -2.3387522000000001,
            54.358167133333339
          ],
          [
            -2.339649633333333,
            54.359494166666678
          ],
          [
            -2.3412176166666665,
            54.360696549999993
          ],
          [
            -2.3426554500000001,
            54.361544866666662
          ],
          [
            -2.3444726333333334,
            54.362364999999997
          ],
          [
            -2.3458325333333332,
            54.363339799999991
          ],
          [
            -2.3469272333333331,
            54.364310016666664
          ],
          [
            -2.3478959166666664,
            54.365407783333332
          ],
          [
            -2.3488172499999997,
            54.366469700000003
          ],
          [
            -2.3494486999999999,
            54.367347283333324
          ],
          [
            -2.3487549333333333,
            54.368223133333338
          ],
          [
            -2.3495668833333334,
            54.369373616666657
          ],
          [
            -2.3500574666666667,
            54.370348966666675
          ],
          [
            -2.3502471333333332,
            54.37151373333333
          ],
          [
            -2.3500823666666668,
            54.372690866666673
          ],
          [
            -2.3491966833333331,
            54.373809716666663
          ],
          [
            -2.3481554666666664,
            54.375006416666672
          ],
          [
            -2.3471890666666666,
            54.376282383333333
          ],
          [
            -2.3462369333333335,
            54.377381033333329
          ],
          [
            -2.3456040333333337,
            54.378779916666659
          ],
          [
            -2.3446637999999997,
            54.379997550000006
          ],
          [
            -2.3437370333333334,
            54.381113916666663
          ],
          [
            -2.3425929499999998,
            54.382018033333331
          ],
          [
            -2.3415423,
            54.383153583333325
          ],
          [
            -2.3406107500000002,
            54.384268099999993
          ],
          [
            -2.3396411000000001,
            54.385436449999993
          ],
          [
            -2.3386350666666669,
            54.386679266666668
          ],
          [
            -2.3375940499999999,
            54.387845066666657
          ],
          [
            -2.3370823000000005,
            54.389017783333337
          ],
          [
            -2.3368582666666669,
            54.390466266666664
          ],
          [
            -2.3365380666666664,
            54.391477400000007
          ],
          [
            -2.3361070166666669,
            54.392618666666678
          ],
          [
            -2.3357642333333337,
            54.393550883333333
          ],
          [
            -2.3355053666666667,
            54.394781200000004
          ],
          [
            -2.3351395333333334,
            54.395926166666669
          ],
          [
            -2.3353183666666664,
            54.396966416666658
          ],
          [
            -2.3352942889269297,
            54.397890058118357
          ],
          [
            -2.3352893116891815,
            54.398443387302734
          ],
          [
            -2.3355262718652852,
            54.399383860412129
          ],
          [
            -2.3358191833333333,
            54.40028341666666
          ],
          [
            -2.3360700333333333,
            54.401231183333323
          ],
          [
            -2.3364231833333333,
            54.402477233333336
          ],
          [
            -2.3367579666666667,
            54.403896016666671
          ],
          [
            -2.3370799500000001,
            54.40517006666667
          ],
          [
            -2.3372601166666662,
            54.406338133333335
          ],
          [
            -2.336627116666667,
            54.407211716666673
          ],
          [
            -2.3368670166666665,
            54.408118383333338
          ],
          [
            -2.3365147666666668,
            54.409006183333332
          ],
          [
            -2.3364469166666666,
            54.410098783333332
          ],
          [
            -2.3362810999999999,
            54.411121950000009
          ],
          [
            -2.3361649,
            54.412111033333332
          ],
          [
            -2.3357143666666667,
            54.412976383333337
          ],
          [
            -2.335620566666667,
            54.413928500000004
          ],
          [
            -2.3358901166666666,
            54.414832049999994
          ],
          [
            -2.3360225333333333,
            54.415807899999997
          ],
          [
            -2.3365220999999998,
            54.416981850000006
          ],
          [
            -2.3363487193324537,
            54.417947631274259
          ],
          [
            -2.336655217366558,
            54.418476891192284
          ],
          [
            -2.3364374333333333,
            54.417955799999994
          ],
          [
            -2.3365528680080394,
            54.416833242007712
          ],
          [
            -2.3360627423063565,
            54.415768358850855
          ],
          [
            -2.3359649666666664,
            54.414769049999997
          ],
          [
            -2.335566323385446,
            54.413815908824432
          ],
          [
            -2.3359032499999999,
            54.412862366666666
          ],
          [
            -2.3362762033900371,
            54.411986258085456
          ],
          [
            -2.3363388666666665,
            54.411038566666669
          ],
          [
            -2.3365257166666669,
            54.4099766
          ],
          [
            -2.3366092000000003,
            54.408983166666665
          ],
          [
            -2.3369637176796458,
            54.408103391959095
          ],
          [
            -2.336771066666667,
            54.407169233333327
          ],
          [
            -2.3372955666666666,
            54.405938050000003
          ],
          [
            -2.336903368709371,
            54.404374110032485
          ],
          [
            -2.3366434853538043,
            54.403169193536144
          ],
          [
            -2.3363054379271162,
            54.401913941851248
          ],
          [
            -2.3360052925921346,
            54.400750041453399
          ],
          [
            -2.3356017205851254,
            54.399411271691697
          ],
          [
            -2.33527175,
            54.398117783333326
          ],
          [
            -2.3353851915079833,
            54.39682356040452
          ],
          [
            -2.3354736818434665,
            54.395321298467373
          ],
          [
            -2.3357689499999998,
            54.393817766666672
          ],
          [
            -2.3362775,
            54.392376200000008
          ],
          [
            -2.3367627666666668,
            54.391055050000013
          ],
          [
            -2.3370565090432174,
            54.3897521218707
          ],
          [
            -2.3371919680034443,
            54.388901627688412
          ],
          [
            -2.337276595213774,
            54.388452291371536
          ],
          [
            -2.3380870666666667,
            54.387365066666675
          ],
          [
            -2.3390651833333331,
            54.386217883333337
          ],
          [
            -2.3400543833333334,
            54.385042633333327
          ],
          [
            -2.3409334500000001,
            54.384007133333334
          ],
          [
            -2.3418817166666668,
            54.382889899999995
          ],
          [
            -2.3430247166666667,
            54.381909566666671
          ],
          [
            -2.3441390333333336,
            54.38081278333334
          ],
          [
            -2.3450956666666665,
            54.379676599999996
          ],
          [
            -2.3458160166666664,
            54.378521299999996
          ],
          [
            -2.3463906166666666,
            54.377328549999994
          ],
          [
            -2.3472975833333334,
            54.376349266666665
          ],
          [
            -2.348115466666667,
            54.375320416666668
          ],
          [
            -2.3487071333333334,
            54.374289050000002
          ],
          [
            -2.3496827333333337,
            54.373443283333337
          ],
          [
            -2.3503253499999999,
            54.372544900000001
          ],
          [
            -2.3502929166666666,
            54.371362916666669
          ],
          [
            -2.3500940000000003,
            54.370330433333322
          ],
          [
            -2.3496645444133986,
            54.369404834167405
          ],
          [
            -2.3490360474259853,
            54.368511555279134
          ],
          [
            -2.3494539666666667,
            54.367646366666669
          ],
          [
            -2.34905045,
            54.366671683333337
          ],
          [
            -2.3482476166666664,
            54.365687033333337
          ],
          [
            -2.3474690499999995,
            54.364787999999997
          ],
          [
            -2.3467037585369686,
            54.363744655464998
          ],
          [
            -2.3453898833333326,
            54.362991449999996
          ],
          [
            -2.3443698440771747,
            54.36222169867365
          ],
          [
            -2.3443698440771747,
            54.36222169867365
          ],
          [
            -2.3431142666666669,
            54.361671216666672
          ],
          [
            -2.3418681277898745,
            54.360994668591474
          ],
          [
            -2.3404265742506207,
            54.360060641568012
          ],
          [
            -2.3394402799800917,
            54.358830652700945
          ],
          [
            -2.3385052208801724,
            54.357564170782915
          ],
          [
            -2.3378489056702989,
            54.356305555353757
          ],
          [
            -2.3370467345949977,
            54.355005802863623
          ],
          [
            -2.3359310705413292,
            54.353956276813484
          ],
          [
            -2.335123445569911,
            54.353176690283021
          ],
          [
            -2.3341960739475498,
            54.352313390903369
          ],
          [
            -2.3331843129131666,
            54.351618581166321
          ],
          [
            -2.3316337499999999,
            54.351285933333337
          ],
          [
            -2.3311128999999999,
            54.35014266666667
          ],
          [
            -2.3308247666666668,
            54.34879041666666
          ],
          [
            -2.3298865333333332,
            54.34742206666666
          ],
          [
            -2.3289397333333333,
            54.346185200000001
          ],
          [
            -2.3282006833333333,
            54.34522213333333
          ],
          [
            -2.3275991,
            54.344175300000003
          ],
          [
            -2.3268810500000003,
            54.342965716666676
          ],
          [
            -2.3264955158734151,
            54.341724319503051
          ],
          [
            -2.3260247166666668,
            54.340609283333329
          ],
          [
            -2.3251185000000003,
            54.339665199999999
          ],
          [
            -2.3241765000000001,
            54.338906466666664
          ],
          [
            -2.3230845000000002,
            54.338034683333341
          ],
          [
            -2.3217376166666672,
            54.337067533333325
          ],
          [
            -2.3202985833333334,
            54.33605923333333
          ],
          [
            -2.3189891999999999,
            54.335168033333339
          ],
          [
            -2.3176356666666669,
            54.334239400000001
          ],
          [
            -2.31639485,
            54.333411566666669
          ],
          [
            -2.3151308999999998,
            54.332724750000004
          ],
          [
            -2.3139608333333332,
            54.332044266666657
          ],
          [
            -2.3132651666666666,
            54.331232550000003
          ],
          [
            -2.3128510000000002,
            54.330301833333337
          ],
          [
            -2.3130312757637435,
            54.329410895380839
          ],
          [
            -2.3117033833333336,
            54.328842766666675
          ],
          [
            -2.3095314666666669,
            54.328328733333336
          ],
          [
            -2.3070432166666666,
            54.328229266666661
          ],
          [
            -2.3045866166666666,
            54.327949466666659
          ],
          [
            -2.302270833333333,
            54.327643999999992
          ],
          [
            -2.2997768833333332,
            54.3273528
          ],
          [
            -2.297246533333333,
            54.327041533333336
          ],
          [
            -2.2948081999999999,
            54.326776716666672
          ],
          [
            -2.2922032166666666,
            54.326532799999995
          ],
          [
            -2.2897003833333334,
            54.3263003
          ],
          [
            -2.2870265833333336,
            54.326076683333334
          ],
          [
            -2.2844459499999998,
            54.325985400000008
          ],
          [
            -2.28197575,
            54.325954116666665
          ],
          [
            -2.2796778999999998,
            54.325851616666654
          ],
          [
            -2.2773772166666664,
            54.3257598
          ],
          [
            -2.2749880166666667,
            54.32570268333334
          ],
          [
            -2.2727967000000002,
            54.3253506
          ],
          [
            -2.2706936,
            54.325204083333333
          ],
          [
            -2.2687223333333333,
            54.325500233333329
          ],
          [
            -2.2667458333333332,
            54.325522516666659
          ],
          [
            -2.2667458333333332,
            54.325522516666659
          ],
          [
            -2.2648155500000002,
            54.325509233333335
          ],
          [
            -2.2628551833333335,
            54.325490933333334
          ],
          [
            -2.2606632499999999,
            54.325491599999999
          ],
          [
            -2.2580618000000001,
            54.325404133333329
          ],
          [
            -2.2557715166666665,
            54.32530641666667
          ],
          [
            -2.2533540333333333,
            54.325508300000003
          ],
          [
            -2.2509761000000004,
            54.32533205
          ],
          [
            -2.2489184333333334,
            54.325275166666671
          ],
          [
            -2.2466515166666667,
            54.324652616666661
          ],
          [
            -2.2446445666666666,
            54.324154216666663
          ],
          [
            -2.2425659499999999,
            54.323439716666655
          ],
          [
            -2.2407876999999998,
            54.322762033333326
          ],
          [
            -2.2390859666666665,
            54.321946283333332
          ],
          [
            -2.2375662333333333,
            54.321139383333332
          ],
          [
            -2.2364943485450324,
            54.320357586897053
          ],
          [
            -2.2353036771763692,
            54.319539465241135
          ],
          [
            -2.23330548062851,
            54.319422942759537
          ],
          [
            -2.2312707682587307,
            54.31886937551225
          ],
          [
            -2.2296432732636924,
            54.317963156871599
          ],
          [
            -2.2280098143902261,
            54.317142936259586
          ],
          [
            -2.2263270833333331,
            54.316534733333341
          ],
          [
            -2.2243998833333332,
            54.31621693333333
          ],
          [
            -2.2226564098531938,
            54.315689951755083
          ],
          [
            -2.2214023492406509,
            54.315124832516148
          ],
          [
            -2.2202609471743813,
            54.314406958736122
          ],
          [
            -2.2202600203261946,
            54.313500615952947
          ],
          [
            -2.2206748451402096,
            54.31254451148795
          ],
          [
            -2.220432516666667,
            54.311597266666666
          ],
          [
            -2.2188640500000001,
            54.311700166666668
          ],
          [
            -2.2173574666666669,
            54.311384833333342
          ],
          [
            -2.2160991333333331,
            54.310833216666666
          ],
          [
            -2.2146376666666669,
            54.31040685
          ],
          [
            -2.2128234,
            54.310084949999997
          ],
          [
            -2.211541972330834,
            54.30925935685849
          ],
          [
            -2.2101956697107381,
            54.308500587612023
          ],
          [
            -2.208993900630742,
            54.307823749628746
          ],
          [
            -2.207624563094194,
            54.307136857751829
          ],
          [
            -2.2068505203185391,
            54.306286657928432
          ],
          [
            -2.2058640531096598,
            54.305559865957214
          ],
          [
            -2.2042684062264861,
            54.305127965676064
          ],
          [
            -2.2033322601620324,
            54.304348452250025
          ],
          [
            -2.2017338808004041,
            54.304190590095516
          ],
          [
            -2.2001768666666668,
            54.304249499999997
          ],
          [
            -2.1986498200100399,
            54.304027340288933
          ],
          [
            -2.1970616725841863,
            54.303853397855391
          ],
          [
            -2.1955110166666665,
            54.303849083333333
          ],
          [
            -2.1939526000000003,
            54.303807999999997
          ],
          [
            -2.1923752486399963,
            54.303554732935389
          ],
          [
            -2.1908055847765664,
            54.303239712124359
          ],
          [
            -2.1891066666666665,
            54.302788183333334
          ],
          [
            -2.1874490499999997,
            54.302634766666671
          ],
          [
            -2.1857344333333333,
            54.302650499999991
          ],
          [
            -2.1840034344126145,
            54.302687891931704
          ],
          [
            -2.1823889971547037,
            54.302535807072921
          ],
          [
            -2.1835264216324846,
            54.301931402803547
          ],
          [
            -2.1848809999999999,
            54.301494950000006
          ],
          [
            -2.1861260803668139,
            54.300964159634809
          ],
          [
            -2.1851315613850089,
            54.301403292811599
          ],
          [
            -2.1836751333333333,
            54.301869066666661
          ],
          [
            -2.1828052166666665,
            54.3026749
          ],
          [
            -2.1848381333333333,
            54.302721416666657
          ],
          [
            -2.1864900666666665,
            54.3026889
          ],
          [
            -2.1881302666666667,
            54.302737949999994
          ],
          [
            -2.189731866666667,
            54.303016999999997
          ],
          [
            -2.1911860000000001,
            54.30342628333333
          ],
          [
            -2.1926831833333331,
            54.303700183333333
          ],
          [
            -2.1941588617983885,
            54.303966104453508
          ],
          [
            -2.195719603166844,
            54.304218414339744
          ],
          [
            -2.1972804000000004,
            54.304153166666673
          ],
          [
            -2.1995764082171982,
            54.304256874145494
          ],
          [
            -2.2003728833333329,
            54.304320699999998
          ],
          [
            -2.2020135080957659,
            54.304279918138029
          ],
          [
            -2.2035735500000002,
            54.304106450000006
          ],
          [
            -2.2049612331367521,
            54.303679982059101
          ],
          [
            -2.2064145262165691,
            54.303389038743283
          ],
          [
            -2.2082771622684079,
            54.303024275644795
          ],
          [
            -2.2097731,
            54.302734733333331
          ],
          [
            -2.2114914890152222,
            54.302525453616568
          ],
          [
            -2.213523533333333,
            54.302067766666667
          ],
          [
            -2.215287766666667,
            54.301514783333339
          ],
          [
            -2.2173661593231353,
            54.301274669608006
          ],
          [
            -2.219394725640838,
            54.301508125869091
          ],
          [
            -2.2217872511504542,
            54.301449231553349
          ],
          [
            -2.2242583499999999,
            54.301169799999997
          ],
          [
            -2.2263845333333334,
            54.300592716666678
          ],
          [
            -2.2286475502149345,
            54.300153625533994
          ],
          [
            -2.2307793951500168,
            54.299942403846707
          ],
          [
            -2.2331628266269807,
            54.299803535869302
          ],
          [
            -2.2353879333333335,
            54.299688766666669
          ],
          [
            -2.2373965833333331,
            54.29939803333334
          ],
          [
            -2.2390669666666669,
            54.29916736666668
          ],
          [
            -2.2406391845467701,
            54.298967811221047
          ],
          [
            -2.2422039974601744,
            54.298673480926041
          ],
          [
            -2.2437645666666666,
            54.297963549999999
          ],
          [
            -2.2451705,
            54.297050699999993
          ],
          [
            -2.2469477499999999,
            54.29638211666667
          ],
          [
            -2.2489946000000001,
            54.2956468
          ],
          [
            -2.2505534000000003,
            54.294757949999997
          ],
          [
            -2.2521375666666668,
            54.293864049999996
          ],
          [
            -2.2541665333333332,
            54.292954583333326
          ],
          [
            -2.2553625500000001,
            54.291812833333339
          ],
          [
            -2.2566196333333335,
            54.291105433333328
          ],
          [
            -2.2588443666666667,
            54.290884350000006
          ],
          [
            -2.2605579333333332,
            54.289727916666671
          ],
          [
            -2.2616473666666668,
            54.28867356666666
          ],
          [
            -2.2636188499999998,
            54.287936250000001
          ],
          [
            -2.2654787333333331,
            54.287073933333339
          ],
          [
            -2.2676201166666665,
            54.286140466666666
          ],
          [
            -2.2696434333333335,
            54.285194533333332
          ],
          [
            -2.2720406833333331,
            54.284170033333339
          ],
          [
            -2.2740119333333335,
            54.283126016666664
          ],
          [
            -2.2756857666666668,
            54.281992116666672
          ],
          [
            -2.2774878666666667,
            54.281086583333341
          ],
          [
            -2.2788672833333337,
            54.280190283333333
          ],
          [
            -2.28018375,
            54.279294433333341
          ],
          [
            -2.2816367333333329,
            54.278236849999999
          ],
          [
            -2.2823295666666668,
            54.276920950000012
          ],
          [
            -2.2838532754495819,
            54.275803002105334
          ],
          [
            -2.2855583224992264,
            54.274910795570378
          ],
          [
            -2.2874865292867437,
            54.273975934550606
          ],
          [
            -2.2891697166666662,
            54.272893450000005
          ],
          [
            -2.2904862333333331,
            54.271714183333337
          ],
          [
            -2.2915808973870044,
            54.270569382296571
          ],
          [
            -2.2933785499999995,
            54.269151683333327
          ],
          [
            -2.2949099333333334,
            54.267359133333336
          ],
          [
            -2.2964276833333335,
            54.265694699999997
          ],
          [
            -2.2978463499999999,
            54.263966583333328
          ],
          [
            -2.2997328833333333,
            54.262286999999993
          ],
          [
            -2.3018301999999999,
            54.260830366666674
          ],
          [
            -2.3034204666666671,
            54.259388333333327
          ],
          [
            -2.30494245,
            54.258127183333336
          ],
          [
            -2.306931206023592,
            54.256985179837194
          ],
          [
            -2.3088731999999998,
            54.255854100000008
          ],
          [
            -2.3117135666666662,
            54.255230100000006
          ],
          [
            -2.3135536166666668,
            54.254246100000003
          ],
          [
            -2.3149892833333334,
            54.25284478333333
          ],
          [
            -2.3162447999999998,
            54.251643066666674
          ],
          [
            -2.3164706833333333,
            54.250312900000004
          ],
          [
            -2.3163740833333333,
            54.248833683333338
          ],
          [
            -2.3161375166666667,
            54.247532450000001
          ],
          [
            -2.3161073999999999,
            54.246044200000007
          ],
          [
            -2.3163360333333336,
            54.244555949999992
          ],
          [
            -2.3158494666666662,
            54.243157699999998
          ],
          [
            -2.3160749166666665,
            54.241607083333342
          ],
          [
            -2.3157905666666663,
            54.240086716666667
          ],
          [
            -2.3155237,
            54.238551516666661
          ],
          [
            -2.3152957000000001,
            54.236987600000006
          ],
          [
            -2.3154401333333339,
            54.235567400000008
          ],
          [
            -2.3163360333333336,
            54.234255849999997
          ],
          [
            -2.3181039333333335,
            54.233251916666667
          ],
          [
            -2.3189712333333334,
            54.231845333333332
          ],
          [
            -2.3192473999999996,
            54.230426366666677
          ],
          [
            -2.320708516666667,
            54.229122133333341
          ],
          [
            -2.3223443333333336,
            54.227984083333332
          ],
          [
            -2.3235377666666666,
            54.226531866666662
          ],
          [
            -2.325009923463587,
            54.225200751406717
          ],
          [
            -2.3260938822727337,
            54.22423643269039
          ],
          [
            -2.3266075999999996,
            54.222911266666671
          ],
          [
            -2.3274643000000004,
            54.221424350000007
          ],
          [
            -2.3290534333333328,
            54.219987066666668
          ],
          [
            -2.3304989666666667,
            54.218687566666667
          ],
          [
            -2.3320266333333333,
            54.217779633333336
          ],
          [
            -2.3343190355394312,
            54.217429560035171
          ],
          [
            -2.3364000666666662,
            54.21675874999999
          ],
          [
            -2.3381762333333329,
            54.215703516666657
          ],
          [
            -2.3404950639804181,
            54.214876369175258
          ],
          [
            -2.3426425678881655,
            54.214106802730008
          ],
          [
            -2.3448445333333332,
            54.213202233333334
          ],
          [
            -2.3463406543867498,
            54.212923883750733
          ],
          [
            -2.3491375999999997,
            54.212429783333327
          ],
          [
            -2.3511994333333335,
            54.211819216666662
          ],
          [
            -2.3532339559863185,
            54.211159015695728
          ],
          [
            -2.355991001400854,
            54.210433137550091
          ],
          [
            -2.359042533673728,
            54.209546299424765
          ],
          [
            -2.3597007978811768,
            54.209205551616563
          ],
          [
            -2.3613968515872896,
            54.208879132098872
          ],
          [
            -2.3629217173177772,
            54.208756429903019
          ],
          [
            -2.3643929215664401,
            54.209014455632428
          ],
          [
            -2.36664329686521,
            54.209594206424711
          ],
          [
            -2.3699459536799745,
            54.21041733215354
          ],
          [
            -2.3666195380811614,
            54.20960602957684
          ],
          [
            -2.3653487056974472,
            54.209313958384783
          ],
          [
            -2.3641122559729637,
            54.208981663765158
          ],
          [
            -2.3610565997140549,
            54.208910069693069
          ],
          [
            -2.359291169812229,
            54.210275896683356
          ],
          [
            -2.3611021598741124,
            54.212683379690368
          ],
          [
            -2.3591154496134989,
            54.209707573487471
          ],
          [
            -2.3610193833333333,
            54.208460749999993
          ],
          [
            -2.3595691000000003,
            54.208093999999996
          ],
          [
            -2.3578784000000002,
            54.207876416666672
          ],
          [
            -2.3561644500000001,
            54.20726543333334
          ],
          [
            -2.3541376666666665,
            54.206732566666673
          ],
          [
            -2.3533315333333333,
            54.205713166666662
          ],
          [
            -2.3524221000000005,
            54.204868349999998
          ],
          [
            -2.3509644666666669,
            54.204190183333338
          ],
          [
            -2.3498008666666665,
            54.203126266666672
          ],
          [
            -2.3479403999999997,
            54.202385566666671
          ],
          [
            -2.3460755166666671,
            54.201602399999999
          ],
          [
            -2.3447490166666669,
            54.200515466666666
          ],
          [
            -2.3434457000000002,
            54.199516533333323
          ],
          [
            -2.3430007166666664,
            54.198285900000009
          ],
          [
            -2.3420102000000003,
            54.197207966666674
          ],
          [
            -2.3413502074121562,
            54.196278198306736
          ],
          [
            -2.3417840999999999,
            54.194938133333338
          ],
          [
            -2.3413556666666668,
            54.193426333333335
          ],
          [
            -2.3409419333333332,
            54.191931600000004
          ],
          [
            -2.3405435166666666,
            54.190489599999999
          ],
          [
            -2.3401518499999998,
            54.189353883333325
          ],
          [
            -2.3390030999999998,
            54.188257549999996
          ],
          [
            -2.3381368,
            54.187052683333327
          ],
          [
            -2.3375997500000003,
            54.185708783333325
          ],
          [
            -2.3370074166666668,
            54.184294683333341
          ],
          [
            -2.3364373666666669,
            54.182875549999999
          ],
          [
            -2.3358864333333336,
            54.181514
          ],
          [
            -2.3353921890281599,
            54.180203858883935
          ],
          [
            -2.3349025459478621,
            54.178976085187003
          ],
          [
            -2.3344117958853969,
            54.177930425627537
          ],
          [
            -2.3334323333333336,
            54.17715608333333
          ],
          [
            -2.3322626166666662,
            54.176511416666663
          ],
          [
            -2.3307036999999995,
            54.175650916666669
          ],
          [
            -2.3305018499999997,
            54.174993750000013
          ],
          [
            -2.3293734499999998,
            54.173842183333335
          ],
          [
            -2.3279298000000002,
            54.172768683333338
          ],
          [
            -2.3270032166666663,
            54.171866266666669
          ],
          [
            -2.3268038729038261,
            54.170890714448525
          ],
          [
            -2.3275520373818082,
            54.169785746052504
          ],
          [
            -2.3283725833333335,
            54.168712266666674
          ],
          [
            -2.3271029166666666,
            54.167606800000001
          ],
          [
            -2.3256094666666667,
            54.166602733333342
          ],
          [
            -2.3245970666666662,
            54.165281233333324
          ],
          [
            -2.323407766666667,
            54.164376283333333
          ],
          [
            -2.3216507666666666,
            54.163619066666662
          ],
          [
            -2.3204260333333333,
            54.162648833333336
          ],
          [
            -2.3184266999999998,
            54.162149950000007
          ],
          [
            -2.3165074666666663,
            54.16155083333333
          ],
          [
            -2.314693333333333,
            54.160787166666658
          ],
          [
            -2.3132277166666668,
            54.159694166666668
          ],
          [
            -2.3114052166666665,
            54.158878683333327
          ],
          [
            -2.3102129333333332,
            54.157799449999999
          ],
          [
            -2.308811692838733,
            54.15673683996026
          ],
          [
            -2.308016623988332,
            54.155580798350336
          ],
          [
            -2.3071988666666665,
            54.154601466666662
          ],
          [
            -2.3060123467730738,
            54.153799670342913
          ],
          [
            -2.3052176008196468,
            54.15302827077997
          ],
          [
            -2.3037288666666669,
            54.152317616666672
          ],
          [
            -2.3023226666666665,
            54.151349749999994
          ],
          [
            -2.3010712666666668,
            54.150154366666662
          ],
          [
            -2.3006283981211331,
            54.149413432400777
          ],
          [
            -2.298868216666667,
            54.149245066666658
          ],
          [
            -2.2973515833333336,
            54.149586249999992
          ],
          [
            -2.2958250166666665,
            54.149299466666662
          ],
          [
            -2.2952293999999998,
            54.148313549999997
          ],
          [
            -2.2941674999999995,
            54.147208633333335
          ],
          [
            -2.29349845,
            54.146139866666665
          ],
          [
            -2.2930636000000004,
            54.145082400000007
          ],
          [
            -2.292643916666667,
            54.144211449999993
          ],
          [
            -2.290583583333333,
            54.143981549999999
          ],
          [
            -2.2887729500000003,
            54.142720899999993
          ],
          [
            -2.2878595833333333,
            54.140961749999995
          ],
          [
            -2.2873570000000001,
            54.13915205
          ],
          [
            -2.2866981333333332,
            54.137508616666672
          ],
          [
            -2.2864582833333338,
            54.136030433333332
          ],
          [
            -2.2867201950984861,
            54.134643201776861
          ],
          [
            -2.287697566666667,
            54.133288300000004
          ],
          [
            -2.2885361048813824,
            54.131945054342566
          ],
          [
            -2.2883145586589837,
            54.130719791096034
          ],
          [
            -2.2884661231592811,
            54.129424483242303
          ],
          [
            -2.2881202284328626,
            54.128505218066472
          ],
          [
            -2.2872429927892277,
            54.127617744569861
          ],
          [
            -2.28779785,
            54.126574616666659
          ],
          [
            -2.2862394758943303,
            54.125654339580244
          ],
          [
            -2.2860155487293627,
            54.124332744235367
          ],
          [
            -2.2862719199495003,
            54.123420199999998
          ],
          [
            -2.2861406000000004,
            54.122484016666675
          ],
          [
            -2.2863886333333339,
            54.121530299999996
          ],
          [
            -2.2875154962300961,
            54.120872049431668
          ],
          [
            -2.2912051734280543,
            54.121591178079726
          ],
          [
            -2.2912251583778565,
            54.121478299297578
          ]
        ]
      },
      "type" : "Feature"
    }
  ]
}