{
  "type" : "FeatureCollection",
  "features" : [
    {
      "type" : "Feature",
      "properties" : {
        "departure" : "2026-05-14T10:43:39Z",
        "arrival" : "2026-05-13T15:32:03Z",
        "duration" : 69095.983559131622,
        "timestamp" : "2026-05-13T15:32:03Z",
        "rating" : 0,
        "address" : "Glendaruel Caravan Park, Glendaruel, Colintraive, PA22 3AB, Schottland",
        "device" : "B9E47AEB-E54C-4563-96B6-06995DD4BC56 (iPhone 16 Pro)",
        "weather" : "Überwiegend bewölkt (9,6 °C)",
        "type" : "visit",
        "source" : "Geory 5.3.2"
      },
      "geometry" : {
        "coordinates" : [
          -5.2110104482093353,
          56.033711176062837
        ],
        "type" : "Point"
      }
    },
    {
      "type" : "Feature",
      "geometry" : {
        "coordinates" : [
          -4.9809753907586867,
          56.026155956752397
        ],
        "type" : "Point"
      },
      "properties" : {
        "departure" : "2026-05-14T12:50:49Z",
        "device" : "B9E47AEB-E54C-4563-96B6-06995DD4BC56 (iPhone 16 Pro)",
        "timestamp" : "2026-05-14T11:22:05Z",
        "weather" : "Bedeckter Himmel (12,2 °C)",
        "address" : "Benmore All Abilities Trail, Benmore, Dunoon, PA23, Schottland",
        "arrival" : "2026-05-14T11:22:05Z",
        "rating" : 0,
        "source" : "Geory 5.3.2",
        "duration" : 5323.8408164978027,
        "type" : "visit"
      }
    },
    {
      "geometry" : {
        "type" : "Point",
        "coordinates" : [
          -4.9896871930396793,
          56.022332420514921
        ]
      },
      "properties" : {
        "departure" : "2026-05-14T13:30:21Z",
        "rating" : 0,
        "type" : "visit",
        "arrival" : "2026-05-14T13:06:39Z",
        "timestamp" : "2026-05-14T13:06:39Z",
        "device" : "B9E47AEB-E54C-4563-96B6-06995DD4BC56 (iPhone 16 Pro)",
        "source" : "Geory 5.3.2",
        "address" : "Benmore Botanic Garden, Dunoon, PA23, Schottland",
        "duration" : 1421.9691014289856,
        "weather" : "Überwiegend bewölkt (12,9 °C)"
      },
      "type" : "Feature"
    },
    {
      "type" : "Feature",
      "geometry" : {
        "type" : "Point",
        "coordinates" : [
          -4.9959964647655015,
          56.024385238735995
        ]
      },
      "properties" : {
        "arrival" : "2026-05-14T13:30:22Z",
        "device" : "B9E47AEB-E54C-4563-96B6-06995DD4BC56 (iPhone 16 Pro)",
        "address" : "Benmore Botanic Garden, Dunoon, PA23, Schottland",
        "departure" : "2026-05-14T15:10:38Z",
        "type" : "visit",
        "duration" : 6015.4846341609955,
        "timestamp" : "2026-05-14T13:30:22Z",
        "rating" : 0,
        "weather" : "Leichter Regen (12,8 °C)",
        "source" : "Geory 5.3.2"
      }
    },
    {
      "type" : "Feature",
      "properties" : {
        "weather" : "Bedeckter Himmel (12,9 °C)",
        "device" : "B9E47AEB-E54C-4563-96B6-06995DD4BC56 (iPhone 16 Pro)",
        "departure" : "2026-05-15T10:33:11Z",
        "address" : "Nursery Cottage, Benmore, Dunoon, PA23 8QU, Schottland",
        "duration" : 67086.999829053879,
        "rating" : 0,
        "source" : "Geory 5.3.2",
        "timestamp" : "2026-05-14T15:55:04Z",
        "type" : "visit",
        "arrival" : "2026-05-14T15:55:04Z"
      },
      "geometry" : {
        "coordinates" : [
          -4.9749087285744187,
          56.016304907242393
        ],
        "type" : "Point"
      }
    },
    {
      "geometry" : {
        "type" : "LineString",
        "coordinates" : [
          [
            -4.9749087285744187,
            56.016304907242393
          ],
          [
            -4.9765270836257676,
            56.016970099775918
          ],
          [
            -4.9774676539710994,
            56.01847687338757
          ],
          [
            -4.9780170529436818,
            56.019358814552632
          ],
          [
            -4.9789012006547635,
            56.020804091600951
          ],
          [
            -4.9797819513514883,
            56.022463271732015
          ],
          [
            -4.9810249650023515,
            56.02665758471759
          ],
          [
            -4.9868918558630035,
            56.028385610041163
          ],
          [
            -4.9906790692741065,
            56.026910916796147
          ],
          [
            -4.9906790692741065,
            56.026910916796147
          ],
          [
            -4.990677738461172,
            56.026911469096724
          ],
          [
            -4.990677738461172,
            56.026911469096724
          ],
          [
            -4.991720123084729,
            56.026932966471556
          ],
          [
            -4.992580760044568,
            56.026056046718253
          ],
          [
            -4.9959964647655015,
            56.024385238735995
          ],
          [
            -4.9896871930396793,
            56.022332420514921
          ],
          [
            -4.9879544466791632,
            56.025411830347956
          ],
          [
            -4.9879544466791632,
            56.025411830347956
          ],
          [
            -4.9869253177678754,
            56.025773570051236
          ],
          [
            -4.9858061855765019,
            56.026423390231727
          ],
          [
            -4.9857196048865253,
            56.026344121942408
          ],
          [
            -4.9857196048865253,
            56.026344121942408
          ],
          [
            -4.9809753907586867,
            56.026155956752397
          ],
          [
            -4.981279945103763,
            56.026052492347652
          ],
          [
            -4.9807673973122606,
            56.024630048761189
          ],
          [
            -4.9800061630111854,
            56.022843077130609
          ],
          [
            -4.9791026389600495,
            56.021078746390039
          ],
          [
            -4.97832805,
            56.019629833333326
          ],
          [
            -4.9773142166666657,
            56.018054249999992
          ],
          [
            -4.9763909000000011,
            56.016593499999999
          ],
          [
            -4.9761394333333335,
            56.015023633333335
          ],
          [
            -4.975242884268094,
            56.013350430320131
          ],
          [
            -4.974881016666667,
            56.012179233333335
          ],
          [
            -4.9747719166666666,
            56.011715083333335
          ],
          [
            -4.973873093250738,
            56.010242372584912
          ],
          [
            -4.9710548144897446,
            56.009372085888401
          ],
          [
            -4.9679166972135622,
            56.008924181891864
          ],
          [
            -4.9652602000000003,
            56.008305549999996
          ],
          [
            -4.9634721563626485,
            56.007213047512352
          ],
          [
            -4.9627205799754037,
            56.005730481824067
          ],
          [
            -4.9635133833333338,
            56.004381899999998
          ],
          [
            -4.965908849999999,
            56.003874633333332
          ],
          [
            -4.9687967166666658,
            56.003753366666658
          ],
          [
            -4.9714020166666675,
            56.003065583333331
          ],
          [
            -4.9734679166666664,
            56.002188416666662
          ],
          [
            -4.974029766666666,
            56.000937499999992
          ],
          [
            -4.9735416666666667,
            55.999498916666667
          ],
          [
            -4.9726788500000003,
            55.998038899999997
          ],
          [
            -4.9727516854286922,
            55.996785835295327
          ],
          [
            -4.9730794155223208,
            55.995841406460336
          ],
          [
            -4.9753392576277751,
            55.995562106751471
          ],
          [
            -4.9777044606199281,
            55.995313767370384
          ],
          [
            -4.9798735643281011,
            55.99460536312268
          ],
          [
            -4.9817135909743575,
            55.994024854815414
          ],
          [
            -4.9837667266010994,
            55.993801425338319
          ],
          [
            -4.9858868149397528,
            55.993490632751566
          ],
          [
            -4.9882383558388792,
            55.992914921909218
          ],
          [
            -4.9904912600030036,
            55.992124662649296
          ],
          [
            -4.992056150701691,
            55.991171936144944
          ],
          [
            -4.9930337007328331,
            55.99013631554481
          ],
          [
            -4.9940463054702686,
            55.989284433326098
          ],
          [
            -4.996110792649791,
            55.988890159333344
          ],
          [
            -4.9973021864182412,
            55.989037275288588
          ],
          [
            -4.9998071774260628,
            55.989459563383903
          ],
          [
            -5.0021935992253743,
            55.989907991407605
          ],
          [
            -5.0047227082783463,
            55.990280890260138
          ],
          [
            -5.0068910566698319,
            55.990420800359431
          ],
          [
            -5.0090992553305362,
            55.990065616697663
          ],
          [
            -5.0111252302705509,
            55.989821781297103
          ],
          [
            -5.0128230500000006,
            55.989898699999998
          ],
          [
            -5.0145489742035574,
            55.989651009197026
          ],
          [
            -5.0161215990156203,
            55.989333967248918
          ],
          [
            -5.0176630552637835,
            55.989648594422086
          ],
          [
            -5.0192844982658009,
            55.9900062123453
          ],
          [
            -5.0213974708009701,
            55.990119383577323
          ],
          [
            -5.0235432142005099,
            55.990126302844693
          ],
          [
            -5.0255983859123354,
            55.990185832591209
          ],
          [
            -5.0279841075392708,
            55.990295813685066
          ],
          [
            -5.030224444975758,
            55.990301445515009
          ],
          [
            -5.0322741438597962,
            55.990460787999957
          ],
          [
            -5.0341285286773685,
            55.991172178412469
          ],
          [
            -5.0355803737851357,
            55.991744795274464
          ],
          [
            -5.0371158605834996,
            55.992246965581792
          ],
          [
            -5.0387342504788055,
            55.992626963598951
          ],
          [
            -5.0402537166666672,
            55.992917083333339
          ],
          [
            -5.0417417499999999,
            55.99367371666667
          ],
          [
            -5.044018799999999,
            55.994027716666672
          ],
          [
            -5.0458198666666663,
            55.994301783333334
          ],
          [
            -5.0474369499999998,
            55.994915549999995
          ],
          [
            -5.0495591666666666,
            55.995664616666666
          ],
          [
            -5.0513614000000002,
            55.996291516666666
          ],
          [
            -5.0529823798445364,
            55.99689842673461
          ],
          [
            -5.0548192333333333,
            55.997874349999996
          ],
          [
            -5.0566604166666673,
            55.998881116666674
          ],
          [
            -5.0582765333333333,
            55.999736933333331
          ],
          [
            -5.0597565833333338,
            56.000664266666668
          ],
          [
            -5.0612409333333339,
            56.001699250000001
          ],
          [
            -5.0627902833333334,
            56.002639233333333
          ],
          [
            -5.0645692333333328,
            56.003467533333328
          ],
          [
            -5.0663166666666664,
            56.004248899999993
          ],
          [
            -5.068363027752584,
            56.004977798830325
          ],
          [
            -5.0704932634213655,
            56.005744923949159
          ],
          [
            -5.0721267741310516,
            56.006677664598065
          ],
          [
            -5.0740683646253295,
            56.007264574526431
          ],
          [
            -5.076282281287722,
            56.007456873167726
          ],
          [
            -5.0786862466317517,
            56.007464302445882
          ],
          [
            -5.0812132281559803,
            56.007214200283165
          ],
          [
            -5.0835609481783512,
            56.006625398378674
          ],
          [
            -5.0858156101708847,
            56.006009449050303
          ],
          [
            -5.0878030091008419,
            56.005465167233517
          ],
          [
            -5.0898382468221195,
            56.004898469514544
          ],
          [
            -5.0916357956876777,
            56.004259044061705
          ],
          [
            -5.0930303984595637,
            56.003534229075328
          ],
          [
            -5.0944027166666661,
            56.002596783333331
          ],
          [
            -5.096220183333334,
            56.001689849999998
          ],
          [
            -5.0971258333333331,
            56.001325116666671
          ],
          [
            -5.0993325166666663,
            56.00073785
          ],
          [
            -5.1016405666666671,
            56.000792550000007
          ],
          [
            -5.1040969308357758,
            56.000601350095174
          ],
          [
            -5.10630411322078,
            56.0000290275132
          ],
          [
            -5.1083274348462959,
            55.999670796964445
          ],
          [
            -5.1099919280956136,
            55.999519515902932
          ],
          [
            -5.11170005194088,
            55.999576468496819
          ],
          [
            -5.1133306209371376,
            55.999806479677545
          ],
          [
            -5.1150625467549071,
            55.99995136651269
          ],
          [
            -5.1161619859797076,
            56.00067520117463
          ],
          [
            -5.1169862472318375,
            56.001623749893959
          ],
          [
            -5.1172805833333337,
            56.002558900000004
          ],
          [
            -5.1179116094015678,
            56.003398200925965
          ],
          [
            -5.1184485666666673,
            56.004583083333337
          ],
          [
            -5.119078833333333,
            56.005649750000003
          ],
          [
            -5.1199187833333335,
            56.006816016666669
          ],
          [
            -5.1194662333333341,
            56.008132199999999
          ],
          [
            -5.1190592333333331,
            56.009422883333343
          ],
          [
            -5.1195088666666662,
            56.010609966666671
          ],
          [
            -5.1208496502255487,
            56.011406590102077
          ],
          [
            -5.1228361666666657,
            56.011512416666662
          ],
          [
            -5.1245198620202945,
            56.010825703940355
          ],
          [
            -5.1257161016846462,
            56.009796257853239
          ],
          [
            -5.1266163572203585,
            56.008647446196932
          ],
          [
            -5.1272733100583814,
            56.007476810209624
          ],
          [
            -5.1277882923776161,
            56.006543504441659
          ],
          [
            -5.1286506813220063,
            56.005693915961189
          ],
          [
            -5.129531285894763,
            56.004924958750237
          ],
          [
            -5.1296856333751757,
            56.004027123543629
          ],
          [
            -5.1302481771371484,
            56.003168493649653
          ],
          [
            -5.1306035219719792,
            56.001800473843531
          ],
          [
            -5.1308087169715408,
            56.000898734082647
          ],
          [
            -5.1310435813709887,
            55.999936600895516
          ],
          [
            -5.1314290553210151,
            55.998780831738529
          ],
          [
            -5.1315353882314509,
            55.997390106020106
          ],
          [
            -5.1323403666666669,
            55.996502283333328
          ],
          [
            -5.1329157333333333,
            55.995631999999993
          ],
          [
            -5.1335914988264504,
            55.994804425387265
          ],
          [
            -5.1343103967693162,
            55.993997536541222
          ],
          [
            -5.1354885017094976,
            55.993305004845958
          ],
          [
            -5.1369071333333327,
            55.992435250000007
          ],
          [
            -5.1380575166666667,
            55.991713200000007
          ],
          [
            -5.1395491,
            55.991324266666666
          ],
          [
            -5.141813,
            55.991168350000002
          ],
          [
            -5.1438962333333338,
            55.991085133333335
          ],
          [
            -5.1458588333333335,
            55.991017466666669
          ],
          [
            -5.1479817666666658,
            55.991354133333338
          ],
          [
            -5.1501711166666668,
            55.990869466666659
          ],
          [
            -5.1520659666666671,
            55.989950883333329
          ],
          [
            -5.1537175833333331,
            55.989156000000001
          ],
          [
            -5.1553645000000001,
            55.988416916666665
          ],
          [
            -5.1575190666666666,
            55.988103399999993
          ],
          [
            -5.1595344166666663,
            55.988062066666664
          ],
          [
            -5.1612622666666663,
            55.988029716666674
          ],
          [
            -5.1633684166666667,
            55.988006599999999
          ],
          [
            -5.1653819499999996,
            55.988071116666667
          ],
          [
            -5.1676378833333336,
            55.988040783333325
          ],
          [
            -5.1702692000000008,
            55.987852433333337
          ],
          [
            -5.1726424321935047,
            55.987403744362787
          ],
          [
            -5.175088033333334,
            55.987495966666664
          ],
          [
            -5.1772329209516643,
            55.987610798293026
          ],
          [
            -5.1788398495466055,
            55.987714563300756
          ],
          [
            -5.1809124166666667,
            55.988323350000009
          ],
          [
            -5.1826550166666667,
            55.989168900000003
          ],
          [
            -5.1851625000000006,
            55.990045166666668
          ],
          [
            -5.1877450833333336,
            55.990631883333329
          ],
          [
            -5.1901817098590355,
            55.990999917142545
          ],
          [
            -5.1927253063848111,
            55.991686980674245
          ],
          [
            -5.1950939988247162,
            55.992572214662246
          ],
          [
            -5.1979014166666655,
            55.992971676378801
          ],
          [
            -5.19967728800638,
            55.99299815040122
          ],
          [
            -5.2006692032144999,
            55.993057378831267
          ],
          [
            -5.2032116300308697,
            55.993574510807314
          ],
          [
            -5.2052998099318737,
            55.994716698688066
          ],
          [
            -5.2060478783764745,
            55.99640783187391
          ],
          [
            -5.2077324072611928,
            55.997758413634784
          ],
          [
            -5.2103779856637251,
            55.998305173250166
          ],
          [
            -5.2128487962809986,
            55.998767394148466
          ],
          [
            -5.2145086351656431,
            55.999886079527926
          ],
          [
            -5.2148020577981065,
            56.001293820861449
          ],
          [
            -5.2145423536662303,
            56.002692024383464
          ],
          [
            -5.2141304152435097,
            56.004216629351774
          ],
          [
            -5.2137181886213959,
            56.005753897010344
          ],
          [
            -5.2133201766300168,
            56.007221356950232
          ],
          [
            -5.2129348424856339,
            56.008758732070987
          ],
          [
            -5.212802474876356,
            56.010327065863784
          ],
          [
            -5.2128628331135589,
            56.011945381844882
          ],
          [
            -5.2128951850643475,
            56.013451308899725
          ],
          [
            -5.2123021394975027,
            56.014900038692844
          ],
          [
            -5.2106948416615104,
            56.016763873905319
          ],
          [
            -5.2089859166666672,
            56.018727850000005
          ],
          [
            -5.2079877852458161,
            56.020255739322145
          ],
          [
            -5.2070900390814687,
            56.021653883187454
          ],
          [
            -5.2058390333333326,
            56.023683349999992
          ],
          [
            -5.2058502883130453,
            56.025705916553996
          ],
          [
            -5.2053554565536064,
            56.02749160610076
          ],
          [
            -5.2049956382093328,
            56.028921132967049
          ],
          [
            -5.2048711702772987,
            56.030294793315136
          ],
          [
            -5.2048436922594137,
            56.030775175136739
          ],
          [
            -5.204744121959985,
            56.031610546460854
          ],
          [
            -5.2063258233824827,
            56.031812656002259
          ],
          [
            -5.2110104482093353,
            56.033711176062837
          ]
        ]
      },
      "type" : "Feature",
      "properties" : {
        "end" : "2026-05-14T21:59:59Z",
        "device" : "B9E47AEB-E54C-4563-96B6-06995DD4BC56 (iPhone 16 Pro)",
        "type" : "route",
        "start" : "2026-05-13T22:00:00Z",
        "source" : "Geory 5.3.2"
      }
    }
  ]
}