{
  "type" : "FeatureCollection",
  "features" : [
    {
      "geometry" : {
        "coordinates" : [
          -3.3589422541794014,
          59.024832457669739
        ],
        "type" : "Point"
      },
      "properties" : {
        "departure" : "2026-09-24T09:20:41Z",
        "rating" : 0,
        "source" : "Geory 5.3.2",
        "arrival" : "2026-09-23T18:55:07Z",
        "device" : "B9E47AEB-E54C-4563-96B6-06995DD4BC56 (iPhone 16 Pro)",
        "timestamp" : "2026-09-23T18:55:07Z",
        "address" : "Yesnaby Road, Sandwick, Stromness, KW16, Schottland",
        "duration" : 51933.52948307991,
        "weather" : "Leicht bewölkt (10,5 °C)",
        "type" : "visit"
      },
      "type" : "Feature"
    },
    {
      "properties" : {
        "source" : "Geory 5.3.2",
        "arrival" : "2026-09-24T09:33:38Z",
        "rating" : 0,
        "timestamp" : "2026-09-24T09:33:38Z",
        "duration" : 2311.5859048366547,
        "weather" : "Bedeckter Himmel (11,9 °C)",
        "type" : "visit",
        "device" : "B9E47AEB-E54C-4563-96B6-06995DD4BC56 (iPhone 16 Pro)",
        "departure" : "2026-09-24T10:12:09Z",
        "address" : "Stromness, KW16, Schottland"
      },
      "type" : "Feature",
      "geometry" : {
        "type" : "Point",
        "coordinates" : [
          -3.3623165161834421,
          59.021295558716098
        ]
      }
    },
    {
      "geometry" : {
        "type" : "Point",
        "coordinates" : [
          -3.3586559583280593,
          59.024785604979904
        ]
      },
      "properties" : {
        "arrival" : "2026-09-24T10:20:24Z",
        "type" : "visit",
        "duration" : 903.86773610115051,
        "address" : "Yesnaby Road, Sandwick, Stromness, KW16, Schottland",
        "departure" : "2026-09-24T10:35:27Z",
        "timestamp" : "2026-09-24T10:20:24Z",
        "rating" : 0,
        "source" : "Geory 5.3.2",
        "device" : "B9E47AEB-E54C-4563-96B6-06995DD4BC56 (iPhone 16 Pro)"
      },
      "type" : "Feature"
    },
    {
      "properties" : {
        "device" : "B9E47AEB-E54C-4563-96B6-06995DD4BC56 (iPhone 16 Pro)",
        "type" : "visit",
        "weather" : "Bedeckter Himmel (12,5 °C)",
        "source" : "Geory 5.3.2",
        "departure" : "2026-09-24T12:19:53Z",
        "arrival" : "2026-09-24T11:39:02Z",
        "address" : "Mainland, Orkney Islands, Schottland",
        "rating" : 0,
        "timestamp" : "2026-09-24T11:39:02Z",
        "duration" : 2451.6302108764648
      },
      "type" : "Feature",
      "geometry" : {
        "type" : "Point",
        "coordinates" : [
          -3.1834548634137585,
          58.917971741165175
        ]
      }
    },
    {
      "type" : "Feature",
      "geometry" : {
        "type" : "Point",
        "coordinates" : [
          -3.3854691621930018,
          58.873319683130703
        ]
      },
      "properties" : {
        "departure" : "2026-09-24T15:10:24Z",
        "duration" : 6200.9739909172058,
        "rating" : 0,
        "timestamp" : "2026-09-24T13:27:03Z",
        "arrival" : "2026-09-24T13:27:03Z",
        "weather" : "Leichter Regen (12,2 °C)",
        "source" : "Geory 5.3.2",
        "device" : "B9E47AEB-E54C-4563-96B6-06995DD4BC56 (iPhone 16 Pro)",
        "address" : "Hoy, Orkney Islands, Schottland",
        "type" : "visit"
      }
    },
    {
      "properties" : {
        "departure" : "2026-09-24T15:28:47Z",
        "address" : "Hoy, Orkney Islands, Schottland",
        "weather" : "Leichter Regen (13,3 °C)",
        "source" : "Geory 5.3.2",
        "arrival" : "2026-09-24T15:10:27Z",
        "type" : "visit",
        "duration" : 1100.0975868701935,
        "timestamp" : "2026-09-24T15:10:27Z",
        "rating" : 0,
        "device" : "B9E47AEB-E54C-4563-96B6-06995DD4BC56 (iPhone 16 Pro)"
      },
      "type" : "Feature",
      "geometry" : {
        "type" : "Point",
        "coordinates" : [
          -3.3841958604595943,
          58.870481749238721
        ]
      }
    },
    {
      "type" : "Feature",
      "geometry" : {
        "coordinates" : [
          -3.3803039730964728,
          58.867909916536014
        ],
        "type" : "Point"
      },
      "properties" : {
        "address" : "Hoy, Orkney Islands, Schottland",
        "type" : "visit",
        "timestamp" : "2026-09-24T15:41:06Z",
        "weather" : "Bedeckter Himmel (12,8 °C)",
        "duration" : 1137.3311557769775,
        "rating" : 0,
        "source" : "Geory 5.3.2",
        "device" : "B9E47AEB-E54C-4563-96B6-06995DD4BC56 (iPhone 16 Pro)",
        "arrival" : "2026-09-24T15:41:06Z",
        "departure" : "2026-09-24T16:00:03Z"
      }
    },
    {
      "type" : "Feature",
      "properties" : {
        "weather" : "Bedeckter Himmel (12,6 °C)",
        "address" : "Hoy, Orkney Islands, Schottland",
        "timestamp" : "2026-09-24T16:11:13Z",
        "type" : "visit",
        "arrival" : "2026-09-24T16:11:13Z",
        "rating" : 0,
        "device" : "B9E47AEB-E54C-4563-96B6-06995DD4BC56 (iPhone 16 Pro)",
        "departure" : "2026-09-25T11:03:05Z",
        "source" : "Geory 5.3.2",
        "duration" : 67912.004314661026
      },
      "geometry" : {
        "type" : "Point",
        "coordinates" : [
          -3.3854763196766013,
          58.873314542205861
        ]
      }
    },
    {
      "properties" : {
        "device" : "B9E47AEB-E54C-4563-96B6-06995DD4BC56 (iPhone 16 Pro)",
        "type" : "route",
        "start" : "2026-09-23T23:00:00Z",
        "end" : "2026-09-24T22:59:59Z",
        "source" : "Geory 5.3.2"
      },
      "type" : "Feature",
      "geometry" : {
        "type" : "LineString",
        "coordinates" : [
          [
            -3.3854763196766013,
            58.873314542205861
          ],
          [
            -3.3844563080374912,
            58.870982120315489
          ],
          [
            -3.383240638559613,
            58.869735281249177
          ],
          [
            -3.3803039730964728,
            58.867909916536014
          ],
          [
            -3.3841958604595943,
            58.870481749238721
          ],
          [
            -3.3854691621930018,
            58.873319683130703
          ],
          [
            -3.386145317562014,
            58.876711666293367
          ],
          [
            -3.3860368624304558,
            58.877441880466201
          ],
          [
            -3.3860143259433628,
            58.87836817484601
          ],
          [
            -3.3860855717265461,
            58.87928535448016
          ],
          [
            -3.3856771999999995,
            58.880165066666663
          ],
          [
            -3.3839151166666661,
            58.880350216666663
          ],
          [
            -3.382554883333333,
            58.880921249999993
          ],
          [
            -3.3814005166666665,
            58.881597183333326
          ],
          [
            -3.3800073218953535,
            58.88221062728941
          ],
          [
            -3.3781646166666675,
            58.882260966666671
          ],
          [
            -3.3765017166666667,
            58.881991066666664
          ],
          [
            -3.374711266666667,
            58.881709066666666
          ],
          [
            -3.3729046666666664,
            58.8815144
          ],
          [
            -3.3711045166666671,
            58.881509800000003
          ],
          [
            -3.3693171333333329,
            58.88155884999999
          ],
          [
            -3.3673556166666665,
            58.881615750000009
          ],
          [
            -3.3654836333333331,
            58.881667116666662
          ],
          [
            -3.3637158999999994,
            58.881712
          ],
          [
            -3.3618794499999995,
            58.881861066666673
          ],
          [
            -3.3599487333333333,
            58.881994716666668
          ],
          [
            -3.358061016666666,
            58.882005383333343
          ],
          [
            -3.3561128666666673,
            58.882057383333326
          ],
          [
            -3.3542607666666666,
            58.881963933333324
          ],
          [
            -3.3525005166666668,
            58.881821216666673
          ],
          [
            -3.3507003666666662,
            58.881678783333335
          ],
          [
            -3.348965497124484,
            58.881358818877779
          ],
          [
            -3.3471740431040451,
            58.88140476725173
          ],
          [
            -3.3454614488107683,
            58.881586628426739
          ],
          [
            -3.3437028160064766,
            58.881932368992963
          ],
          [
            -3.3418007529715772,
            58.88239090186687
          ],
          [
            -3.3400829999999999,
            58.882712966666666
          ],
          [
            -3.33857275,
            58.883315916666668
          ],
          [
            -3.3369754769117863,
            58.883773418444704
          ],
          [
            -3.3350355230741662,
            58.884097145327267
          ],
          [
            -3.3333294499514401,
            58.88453808958554
          ],
          [
            -3.3320224500000006,
            58.885233416666672
          ],
          [
            -3.3307440000000001,
            58.885860433333335
          ],
          [
            -3.3290816166666661,
            58.886261550000008
          ],
          [
            -3.3273772333333334,
            58.88647855
          ],
          [
            -3.3254935666666663,
            58.886720566666661
          ],
          [
            -3.3237610833333333,
            58.886941366666662
          ],
          [
            -3.321900496342185,
            58.887183566562655
          ],
          [
            -3.3200954469236441,
            58.887414861402277
          ],
          [
            -3.3183812783842268,
            58.887800739893933
          ],
          [
            -3.3170111807282674,
            58.888354392670848
          ],
          [
            -3.3159373337281064,
            58.889073837466661
          ],
          [
            -3.3153136833333328,
            58.889950900000002
          ],
          [
            -3.3149418499999999,
            58.890849416666669
          ],
          [
            -3.31462155,
            58.891782349999993
          ],
          [
            -3.3144312833333331,
            58.892719116666662
          ],
          [
            -3.3143725990810187,
            58.893676802601163
          ],
          [
            -3.3143725990810187,
            58.893676802601163
          ],
          [
            -3.3143063817927918,
            58.894600287291674
          ],
          [
            -3.3143359928963481,
            58.895524234403808
          ],
          [
            -3.3144064666666671,
            58.896436266666662
          ],
          [
            -3.3145057833333329,
            58.897347116666666
          ],
          [
            -3.3146016999999999,
            58.898248950000003
          ],
          [
            -3.314693866666667,
            58.899185549999991
          ],
          [
            -3.3150981666666666,
            58.900066533333337
          ],
          [
            -3.3155232666666667,
            58.900959266666661
          ],
          [
            -3.3159817833333332,
            58.901922566666656
          ],
          [
            -3.3163617942509918,
            58.902914773948993
          ],
          [
            -3.3167547843252723,
            58.903886114942189
          ],
          [
            -3.316788193534753,
            58.904783827365556
          ],
          [
            -3.3154466,
            58.905508183333325
          ],
          [
            -3.3139592166666669,
            58.904763683333343
          ],
          [
            -3.3121523333333331,
            58.904541516666669
          ],
          [
            -3.309999083333333,
            58.904694416666672
          ],
          [
            -3.3080242999999991,
            58.904117116666676
          ],
          [
            -3.3061771166666665,
            58.903350183333337
          ],
          [
            -3.3044730532315518,
            58.902881723172989
          ],
          [
            -3.3024311049988846,
            58.903192206918874
          ],
          [
            -3.300236616666667,
            58.903037533333325
          ],
          [
            -3.2990469333333334,
            58.902830783333336
          ],
          [
            -3.298046583333333,
            58.902654733333335
          ],
          [
            -3.2957228500000002,
            58.902250049999999
          ],
          [
            -3.2935690500000003,
            58.901880749999997
          ],
          [
            -3.2916033499999999,
            58.901362283333341
          ],
          [
            -3.2897440228663952,
            58.900873307053985
          ],
          [
            -3.2875919000000002,
            58.900829350000002
          ],
          [
            -3.2854383833333336,
            58.90043956666667
          ],
          [
            -3.2831431666666666,
            58.900107016666666
          ],
          [
            -3.2808384166666666,
            58.899927083333331
          ],
          [
            -3.2787815333333334,
            58.899999566666672
          ],
          [
            -3.2766944666666666,
            58.900045092362255
          ],
          [
            -3.2749774199158859,
            58.899827674860632
          ],
          [
            -3.2741316833333332,
            58.898879900000004
          ],
          [
            -3.2736519166666662,
            58.897818599999994
          ],
          [
            -3.273202466666667,
            58.896821666666661
          ],
          [
            -3.2719000833333332,
            58.895937233333342
          ],
          [
            -3.2701473499999998,
            58.895090933333336
          ],
          [
            -3.2685335000000002,
            58.894392199999992
          ],
          [
            -3.2666963666666669,
            58.894004250000009
          ],
          [
            -3.2647153333333336,
            58.893444833333326
          ],
          [
            -3.2630953500000004,
            58.892768099999998
          ],
          [
            -3.2614178666666662,
            58.891807866666674
          ],
          [
            -3.2594613333333333,
            58.890992366666666
          ],
          [
            -3.257669766666667,
            58.890269116666673
          ],
          [
            -3.2562280833333337,
            58.889677749999997
          ],
          [
            -3.2548607833333336,
            58.888891366666662
          ],
          [
            -3.2535637166666667,
            58.887981199999992
          ],
          [
            -3.2524867333333334,
            58.887142283333333
          ],
          [
            -3.2514995666666664,
            58.8863682
          ],
          [
            -3.2504888333333337,
            58.885563500000004
          ],
          [
            -3.2497736166666669,
            58.884676000000006
          ],
          [
            -3.2491823999999996,
            58.883745049999995
          ],
          [
            -3.2488841333333331,
            58.88274941666667
          ],
          [
            -3.2485473000000002,
            58.881862333333331
          ],
          [
            -3.2478668666666666,
            58.881022783333343
          ],
          [
            -3.2484806833333333,
            58.879982433333332
          ],
          [
            -3.248377183333333,
            58.878876333333338
          ],
          [
            -3.2472343833333333,
            58.87788428333333
          ],
          [
            -3.246899,
            58.876730299999991
          ],
          [
            -3.2468213666666665,
            58.87570745
          ],
          [
            -3.2454949333333332,
            58.875088099999992
          ],
          [
            -3.2439175500000004,
            58.8745197
          ],
          [
            -3.2420791666666662,
            58.873890016666671
          ],
          [
            -3.2401723333333337,
            58.873240299999999
          ],
          [
            -3.2381465333333335,
            58.872546349999993
          ],
          [
            -3.2360068000000002,
            58.871813350000004
          ],
          [
            -3.2340501999999995,
            58.871152083333328
          ],
          [
            -3.2324955333333332,
            58.870629666666673
          ],
          [
            -3.2319179920645991,
            58.869756662908827
          ],
          [
            -3.2312757833333339,
            58.868903233333342
          ],
          [
            -3.229578566666667,
            58.868556199999993
          ],
          [
            -3.2277408999999997,
            58.868282333333333
          ],
          [
            -3.2258532166666667,
            58.868005549999999
          ],
          [
            -3.2240199666666665,
            58.867738249999995
          ],
          [
            -3.2222143000000001,
            58.867491016666655
          ],
          [
            -3.2211840833333336,
            58.86730523333334
          ],
          [
            -3.2205380999999997,
            58.86696761666667
          ],
          [
            -3.219716556508851,
            58.866148107248712
          ],
          [
            -3.2204870864723101,
            58.865119296577021
          ],
          [
            -3.2213992422455382,
            58.863972576543901
          ],
          [
            -3.2222854028619006,
            58.862837711497754
          ],
          [
            -3.2231557962087769,
            58.8618044249272
          ],
          [
            -3.2241923823111032,
            58.860889595312393
          ],
          [
            -3.2254973896519403,
            58.860168932286037
          ],
          [
            -3.2265330166666661,
            58.859431333333333
          ],
          [
            -3.2244080166666662,
            58.858991266666671
          ],
          [
            -3.2217888833333337,
            58.858806850000008
          ],
          [
            -3.2194818499999998,
            58.858640016666669
          ],
          [
            -3.2174820500000001,
            58.858372233333334
          ],
          [
            -3.2157210833333334,
            58.857596266666661
          ],
          [
            -3.2142902499999999,
            58.856787133333341
          ],
          [
            -3.2128734666666667,
            58.855968200000007
          ],
          [
            -3.2114173833333335,
            58.85496113333334
          ],
          [
            -3.2100647166666669,
            58.854316749999995
          ],
          [
            -3.2083725333333328,
            58.853681250000001
          ],
          [
            -3.2068559166666666,
            58.853187466666668
          ],
          [
            -3.2047348764792516,
            58.852947878449683
          ],
          [
            -3.2037062473145199,
            58.852022769771601
          ],
          [
            -3.2041329515670713,
            58.850922399718925
          ],
          [
            -3.2045737000000005,
            58.84971126666666
          ],
          [
            -3.2050577210359079,
            58.848558225544586
          ],
          [
            -3.2054014666666673,
            58.847578916666663
          ],
          [
            -3.2065912333333331,
            58.846337866666659
          ],
          [
            -3.2078150999999999,
            58.845609916666668
          ],
          [
            -3.2093866000000002,
            58.844671216666669
          ],
          [
            -3.2108399690179117,
            58.843780816711707
          ],
          [
            -3.2120904166666659,
            58.842796916666671
          ],
          [
            -3.2137400999999999,
            58.841874416666663
          ],
          [
            -3.2154886166666672,
            58.841000100000002
          ],
          [
            -3.2167775166666659,
            58.839945266666668
          ],
          [
            -3.2167903500000001,
            58.838916449999999
          ],
          [
            -3.215741833333333,
            58.837599583333336
          ],
          [
            -3.214717433333333,
            58.836307833333329
          ],
          [
            -3.2137851333333334,
            58.835099450000001
          ],
          [
            -3.212884233333333,
            58.834282933333334
          ],
          [
            -3.21068,
            58.833931533333335
          ],
          [
            -3.2086454500000001,
            58.833627466666663
          ],
          [
            -3.2069756000000003,
            58.833325733333339
          ],
          [
            -3.2067025999999998,
            58.832398566666669
          ],
          [
            -3.2058698151136875,
            58.831397737965844
          ],
          [
            -3.2041777500000004,
            58.831159799999988
          ],
          [
            -3.2018983209633376,
            58.831304517878976
          ],
          [
            -3.1998638887529531,
            58.83154455351216
          ],
          [
            -3.1977048666866836,
            58.83173443179377
          ],
          [
            -3.1949274333333335,
            58.83238313333333
          ],
          [
            -3.195040683333334,
            58.833198633333332
          ],
          [
            -3.193572818107882,
            58.833687231423752
          ],
          [
            -3.1918437929616865,
            58.833529340737059
          ],
          [
            -3.190084863490894,
            58.833514856534613
          ],
          [
            -3.1890183700842658,
            58.834228821734143
          ],
          [
            -3.1885606851351347,
            58.83510682737105
          ],
          [
            -3.1882266889619273,
            58.835990930688631
          ],
          [
            -3.187929313950089,
            58.836893743875059
          ],
          [
            -3.1877714849430645,
            58.837828215893069
          ],
          [
            -3.1875320988424529,
            58.841863435984273
          ],
          [
            -3.1875679983554082,
            58.844099529894457
          ],
          [
            -3.187358067482148,
            58.848441725125546
          ],
          [
            -3.1867508052662834,
            58.850453380740475
          ],
          [
            -3.1857012616188034,
            58.852457721538009
          ],
          [
            -3.1848830131480868,
            58.854560357509619
          ],
          [
            -3.1843567335239187,
            58.856584156313588
          ],
          [
            -3.1836275912530203,
            58.858837417757769
          ],
          [
            -3.1834956965895986,
            58.861205836316678
          ],
          [
            -3.1834239053667988,
            58.865037923605215
          ],
          [
            -3.1834768695575208,
            58.867198368252282
          ],
          [
            -3.1831170624265397,
            58.869244051610579
          ],
          [
            -3.1829917340180076,
            58.871253147566307
          ],
          [
            -3.1831168786795039,
            58.872966376571888
          ],
          [
            -3.1832761896695714,
            58.875028491125853
          ],
          [
            -3.1834309028018692,
            58.877098906586646
          ],
          [
            -3.1835147325696358,
            58.879241265504298
          ],
          [
            -3.183765275220372,
            58.881302749124572
          ],
          [
            -3.1840612627848874,
            58.883466957482291
          ],
          [
            -3.1840090694038197,
            58.885502778850231
          ],
          [
            -3.1843396294299939,
            58.887667380061444
          ],
          [
            -3.1839057571015754,
            58.889694697885147
          ],
          [
            -3.183447415386885,
            58.891799344514681
          ],
          [
            -3.1825118149337719,
            58.893707945720379
          ],
          [
            -3.1809085269794637,
            58.895695440839852
          ],
          [
            -3.1799831201385875,
            58.897687514905599
          ],
          [
            -3.1786844223337956,
            58.899636520776028
          ],
          [
            -3.1784821107092114,
            58.901822485240793
          ],
          [
            -3.1783025484372058,
            58.903999510614824
          ],
          [
            -3.178344701024391,
            58.906138716767252
          ],
          [
            -3.179023177327962,
            58.908198495895746
          ],
          [
            -3.1811376267041438,
            58.910030690840607
          ],
          [
            -3.1822563546002276,
            58.910746026325448
          ],
          [
            -3.1822563546002276,
            58.910746026325448
          ],
          [
            -3.1841004888696518,
            58.91173385533321
          ],
          [
            -3.1834548634137585,
            58.917971741165175
          ],
          [
            -3.1817447833333334,
            58.919755350000003
          ],
          [
            -3.1836656666666667,
            58.920386300000004
          ],
          [
            -3.1856487499999995,
            58.920870550000004
          ],
          [
            -3.1877728333333333,
            58.920938300000003
          ],
          [
            -3.1899899999999999,
            58.920792833333344
          ],
          [
            -3.19211125,
            58.921047133333332
          ],
          [
            -3.1943855166666668,
            58.921057100000013
          ],
          [
            -3.1961442522938577,
            58.920891108506794
          ],
          [
            -3.1977096166666668,
            58.922054216666659
          ],
          [
            -3.1985192333333337,
            58.923562933333336
          ],
          [
            -3.1994992500000006,
            58.925111000000001
          ],
          [
            -3.2007189,
            58.926499466666669
          ],
          [
            -3.2024131970987155,
            58.927889031400092
          ],
          [
            -3.2045501999999999,
            58.929088
          ],
          [
            -3.2064466166666667,
            58.930181566666668
          ],
          [
            -3.2080506333333338,
            58.931642949999997
          ],
          [
            -3.2093605833333338,
            58.933200066666664
          ],
          [
            -3.2106239666666667,
            58.934691733333331
          ],
          [
            -3.2118530333333335,
            58.936131899999999
          ],
          [
            -3.2129918725318469,
            58.937497223439259
          ],
          [
            -3.213138966666667,
            58.938950699999999
          ],
          [
            -3.2137064,
            58.940548883333328
          ],
          [
            -3.2148930833333331,
            58.941927700000001
          ],
          [
            -3.2148371666666664,
            58.943445900000007
          ],
          [
            -3.2144972500000004,
            58.944932250000001
          ],
          [
            -3.2147746833333333,
            58.946595300000006
          ],
          [
            -3.215664966666667,
            58.948228566666664
          ],
          [
            -3.2165174333333328,
            58.949795250000001
          ],
          [
            -3.2174650666666671,
            58.951522883333332
          ],
          [
            -3.2184115833333333,
            58.95328991666667
          ],
          [
            -3.2192172999999999,
            58.954825066666672
          ],
          [
            -3.2200953833333328,
            58.956541850000001
          ],
          [
            -3.2209090500000004,
            58.958082633333333
          ],
          [
            -3.2217022666666666,
            58.959508749999998
          ],
          [
            -3.2225867833333335,
            58.96108259999999
          ],
          [
            -3.223482066666667,
            58.962553199999995
          ],
          [
            -3.2243811000000004,
            58.963995516666664
          ],
          [
            -3.2252415166666673,
            58.965366799999991
          ],
          [
            -3.2260962833333342,
            58.966724350000007
          ],
          [
            -3.227641516666667,
            58.968114050000004
          ],
          [
            -3.2294049666666664,
            58.969073866666669
          ],
          [
            -3.2316901833333334,
            58.97009203333333
          ],
          [
            -3.2341310999999999,
            58.971176200000002
          ],
          [
            -3.2366006999999994,
            58.972261700000011
          ],
          [
            -3.2384605833333331,
            58.973232883333338
          ],
          [
            -3.2388271333333338,
            58.973640083333336
          ],
          [
            -3.2398363999999997,
            58.974784533333327
          ],
          [
            -3.2412292499999995,
            58.976343783333334
          ],
          [
            -3.2425157833333333,
            58.977778766666667
          ],
          [
            -3.243746733333333,
            58.979143283333329
          ],
          [
            -3.2448670333333332,
            58.980401133333331
          ],
          [
            -3.2458677000000002,
            58.981534766666663
          ],
          [
            -3.2468415500000001,
            58.982661700000001
          ],
          [
            -3.2479587000000003,
            58.983437183333336
          ],
          [
            -3.2502877333333333,
            58.982846233333341
          ],
          [
            -3.2527073666666668,
            58.982260949999997
          ],
          [
            -3.2556137666666665,
            58.982361366666666
          ],
          [
            -3.2577582439511388,
            58.982742691149923
          ],
          [
            -3.2595063389900867,
            58.982723805753082
          ],
          [
            -3.2615185258538149,
            58.981573671542819
          ],
          [
            -3.2630049401674417,
            58.980638559919221
          ],
          [
            -3.2646702426552778,
            58.979415230112508
          ],
          [
            -3.267368768522473,
            58.978486615596346
          ],
          [
            -3.2701397609230187,
            58.977528852771378
          ],
          [
            -3.2721481977670077,
            58.976365701824591
          ],
          [
            -3.2740079229095183,
            58.975279853368114
          ],
          [
            -3.2759151694183926,
            58.974289406600732
          ],
          [
            -3.2783639098993249,
            58.973378406563441
          ],
          [
            -3.2805781543581549,
            58.972551335013847
          ],
          [
            -3.2826376507415977,
            58.971781439319578
          ],
          [
            -3.2846983120080204,
            58.97129322632118
          ],
          [
            -3.2867033109765895,
            58.970959093194011
          ],
          [
            -3.2883324429554293,
            58.970510079042882
          ],
          [
            -3.2898541575560198,
            58.9699456896737
          ],
          [
            -3.2913438476124264,
            58.969420777267828
          ],
          [
            -3.2927929271786698,
            58.968897927336847
          ],
          [
            -3.2937646975131201,
            58.9681490555515
          ],
          [
            -3.2942483914553709,
            58.9672258239925
          ],
          [
            -3.2951952145318661,
            58.966055610298696
          ],
          [
            -3.2986168501668005,
            58.962831228240844
          ],
          [
            -3.2965330333333336,
            58.964301666666678
          ],
          [
            -3.2957684666666669,
            58.965202166666664
          ],
          [
            -3.2951263000000002,
            58.966063749999996
          ],
          [
            -3.2947770333333333,
            58.966484733333331
          ],
          [
            -3.294409583333334,
            58.966914133333333
          ],
          [
            -3.293871283333333,
            58.96777023333334
          ],
          [
            -3.2944288666666668,
            58.968644300000008
          ],
          [
            -3.2949348714664146,
            58.967724595199407
          ],
          [
            -3.295426824175379,
            58.966779838210897
          ],
          [
            -3.2962440629433765,
            58.965920455492267
          ],
          [
            -3.2974367066710419,
            58.965213526471835
          ],
          [
            -3.2991132730424866,
            58.964822378711439
          ],
          [
            -3.3004660890509023,
            58.964166519372412
          ],
          [
            -3.3017437261989517,
            58.963524556549601
          ],
          [
            -3.3025164534747069,
            58.962666186290384
          ],
          [
            -3.3036037833333336,
            58.961945233333331
          ],
          [
            -3.3040494430758023,
            58.96099982067652
          ],
          [
            -3.3042652936974442,
            58.960102667066209
          ],
          [
            -3.3051920500000005,
            58.959312266666664
          ],
          [
            -3.3051304072258132,
            58.958410894399513
          ],
          [
            -3.3044598935529126,
            58.957532174897231
          ],
          [
            -3.303462051528272,
            58.956736080332348
          ],
          [
            -3.3022207651079243,
            58.956105499197221
          ],
          [
            -3.3022207651079243,
            58.956105499197221
          ],
          [
            -3.3018293737182356,
            58.955200474000016
          ],
          [
            -3.3015083666666669,
            58.95431396666666
          ],
          [
            -3.2991541166666667,
            58.953747283333328
          ],
          [
            -3.2958975333333336,
            58.952626633333331
          ],
          [
            -3.2974058000000004,
            58.953106200000008
          ],
          [
            -3.2989119166666665,
            58.953627366666659
          ],
          [
            -3.3006772833333335,
            58.953765733333334
          ],
          [
            -3.3015441945328963,
            58.954549900139646
          ],
          [
            -3.3018457483596602,
            58.95549059110386
          ],
          [
            -3.3029969000000001,
            58.956555849999994
          ],
          [
            -3.3038469000000004,
            58.956997416666674
          ],
          [
            -3.3046503833333332,
            58.957821633333339
          ],
          [
            -3.3052571525623238,
            58.958709583788988
          ],
          [
            -3.3046999392858187,
            58.959623855077716
          ],
          [
            -3.3040649500000003,
            58.960484516666668
          ],
          [
            -3.3043369904156199,
            58.961425212395596
          ],
          [
            -3.3033461666666661,
            58.962211399999994
          ],
          [
            -3.3022628666666662,
            58.962993900000008
          ],
          [
            -3.301279276319649,
            58.96374927102196
          ],
          [
            -3.2999163475526085,
            58.964409849438738
          ],
          [
            -3.2983038635062654,
            58.964854665560274
          ],
          [
            -3.296881555320534,
            58.965404424296871
          ],
          [
            -3.2958999666666671,
            58.966154716666672
          ],
          [
            -3.2952162166666663,
            58.96704785
          ],
          [
            -3.2946886833333338,
            58.967962100000001
          ],
          [
            -3.2935742000000006,
            58.968711399999997
          ],
          [
            -3.2937073999999993,
            58.969792850000005
          ],
          [
            -3.2930574166666662,
            58.970938016666665
          ],
          [
            -3.2918566166666663,
            58.972044283333332
          ],
          [
            -3.2901061999999999,
            58.972874433333331
          ],
          [
            -3.2888820166666664,
            58.974166016666672
          ],
          [
            -3.2883570999999998,
            58.975384349999999
          ],
          [
            -3.2877380166666668,
            58.976797566666662
          ],
          [
            -3.2871460333333333,
            58.978050766666669
          ],
          [
            -3.2878843999999998,
            58.979236099999994
          ],
          [
            -3.2901222962281529,
            58.980283711002109
          ],
          [
            -3.2907129166666662,
            58.981976666666668
          ],
          [
            -3.2905764166666671,
            58.983809783333328
          ],
          [
            -3.2904407833333336,
            58.985431699999999
          ],
          [
            -3.2902903666666665,
            58.987188249999996
          ],
          [
            -3.2901291833333333,
            58.988872966666669
          ],
          [
            -3.2900100499999998,
            58.990629916666663
          ],
          [
            -3.2907187166666669,
            58.992134083333333
          ],
          [
            -3.2918076666666667,
            58.99369995
          ],
          [
            -3.2929447166666663,
            58.995160199999994
          ],
          [
            -3.2927245499999995,
            58.996512933333328
          ],
          [
            -3.2900443455423565,
            58.997703352992609
          ],
          [
            -3.2873672643221852,
            58.998908403245586
          ],
          [
            -3.2850647170118812,
            58.999955508978061
          ],
          [
            -3.2846194166666662,
            59.00147978333333
          ],
          [
            -3.2863132333333329,
            59.002875449999991
          ],
          [
            -3.2881443833333335,
            59.004373633333337
          ],
          [
            -3.289737216666667,
            59.005732350000002
          ],
          [
            -3.2915799166666666,
            59.00729535
          ],
          [
            -3.2934893499999998,
            59.00879423333334
          ],
          [
            -3.2952496833333336,
            59.010206449999998
          ],
          [
            -3.2974277500000002,
            59.011501099999997
          ],
          [
            -3.298996516666667,
            59.012238466666666
          ],
          [
            -3.2999009500000001,
            59.012656966666661
          ],
          [
            -3.3019257499999997,
            59.013718333333323
          ],
          [
            -3.3033862666666662,
            59.015034399999998
          ],
          [
            -3.3050787833333333,
            59.016027699999995
          ],
          [
            -3.306686216666666,
            59.016504766666671
          ],
          [
            -3.3089925213548073,
            59.017001502202405
          ],
          [
            -3.3111497538975736,
            59.017689545193015
          ],
          [
            -3.3121551655759323,
            59.018502235450597
          ],
          [
            -3.3140410500000002,
            59.01824078333334
          ],
          [
            -3.315885133333333,
            59.018019666666667
          ],
          [
            -3.317897283333334,
            59.017750916666671
          ],
          [
            -3.3200924500000002,
            59.017480366666668
          ],
          [
            -3.3224200500000007,
            59.017195616666676
          ],
          [
            -3.3246641833333332,
            59.016937949999992
          ],
          [
            -3.32693335,
            59.01692163333334
          ],
          [
            -3.3288699789719716,
            59.01719928047973
          ],
          [
            -3.3310049389771383,
            59.017920884181223
          ],
          [
            -3.3329046166666663,
            59.01856513333334
          ],
          [
            -3.335037966666667,
            59.019149883333327
          ],
          [
            -3.3370863781387845,
            59.019756170180408
          ],
          [
            -3.3390534256810627,
            59.020325055828565
          ],
          [
            -3.3411728978570752,
            59.020920244276475
          ],
          [
            -3.3431119204688482,
            59.021427608043709
          ],
          [
            -3.3450387234485537,
            59.021936784184881
          ],
          [
            -3.3466140546475143,
            59.022386489164575
          ],
          [
            -3.3482609399510417,
            59.022842494314212
          ],
          [
            -3.3505679969523237,
            59.023581769568224
          ],
          [
            -3.3513725227720386,
            59.02385368733475
          ],
          [
            -3.3586559583280593,
            59.024785604979904
          ],
          [
            -3.3586336844773581,
            59.023889235505493
          ],
          [
            -3.3623165161834421,
            59.021295558716098
          ],
          [
            -3.3609026177482373,
            59.021340376701545
          ],
          [
            -3.3596454208611251,
            59.020713636842707
          ],
          [
            -3.3578174239599092,
            59.021054926924009
          ],
          [
            -3.3568965600089493,
            59.021913699416992
          ],
          [
            -3.3587985174334465,
            59.022421677911098
          ],
          [
            -3.3587985174334465,
            59.022421677911098
          ],
          [
            -3.3587985174334465,
            59.022421677911098
          ],
          [
            -3.357696128581563,
            59.022970172604857
          ],
          [
            -3.3589422541794014,
            59.024832457669739
          ]
        ]
      }
    }
  ]
}