{
  "type" : "FeatureCollection",
  "features" : [
    {
      "properties" : {
        "device" : "B9E47AEB-E54C-4563-96B6-06995DD4BC56 (iPhone 16 Pro)",
        "address" : "Tarbert, PA29, Schottland",
        "timestamp" : "2026-05-15T19:30:09Z",
        "weather" : "Klarer Himmel (8,4 °C)",
        "type" : "visit",
        "departure" : "2026-05-16T08:40:53Z",
        "rating" : 0,
        "duration" : 47443.999419927597,
        "arrival" : "2026-05-15T19:30:09Z",
        "source" : "Geory 5.3.2"
      },
      "geometry" : {
        "coordinates" : [
          -5.7090279233951566,
          55.556724935783905
        ],
        "type" : "Point"
      },
      "type" : "Feature"
    },
    {
      "properties" : {
        "type" : "visit",
        "source" : "Geory 5.3.2",
        "rating" : 0,
        "duration" : 6331.9997546672821,
        "device" : "B9E47AEB-E54C-4563-96B6-06995DD4BC56 (iPhone 16 Pro)",
        "arrival" : "2026-05-16T09:04:09Z",
        "address" : "Glenbarr Mission Hall, Glenbarr, Tarbert, PA29 6UT, Schottland",
        "timestamp" : "2026-05-16T09:04:09Z",
        "weather" : "Bedeckter Himmel (9,1 °C)",
        "departure" : "2026-05-16T10:49:41Z"
      },
      "geometry" : {
        "type" : "Point",
        "coordinates" : [
          -5.6967151201083448,
          55.565826552805454
        ]
      },
      "type" : "Feature"
    },
    {
      "properties" : {
        "arrival" : "2026-05-16T11:16:44Z",
        "departure" : "2026-05-16T18:51:42Z",
        "timestamp" : "2026-05-16T11:16:44Z",
        "address" : "Tarbert, PA29, Schottland",
        "duration" : 27298.000372409821,
        "type" : "visit",
        "rating" : 0,
        "weather" : "Leichter Regen (8,1 °C)",
        "source" : "Geory 5.3.2",
        "device" : "B9E47AEB-E54C-4563-96B6-06995DD4BC56 (iPhone 16 Pro)"
      },
      "type" : "Feature",
      "geometry" : {
        "type" : "Point",
        "coordinates" : [
          -5.7090420133416746,
          55.556699122539044
        ]
      }
    },
    {
      "type" : "Feature",
      "properties" : {
        "arrival" : "2026-05-16T18:58:24Z",
        "weather" : "Aufgelockert bewölkt (9,4 °C)",
        "address" : "Campbeltown, PA28, Schottland",
        "device" : "B9E47AEB-E54C-4563-96B6-06995DD4BC56 (iPhone 16 Pro)",
        "timestamp" : "2026-05-16T18:58:24Z",
        "rating" : 0,
        "source" : "Geory 5.3.2",
        "type" : "visit",
        "duration" : 1164.0000042915344,
        "departure" : "2026-05-16T19:17:48Z"
      },
      "geometry" : {
        "coordinates" : [
          -5.7070838353654043,
          55.551173237850769
        ],
        "type" : "Point"
      }
    },
    {
      "type" : "Feature",
      "geometry" : {
        "type" : "Point",
        "coordinates" : [
          -5.7090587158410111,
          55.556711620290294
        ]
      },
      "properties" : {
        "arrival" : "2026-05-16T19:29:08Z",
        "source" : "Geory 5.3.2",
        "departure" : "2026-05-17T11:10:04Z",
        "timestamp" : "2026-05-16T19:29:08Z",
        "device" : "B9E47AEB-E54C-4563-96B6-06995DD4BC56 (iPhone 16 Pro)",
        "weather" : "Überwiegend bewölkt (9,3 °C)",
        "duration" : 56455.005766868591,
        "address" : "Tarbert, PA29, Schottland",
        "type" : "visit",
        "rating" : 0
      }
    },
    {
      "type" : "Feature",
      "geometry" : {
        "coordinates" : [
          -5.7091161115448186,
          55.556833017988957
        ],
        "type" : "Point"
      },
      "properties" : {
        "address" : "Tarbert, PA29, Schottland",
        "source" : "Geory 5.3.2",
        "weather" : "Aufgelockert bewölkt (9,5 °C)",
        "device" : "B9E47AEB-E54C-4563-96B6-06995DD4BC56 (iPhone 16 Pro)",
        "arrival" : "2026-05-17T11:10:13Z",
        "rating" : 0,
        "duration" : 2738.0000982284546,
        "departure" : "2026-05-17T11:55:51Z",
        "type" : "visit",
        "timestamp" : "2026-05-17T11:10:13Z"
      }
    },
    {
      "type" : "Feature",
      "geometry" : {
        "type" : "Point",
        "coordinates" : [
          -5.7072167873023707,
          55.552772231369879
        ]
      },
      "properties" : {
        "device" : "B9E47AEB-E54C-4563-96B6-06995DD4BC56 (iPhone 16 Pro)",
        "duration" : 1327.0005073547363,
        "arrival" : "2026-05-17T11:55:52Z",
        "timestamp" : "2026-05-17T11:55:52Z",
        "departure" : "2026-05-17T12:18:00Z",
        "address" : "Innerer Seebereich vor der Westküste Schottlands, Schottland",
        "rating" : 0,
        "source" : "Geory 5.3.2",
        "type" : "visit",
        "weather" : "Aufgelockert bewölkt (9,7 °C)"
      }
    },
    {
      "type" : "Feature",
      "properties" : {
        "type" : "visit",
        "source" : "Geory 5.3.2",
        "arrival" : "2026-05-17T12:22:01Z",
        "device" : "B9E47AEB-E54C-4563-96B6-06995DD4BC56 (iPhone 16 Pro)",
        "address" : "Tarbert, PA29, Schottland",
        "duration" : 26325.999593734741,
        "weather" : "Aufgelockert bewölkt (9,7 °C)",
        "timestamp" : "2026-05-17T12:22:01Z",
        "departure" : "2026-05-17T19:40:47Z",
        "rating" : 0
      },
      "geometry" : {
        "type" : "Point",
        "coordinates" : [
          -5.7089726063560491,
          55.55644838512459
        ]
      }
    },
    {
      "properties" : {
        "arrival" : "2026-05-17T19:40:48Z",
        "timestamp" : "2026-05-17T19:40:48Z",
        "address" : "Tarbert, PA29, Schottland",
        "departure" : "2026-05-17T20:56:01Z",
        "weather" : "Aufgelockert bewölkt (10,0 °C)",
        "rating" : 0,
        "device" : "B9E47AEB-E54C-4563-96B6-06995DD4BC56 (iPhone 16 Pro)",
        "type" : "visit",
        "duration" : 4512.7926256656647,
        "source" : "Geory 5.3.2"
      },
      "type" : "Feature",
      "geometry" : {
        "type" : "Point",
        "coordinates" : [
          -5.7110840492453168,
          55.558982740335672
        ]
      }
    },
    {
      "type" : "Feature",
      "geometry" : {
        "coordinates" : [
          -5.70903581166524,
          55.556720566331308
        ],
        "type" : "Point"
      },
      "properties" : {
        "source" : "Geory 5.3.2",
        "duration" : 49618.000035524368,
        "device" : "B9E47AEB-E54C-4563-96B6-06995DD4BC56 (iPhone 16 Pro)",
        "rating" : 0,
        "timestamp" : "2026-05-17T20:59:23Z",
        "weather" : "Bedeckter Himmel (7,7 °C)",
        "arrival" : "2026-05-17T20:59:23Z",
        "address" : "Tarbert, PA29, Schottland",
        "type" : "visit",
        "departure" : "2026-05-18T10:46:21Z"
      }
    },
    {
      "type" : "Feature",
      "properties" : {
        "weather" : "Leicht bewölkt (10,0 °C)",
        "device" : "B9E47AEB-E54C-4563-96B6-06995DD4BC56 (iPhone 16 Pro)",
        "type" : "visit",
        "timestamp" : "2026-05-18T11:14:58Z",
        "source" : "Geory 5.3.2",
        "departure" : "2026-05-18T15:36:51Z",
        "duration" : 15712.999594926834,
        "arrival" : "2026-05-18T11:14:58Z",
        "address" : "Tarbert, PA29, Schottland",
        "rating" : 0
      },
      "geometry" : {
        "type" : "Point",
        "coordinates" : [
          -5.7090268924621874,
          55.556694416201552
        ]
      }
    },
    {
      "type" : "Feature",
      "geometry" : {
        "coordinates" : [
          -5.7090467520815551,
          55.55669636430671
        ],
        "type" : "Point"
      },
      "properties" : {
        "source" : "Geory 5.3.2",
        "device" : "B9E47AEB-E54C-4563-96B6-06995DD4BC56 (iPhone 16 Pro)",
        "type" : "visit",
        "weather" : "Leicht bewölkt (13,0 °C)",
        "departure" : "2026-05-18T18:39:19Z",
        "duration" : 9566.9994776248932,
        "rating" : 0,
        "address" : "Tarbert, PA29, Schottland",
        "timestamp" : "2026-05-18T15:59:53Z",
        "arrival" : "2026-05-18T15:59:53Z"
      }
    },
    {
      "type" : "Feature",
      "geometry" : {
        "coordinates" : [
          -5.7090483859047154,
          55.556752548821272
        ],
        "type" : "Point"
      },
      "properties" : {
        "departure" : "2026-05-19T10:07:13Z",
        "arrival" : "2026-05-18T18:39:20Z",
        "duration" : 55672.298957824707,
        "address" : "Tarbert, PA29, Schottland",
        "type" : "visit",
        "rating" : 0,
        "source" : "Geory 5.3.2",
        "device" : "B9E47AEB-E54C-4563-96B6-06995DD4BC56 (iPhone 16 Pro)",
        "weather" : "Bedeckter Himmel (10,4 °C)",
        "timestamp" : "2026-05-18T18:39:20Z"
      }
    },
    {
      "type" : "Feature",
      "properties" : {
        "start" : "2026-05-15T22:00:00Z",
        "source" : "Geory 5.3.2",
        "device" : "B9E47AEB-E54C-4563-96B6-06995DD4BC56 (iPhone 16 Pro)",
        "type" : "route",
        "end" : "2026-05-18T21:59:59Z"
      },
      "geometry" : {
        "type" : "LineString",
        "coordinates" : [
          [
            -5.7090483859047154,
            55.556752548821272
          ],
          [
            -5.7090467520815551,
            55.55669636430671
          ],
          [
            -5.7085168098999137,
            55.555989561989399
          ],
          [
            -5.7083392347763535,
            55.555095570022424
          ],
          [
            -5.7076654155115021,
            55.554277481703345
          ],
          [
            -5.7069827470330923,
            55.55301815423261
          ],
          [
            -5.7068996288205431,
            55.551955392336531
          ],
          [
            -5.7069608807994019,
            55.55285664053806
          ],
          [
            -5.7073158840318383,
            55.553741402251127
          ],
          [
            -5.7081174628339779,
            55.554942705360745
          ],
          [
            -5.7090268924621874,
            55.556694416201552
          ],
          [
            -5.7084805717987246,
            55.555293297338991
          ],
          [
            -5.7079038396177255,
            55.554450371979989
          ],
          [
            -5.7073661627996142,
            55.553603574257288
          ],
          [
            -5.7069380762745157,
            55.552729787460486
          ],
          [
            -5.7070307131572005,
            55.551826907437977
          ],
          [
            -5.7070245648841649,
            55.550934338769856
          ],
          [
            -5.7069824020793822,
            55.55164312288607
          ],
          [
            -5.70686637953321,
            55.552387801145223
          ],
          [
            -5.7074525382284467,
            55.553765435421674
          ],
          [
            -5.7078945987145691,
            55.554464226188195
          ],
          [
            -5.7086388406937756,
            55.555263282067571
          ],
          [
            -5.7092982406094022,
            55.55658568678902
          ],
          [
            -5.710070556142238,
            55.558312726821761
          ],
          [
            -5.70903581166524,
            55.556720566331308
          ],
          [
            -5.7110840492453168,
            55.558982740335672
          ],
          [
            -5.709941085070815,
            55.558253955632317
          ],
          [
            -5.7089726063560491,
            55.55644838512459
          ],
          [
            -5.7090030587056821,
            55.556693134824073
          ],
          [
            -5.7084591587010012,
            55.555848929839712
          ],
          [
            -5.7072167873023707,
            55.552772231369879
          ],
          [
            -5.7091161115448186,
            55.556833017988957
          ],
          [
            -5.7090587158410111,
            55.556711620290294
          ],
          [
            -5.7085371451589948,
            55.55605072375139
          ],
          [
            -5.7082872399674498,
            55.554746289069108
          ],
          [
            -5.7082993897029661,
            55.554707759240138
          ],
          [
            -5.7076792910578869,
            55.553936389786706
          ],
          [
            -5.7070838353654043,
            55.551173237850769
          ],
          [
            -5.7069611240349349,
            55.551981560495292
          ],
          [
            -5.7071469277363995,
            55.552882464463408
          ],
          [
            -5.7075670092283248,
            55.553750698275564
          ],
          [
            -5.7085338332696036,
            55.555007774314198
          ],
          [
            -5.7090420133416746,
            55.556699122539044
          ],
          [
            -5.7069960134408184,
            55.556128367117616
          ],
          [
            -5.7071142817956781,
            55.556820572062051
          ],
          [
            -5.7074970052918816,
            55.55781257672885
          ],
          [
            -5.7076607838005673,
            55.558719852266037
          ],
          [
            -5.7075882776971207,
            55.559622687103108
          ],
          [
            -5.7060536876841708,
            55.559881278073256
          ],
          [
            -5.7045667217273115,
            55.560408370543172
          ],
          [
            -5.7033526698004264,
            55.560869803620321
          ],
          [
            -5.7021693490397833,
            55.561486752605873
          ],
          [
            -5.7012239251660919,
            55.56221951740261
          ],
          [
            -5.7002603324014345,
            55.562937798634884
          ],
          [
            -5.6994408864065171,
            55.563722222468641
          ],
          [
            -5.6967151201083448,
            55.565826552805454
          ],
          [
            -5.6999245050141143,
            55.56312746344706
          ],
          [
            -5.7009006901492514,
            55.562414008568766
          ],
          [
            -5.7018624285130759,
            55.561682772475258
          ],
          [
            -5.7029257559123012,
            55.561002490127976
          ],
          [
            -5.7045548709479306,
            55.560402931295023
          ],
          [
            -5.7056225175962343,
            55.560000031805188
          ],
          [
            -5.7076441596810161,
            55.558863753319244
          ],
          [
            -5.7072072407649124,
            55.557055434797554
          ],
          [
            -5.7068836713252331,
            55.556174331518946
          ],
          [
            -5.7083485606925946,
            55.555802727418168
          ],
          [
            -5.7090811653786115,
            55.557095026416498
          ],
          [
            -5.7100001003592187,
            55.558365824241051
          ],
          [
            -5.7102065272368385,
            55.558846761436754
          ],
          [
            -5.7095792835902124,
            55.559680315840943
          ],
          [
            -5.7099203658512696,
            55.55827778897239
          ],
          [
            -5.7090279233951566,
            55.556724935783905
          ]
        ]
      }
    }
  ]
}