{
  "type" : "FeatureCollection",
  "features" : [
    {
      "geometry" : {
        "type" : "Point",
        "coordinates" : [
          -2.7528747487262124,
          58.922361094820751
        ]
      },
      "type" : "Feature",
      "properties" : {
        "type" : "visit",
        "weather" : "Aufgelockert bewölkt (15,1 °C)",
        "device" : "B9E47AEB-E54C-4563-96B6-06995DD4BC56 (iPhone 16 Pro)",
        "source" : "Geory 5.3.2",
        "rating" : 0,
        "duration" : 49923.367962598801,
        "arrival" : "2026-09-21T18:49:55Z",
        "departure" : "2026-09-22T08:41:58Z",
        "address" : "Geo Road, Deerness, Orkney, KW17, Schottland",
        "timestamp" : "2026-09-21T18:49:55Z"
      }
    },
    {
      "type" : "Feature",
      "geometry" : {
        "type" : "Point",
        "coordinates" : [
          -2.7528847848566262,
          58.92273258633557
        ]
      },
      "properties" : {
        "address" : "Geo Road, Deerness, Orkney, KW17, Schottland",
        "arrival" : "2026-09-22T08:42:28Z",
        "source" : "Geory 5.3.2",
        "rating" : 0,
        "timestamp" : "2026-09-22T08:42:28Z",
        "weather" : "Bedeckter Himmel (16,0 °C)",
        "device" : "B9E47AEB-E54C-4563-96B6-06995DD4BC56 (iPhone 16 Pro)",
        "departure" : "2026-09-22T08:58:10Z",
        "duration" : 942.9138491153717,
        "type" : "visit"
      }
    },
    {
      "type" : "Feature",
      "properties" : {
        "type" : "visit",
        "device" : "B9E47AEB-E54C-4563-96B6-06995DD4BC56 (iPhone 16 Pro)",
        "duration" : 2350.7831964492798,
        "arrival" : "2026-09-22T09:07:08Z",
        "source" : "Geory 5.3.2",
        "rating" : 0,
        "weather" : "Bedeckter Himmel (15,9 °C)",
        "departure" : "2026-09-22T09:46:18Z",
        "address" : "Sandside Road, Deerness, Orkney, KW17, Schottland",
        "timestamp" : "2026-09-22T09:07:08Z"
      },
      "geometry" : {
        "type" : "Point",
        "coordinates" : [
          -2.7148664936834916,
          58.956381212564033
        ]
      }
    },
    {
      "properties" : {
        "timestamp" : "2026-09-22T09:47:01Z",
        "address" : "Mainland, Orkney Islands, Schottland",
        "duration" : 943.62193489074707,
        "device" : "B9E47AEB-E54C-4563-96B6-06995DD4BC56 (iPhone 16 Pro)",
        "arrival" : "2026-09-22T09:47:01Z",
        "source" : "Geory 5.3.2",
        "rating" : 0,
        "departure" : "2026-09-22T10:02:44Z",
        "weather" : "Überwiegend bewölkt (14,1 °C)",
        "type" : "visit"
      },
      "type" : "Feature",
      "geometry" : {
        "type" : "Point",
        "coordinates" : [
          -2.709490984507898,
          58.9562093024402
        ]
      }
    },
    {
      "type" : "Feature",
      "geometry" : {
        "coordinates" : [
          -2.7145836372371432,
          58.956179885856251
        ],
        "type" : "Point"
      },
      "properties" : {
        "address" : "Sandside Road, Deerness, Orkney, KW17, Schottland",
        "type" : "visit",
        "timestamp" : "2026-09-22T10:02:45Z",
        "device" : "B9E47AEB-E54C-4563-96B6-06995DD4BC56 (iPhone 16 Pro)",
        "weather" : "Überwiegend bewölkt (12,9 °C)",
        "duration" : 1171.0335943698883,
        "arrival" : "2026-09-22T10:02:45Z",
        "departure" : "2026-09-22T10:22:16Z",
        "source" : "Geory 5.3.2",
        "rating" : 0
      }
    },
    {
      "type" : "Feature",
      "geometry" : {
        "coordinates" : [
          -2.9653966506794553,
          58.981116223018482
        ],
        "type" : "Point"
      },
      "properties" : {
        "timestamp" : "2026-09-22T10:50:22Z",
        "source" : "Geory 5.3.2",
        "duration" : 4578.0417318344116,
        "arrival" : "2026-09-22T10:50:22Z",
        "departure" : "2026-09-22T12:06:40Z",
        "rating" : 0,
        "address" : "18 Pickaquoy Road, St. Ola, Kirkwall, KW15, Schottland",
        "device" : "B9E47AEB-E54C-4563-96B6-06995DD4BC56 (iPhone 16 Pro)",
        "weather" : "Bedeckter Himmel (13,1 °C)",
        "type" : "visit"
      }
    },
    {
      "type" : "Feature",
      "geometry" : {
        "type" : "Point",
        "coordinates" : [
          -2.9599574090079424,
          58.98160206713797
        ]
      },
      "properties" : {
        "timestamp" : "2026-09-22T12:06:41Z",
        "duration" : 4713.9641678333282,
        "rating" : 0,
        "source" : "Geory 5.3.2",
        "address" : "St Magnus Cathedral, Broad Street, St. Ola, Kirkwall, KW15 1DH, Schottland",
        "weather" : "Bedeckter Himmel (15,0 °C)",
        "type" : "visit",
        "device" : "B9E47AEB-E54C-4563-96B6-06995DD4BC56 (iPhone 16 Pro)",
        "departure" : "2026-09-22T13:25:15Z",
        "arrival" : "2026-09-22T12:06:41Z"
      }
    },
    {
      "type" : "Feature",
      "properties" : {
        "timestamp" : "2026-09-22T13:25:16Z",
        "source" : "Geory 5.3.2",
        "duration" : 1558.0530397891998,
        "weather" : "Bedeckter Himmel (15,0 °C)",
        "arrival" : "2026-09-22T13:25:16Z",
        "address" : "11A Albert Street, St. Ola, Kirkwall, KW15 1HP, Schottland",
        "device" : "B9E47AEB-E54C-4563-96B6-06995DD4BC56 (iPhone 16 Pro)",
        "type" : "visit",
        "rating" : 0,
        "departure" : "2026-09-22T13:51:14Z"
      },
      "geometry" : {
        "coordinates" : [
          -2.958248956641321,
          58.983673027813147
        ],
        "type" : "Point"
      }
    },
    {
      "type" : "Feature",
      "geometry" : {
        "type" : "Point",
        "coordinates" : [
          -3.0840246733828698,
          59.123627818037498
        ]
      },
      "properties" : {
        "source" : "Geory 5.3.2",
        "address" : "Mainland, Orkney Islands, Schottland",
        "type" : "visit",
        "duration" : 5831.3277957439423,
        "weather" : "Überwiegend bewölkt (15,0 °C)",
        "departure" : "2026-09-22T16:22:58Z",
        "arrival" : "2026-09-22T14:45:47Z",
        "rating" : 0,
        "device" : "B9E47AEB-E54C-4563-96B6-06995DD4BC56 (iPhone 16 Pro)",
        "timestamp" : "2026-09-22T14:45:47Z"
      }
    },
    {
      "properties" : {
        "device" : "B9E47AEB-E54C-4563-96B6-06995DD4BC56 (iPhone 16 Pro)",
        "weather" : "Bedeckter Himmel (14,1 °C)",
        "rating" : 0,
        "arrival" : "2026-09-22T17:03:18Z",
        "timestamp" : "2026-09-22T17:03:18Z",
        "duration" : 15269.975157260895,
        "address" : "Mainland, Orkney Islands, Schottland",
        "type" : "visit",
        "source" : "Geory 5.3.2"
      },
      "geometry" : {
        "coordinates" : [
          -3.0842725232120776,
          59.123602561740029
        ],
        "type" : "Point"
      },
      "type" : "Feature"
    },
    {
      "properties" : {
        "end" : "2026-09-22T21:17:38Z",
        "start" : "2026-09-21T23:00:00Z",
        "device" : "B9E47AEB-E54C-4563-96B6-06995DD4BC56 (iPhone 16 Pro)",
        "source" : "Geory 5.3.2",
        "type" : "route"
      },
      "geometry" : {
        "type" : "LineString",
        "coordinates" : [
          [
            -3.0842725232120776,
            59.123602561740029
          ],
          [
            -3.0847364872883585,
            59.123250222674272
          ],
          [
            -3.0854245248126766,
            59.122300615223637
          ],
          [
            -3.0849464435656722,
            59.120969663842374
          ],
          [
            -3.0857171826895562,
            59.120043633546317
          ],
          [
            -3.0859006276428094,
            59.119165311959954
          ],
          [
            -3.0888233189411061,
            59.117844971141984
          ],
          [
            -3.0915270555720844,
            59.117860918118659
          ],
          [
            -3.0955006060920462,
            59.118194231247145
          ],
          [
            -3.0937392021003438,
            59.118256291732244
          ],
          [
            -3.0900121169951631,
            59.119016256572245
          ],
          [
            -3.0892344647512666,
            59.119230654531201
          ],
          [
            -3.0854171746872816,
            59.120550392163317
          ],
          [
            -3.0854445248407059,
            59.120578021451422
          ],
          [
            -3.0853882299589825,
            59.12068455254358
          ],
          [
            -3.0853882299589825,
            59.12068455254358
          ],
          [
            -3.0840246733828698,
            59.123627818037498
          ],
          [
            -3.0856570704723363,
            59.120196181533068
          ],
          [
            -3.0860605666666667,
            59.119230616666663
          ],
          [
            -3.0863047166666671,
            59.11827421666667
          ],
          [
            -3.0849595166666668,
            59.117660083333341
          ],
          [
            -3.0837213333333335,
            59.117011866666658
          ],
          [
            -3.0816945833333333,
            59.116856633333327
          ],
          [
            -3.0792576666666673,
            59.116908549999998
          ],
          [
            -3.0770267833333329,
            59.116965133333331
          ],
          [
            -3.0753427333333332,
            59.11666626666667
          ],
          [
            -3.0752351666666669,
            59.115297283333334
          ],
          [
            -3.0751508666666667,
            59.114225366666673
          ],
          [
            -3.0750664999999997,
            59.113287383333329
          ],
          [
            -3.0762021322207374,
            59.112450959652591
          ],
          [
            -3.0776391190563657,
            59.111493918967355
          ],
          [
            -3.0789707993756812,
            59.110597337311809
          ],
          [
            -3.080465240666252,
            59.109632089525725
          ],
          [
            -3.0816294333333332,
            59.108634566666659
          ],
          [
            -3.0825507166666664,
            59.107836466666669
          ],
          [
            -3.0837175500000003,
            59.106831499999998
          ],
          [
            -3.0848153833333334,
            59.10588718333333
          ],
          [
            -3.0858501,
            59.10504791666667
          ],
          [
            -3.0873669166666664,
            59.104587333333328
          ],
          [
            -3.0858525166666673,
            59.10362645
          ],
          [
            -3.0841972999999996,
            59.102752633333324
          ],
          [
            -3.0826767833333331,
            59.101739749999993
          ],
          [
            -3.0810757666666673,
            59.100473466666671
          ],
          [
            -3.0798214666666666,
            59.099566349999996
          ],
          [
            -3.0792337333333339,
            59.099187183333335
          ],
          [
            -3.0774215333333328,
            59.098006216666668
          ],
          [
            -3.0755096666666661,
            59.096767299999989
          ],
          [
            -3.0736720833333333,
            59.095774299999995
          ],
          [
            -3.0712150999999994,
            59.094751883333323
          ],
          [
            -3.0686205000000002,
            59.093674633333336
          ],
          [
            -3.0659864999999997,
            59.092586516666671
          ],
          [
            -3.0636395833333334,
            59.091635799999999
          ],
          [
            -3.0613301197240124,
            59.090463329886134
          ],
          [
            -3.0598538439491025,
            59.08909614283489
          ],
          [
            -3.0588760022451691,
            59.087551059319097
          ],
          [
            -3.0580552156377516,
            59.086101839593006
          ],
          [
            -3.0578080000000001,
            59.084474266666668
          ],
          [
            -3.05768445,
            59.082951366666677
          ],
          [
            -3.0575615666666667,
            59.081379833333322
          ],
          [
            -3.0587980833333339,
            59.079603066666671
          ],
          [
            -3.0603192666666663,
            59.078042099999998
          ],
          [
            -3.0619453833333332,
            59.076384000000012
          ],
          [
            -3.0636464499999998,
            59.074639849999997
          ],
          [
            -3.0653486833333337,
            59.072883400000002
          ],
          [
            -3.0670157833333329,
            59.071179133333331
          ],
          [
            -3.0686439499999998,
            59.069509866666671
          ],
          [
            -3.0700752166666669,
            59.068054299999993
          ],
          [
            -3.0716191166666662,
            59.066467333333343
          ],
          [
            -3.0732840833333328,
            59.064755283333334
          ],
          [
            -3.0744292666666664,
            59.063019733333341
          ],
          [
            -3.0752680833333326,
            59.061431066666671
          ],
          [
            -3.0761487833333332,
            59.059767566666672
          ],
          [
            -3.0770334666666668,
            59.058089883333331
          ],
          [
            -3.0779355333333331,
            59.056354016666667
          ],
          [
            -3.0787417500000003,
            59.05482738333334
          ],
          [
            -3.0796435999999998,
            59.053195299999999
          ],
          [
            -3.0805796666666669,
            59.051544450000002
          ],
          [
            -3.0815274499999998,
            59.049859349999991
          ],
          [
            -3.0824461999999997,
            59.048288599999992
          ],
          [
            -3.0832212833333328,
            59.046916933333328
          ],
          [
            -3.08413,
            59.045278666666675
          ],
          [
            -3.0851959666666668,
            59.043435683333342
          ],
          [
            -3.0863514999999997,
            59.041498199999992
          ],
          [
            -3.0874935166666666,
            59.039472266666678
          ],
          [
            -3.0885249499999996,
            59.03767418333333
          ],
          [
            -3.0896494333333329,
            59.035731266666666
          ],
          [
            -3.0907806333333339,
            59.033779699999997
          ],
          [
            -3.0919697500000005,
            59.031729516666672
          ],
          [
            -3.0931245833333332,
            59.029732383333339
          ],
          [
            -3.0943031166666666,
            59.027703199999991
          ],
          [
            -3.0953748666666665,
            59.025848416666669
          ],
          [
            -3.0963968500000001,
            59.02408956666666
          ],
          [
            -3.0975128500000002,
            59.022507033333341
          ],
          [
            -3.0996546666666669,
            59.020874383333336
          ],
          [
            -3.1016248833333329,
            59.019392833333335
          ],
          [
            -3.1037612500000002,
            59.017792266666653
          ],
          [
            -3.1056886666666665,
            59.016340933333339
          ],
          [
            -3.1074497999999995,
            59.015018783333339
          ],
          [
            -3.1091336666666667,
            59.013756349999994
          ],
          [
            -3.1106601833333332,
            59.012610750000007
          ],
          [
            -3.1123776000000003,
            59.011332416666669
          ],
          [
            -3.1135826999999998,
            59.010419666666664
          ],
          [
            -3.1145316166666666,
            59.009599083333327
          ],
          [
            -3.1152391166666673,
            59.008726216666673
          ],
          [
            -3.11591605,
            59.007850283333326
          ],
          [
            -3.1157643666666663,
            59.006888566666674
          ],
          [
            -3.1145612499999999,
            59.006155883333335
          ],
          [
            -3.11333555,
            59.005335449999997
          ],
          [
            -3.112222833333333,
            59.004527016666664
          ],
          [
            -3.1106268666666663,
            59.004019700000001
          ],
          [
            -3.1089667166666666,
            59.003680116666665
          ],
          [
            -3.1070844166666669,
            59.003210066666668
          ],
          [
            -3.1048635,
            59.002604050000009
          ],
          [
            -3.1022008833333334,
            59.002002233333336
          ],
          [
            -3.0988717999999995,
            59.001441400000004
          ],
          [
            -3.0956505999999999,
            59.000950550000006
          ],
          [
            -3.0927113333333334,
            59.000503633333331
          ],
          [
            -3.0900711333333333,
            58.999382300000001
          ],
          [
            -3.0876336833333329,
            58.998188433333347
          ],
          [
            -3.0842899166666666,
            58.997733916666661
          ],
          [
            -3.0809599333333337,
            58.997466033333332
          ],
          [
            -3.0780538499999994,
            58.996954099999996
          ],
          [
            -3.074710033333333,
            58.996485399999997
          ],
          [
            -3.0712223333333335,
            58.995892166666664
          ],
          [
            -3.0674715999999997,
            58.995334416666672
          ],
          [
            -3.0636925500000003,
            58.994765883333336
          ],
          [
            -3.0602480833333336,
            58.994255216666666
          ],
          [
            -3.0562586,
            58.993649350000005
          ],
          [
            -3.0534066833333338,
            58.993379999999995
          ],
          [
            -3.0499605833333332,
            58.993777049999998
          ],
          [
            -3.0467700166666667,
            58.994307383333336
          ],
          [
            -3.0431391666666667,
            58.995090916666669
          ],
          [
            -3.0399350166666665,
            58.995911166666666
          ],
          [
            -3.0369680333333333,
            58.996682916666671
          ],
          [
            -3.033780066666667,
            58.997576049999999
          ],
          [
            -3.0308261333333326,
            58.998706200000001
          ],
          [
            -3.0282312833333331,
            58.999757500000001
          ],
          [
            -3.02563805,
            59.000800866666673
          ],
          [
            -3.0228017999999999,
            59.001601950000001
          ],
          [
            -3.0195384500000002,
            59.001911466666662
          ],
          [
            -3.0163225666666666,
            59.00219285
          ],
          [
            -3.0130836166666661,
            59.002478999999994
          ],
          [
            -3.0094029166666663,
            59.002797600000001
          ],
          [
            -3.0060483333333337,
            59.00307513333334
          ],
          [
            -3.0028447999999996,
            59.002887516666668
          ],
          [
            -2.9999639027793932,
            59.002216023111821
          ],
          [
            -2.9972093921823766,
            59.001413475029679
          ],
          [
            -2.9946208506103575,
            59.000554503711456
          ],
          [
            -2.9923003426535293,
            58.999412607183629
          ],
          [
            -2.9915787333333337,
            58.997733266666664
          ],
          [
            -2.992734716666666,
            58.996228566666666
          ],
          [
            -2.9940726999999998,
            58.994700333333334
          ],
          [
            -2.9936249333333338,
            58.993009950000001
          ],
          [
            -2.9917434664260982,
            58.991833016937463
          ],
          [
            -2.9893845197476847,
            58.990806762408496
          ],
          [
            -2.9877917286090976,
            58.990124254213228
          ],
          [
            -2.985576183333333,
            58.989229449999989
          ],
          [
            -2.9846096999999996,
            58.988843633333332
          ],
          [
            -2.9835580166666671,
            58.988489433333342
          ],
          [
            -2.9813689333333331,
            58.987936249999997
          ],
          [
            -2.9786478666666665,
            58.987204850000005
          ],
          [
            -2.9755635275316532,
            58.987753891907076
          ],
          [
            -2.9755629431527972,
            58.987753727763774
          ],
          [
            -2.9744880833333336,
            58.987721783333335
          ],
          [
            -2.9727190447055505,
            58.987662138249945
          ],
          [
            -2.9709781333333334,
            58.987966450000009
          ],
          [
            -2.9700458950287665,
            58.988748449864012
          ],
          [
            -2.9698310356978022,
            58.987815211972283
          ],
          [
            -2.9698864666666669,
            58.986859416666661
          ],
          [
            -2.9709972000000002,
            58.986161416666661
          ],
          [
            -2.9694520419283736,
            58.985696596379462
          ],
          [
            -2.9673998539364392,
            58.985129289490544
          ],
          [
            -2.9665777012506105,
            58.984966930695478
          ],
          [
            -2.9652199496375986,
            58.984781977028774
          ],
          [
            -2.9638677602704115,
            58.984173078294155
          ],
          [
            -2.9634823835776114,
            58.98250324224184
          ],
          [
            -2.9647244492311735,
            58.981214318506751
          ],
          [
            -2.9639777766878064,
            58.982070096228028
          ],
          [
            -2.9629941913077911,
            58.982900277947579
          ],
          [
            -2.958248956641321,
            58.983673027813147
          ],
          [
            -2.9599574090079424,
            58.98160206713797
          ],
          [
            -2.9653966506794553,
            58.981116223018482
          ],
          [
            -2.9654733306168435,
            58.981273068889806
          ],
          [
            -2.9648829492044313,
            58.980425379990031
          ],
          [
            -2.9633017650351081,
            58.980026169421016
          ],
          [
            -2.9631771833333338,
            58.980972433333335
          ],
          [
            -2.9626755500000002,
            58.981878383333331
          ],
          [
            -2.9616019692864426,
            58.982608435389615
          ],
          [
            -2.9601374905699651,
            58.982112209769326
          ],
          [
            -2.9606905166666668,
            58.981248883333336
          ],
          [
            -2.9590565833333327,
            58.980932950000003
          ],
          [
            -2.9573382957529648,
            58.980734857237131
          ],
          [
            -2.9560270500000003,
            58.980118183333325
          ],
          [
            -2.9558902999999996,
            58.979004266666671
          ],
          [
            -2.9554082333333338,
            58.97804441666667
          ],
          [
            -2.9547145333333336,
            58.976939899999998
          ],
          [
            -2.9538825499999999,
            58.975952016666668
          ],
          [
            -2.9527815833333335,
            58.97497383333333
          ],
          [
            -2.9514148500000004,
            58.973900416666659
          ],
          [
            -2.9498281999999998,
            58.972780683333333
          ],
          [
            -2.9482676999999997,
            58.971679383333338
          ],
          [
            -2.9467636166666664,
            58.970619366666675
          ],
          [
            -2.9450314666666664,
            58.969400616666654
          ],
          [
            -2.9434362000000007,
            58.968262633333339
          ],
          [
            -2.9420142500000002,
            58.967007916666674
          ],
          [
            -2.9419456833333339,
            58.965276083333343
          ],
          [
            -2.9420280333333331,
            58.963705266666665
          ],
          [
            -2.9406897166666663,
            58.962161183333336
          ],
          [
            -2.9384440999999999,
            58.961274533333338
          ],
          [
            -2.9352346333333332,
            58.96134605000001
          ],
          [
            -2.9323329166666663,
            58.961679400000001
          ],
          [
            -2.9292629666666663,
            58.961860666666674
          ],
          [
            -2.9266087500000002,
            58.960848333333324
          ],
          [
            -2.923841616666667,
            58.959616199999992
          ],
          [
            -2.9209957500000003,
            58.958818350000001
          ],
          [
            -2.9179761333333332,
            58.958343166666666
          ],
          [
            -2.9153104499999998,
            58.957666933333336
          ],
          [
            -2.91347925,
            58.95625605
          ],
          [
            -2.9119864666666668,
            58.954607883333331
          ],
          [
            -2.9103095666666663,
            58.953136833333339
          ],
          [
            -2.9077839000000001,
            58.952413566666671
          ],
          [
            -2.905227766666667,
            58.952421249999993
          ],
          [
            -2.9034632833333331,
            58.952638966666669
          ],
          [
            -2.901176364428002,
            58.952871956295049
          ],
          [
            -2.8982755500000001,
            58.952618766666667
          ],
          [
            -2.8957268333333332,
            58.951609800000007
          ],
          [
            -2.893295366666667,
            58.950544499999992
          ],
          [
            -2.8906482000000002,
            58.949569233333335
          ],
          [
            -2.8879907666666669,
            58.948829216666667
          ],
          [
            -2.8853783833333333,
            58.948257666666663
          ],
          [
            -2.8829618999999997,
            58.947645533333329
          ],
          [
            -2.8805962666666671,
            58.946798099999988
          ],
          [
            -2.8785076000000003,
            58.945701016666668
          ],
          [
            -2.8765390166666669,
            58.944494916666663
          ],
          [
            -2.8744952333333336,
            58.943235000000001
          ],
          [
            -2.8726416333333331,
            58.942091683333338
          ],
          [
            -2.8707331000000003,
            58.941042449999998
          ],
          [
            -2.8684542500000001,
            58.940052916666673
          ],
          [
            -2.8660045833333334,
            58.938999666666668
          ],
          [
            -2.8638160500000001,
            58.938056266666671
          ],
          [
            -2.8617091000000001,
            58.937154133333323
          ],
          [
            -2.8593364500000003,
            58.936140300000005
          ],
          [
            -2.8573665999999998,
            58.935292716666666
          ],
          [
            -2.8551938333333333,
            58.934356099999995
          ],
          [
            -2.8530728333333335,
            58.933444466666664
          ],
          [
            -2.8508804166666666,
            58.932502066666665
          ],
          [
            -2.8488702333333333,
            58.93164036666667
          ],
          [
            -2.8470618666666669,
            58.93063853333333
          ],
          [
            -2.8459548500000005,
            58.929370416666679
          ],
          [
            -2.8447099350125451,
            58.927891202950498
          ],
          [
            -2.8433661641446575,
            58.926342715749833
          ],
          [
            -2.841562106133666,
            58.925179001133294
          ],
          [
            -2.8390313168190144,
            58.924725668890183
          ],
          [
            -2.8366652824489691,
            58.924161669406182
          ],
          [
            -2.8348285914215241,
            58.923717510143845
          ],
          [
            -2.8331589705164757,
            58.923275273241657
          ],
          [
            -2.8314373701865123,
            58.922670907426372
          ],
          [
            -2.8292484363103645,
            58.9217604651394
          ],
          [
            -2.8268841281538504,
            58.92077412612862
          ],
          [
            -2.8246247340996438,
            58.919974964816959
          ],
          [
            -2.8222390666666666,
            58.919327300000006
          ],
          [
            -2.8197095333333331,
            58.919005116666661
          ],
          [
            -2.8168313666666669,
            58.918746516666666
          ],
          [
            -2.8142257333333331,
            58.918584083333329
          ],
          [
            -2.8112339333333334,
            58.918914566666672
          ],
          [
            -2.8084699166666667,
            58.91920158333334
          ],
          [
            -2.8055770499999997,
            58.918787883333337
          ],
          [
            -2.8029364499999998,
            58.918111083333329
          ],
          [
            -2.8001945000000004,
            58.917622933333334
          ],
          [
            -2.7974616999999999,
            58.917182516666664
          ],
          [
            -2.7948248923283709,
            58.917121806170414
          ],
          [
            -2.7948248923283709,
            58.917121806170414
          ],
          [
            -2.7920268333333338,
            58.91668176666667
          ],
          [
            -2.7895180666666666,
            58.915901950000006
          ],
          [
            -2.7870963500000001,
            58.915299533333332
          ],
          [
            -2.7845479499999999,
            58.915620933333336
          ],
          [
            -2.7821380833333333,
            58.916561833333326
          ],
          [
            -2.7813560333333331,
            58.917997100000001
          ],
          [
            -2.780304633333333,
            58.919294133333338
          ],
          [
            -2.7787913,
            58.920387783333339
          ],
          [
            -2.7766375833333332,
            58.921065633333328
          ],
          [
            -2.7741034166666663,
            58.92150551666667
          ],
          [
            -2.7717435500000001,
            58.921669866666662
          ],
          [
            -2.7692808499999995,
            58.922041166666666
          ],
          [
            -2.7672026833333332,
            58.922505783333328
          ],
          [
            -2.7666264333333337,
            58.923755100000001
          ],
          [
            -2.7661487666666669,
            58.924968183333341
          ],
          [
            -2.7656675473215064,
            58.926094052121655
          ],
          [
            -2.765042547562814,
            58.927507078453502
          ],
          [
            -2.7637799666666667,
            58.928795299999997
          ],
          [
            -2.7621843666666668,
            58.930086500000002
          ],
          [
            -2.7607251666666666,
            58.931252383333337
          ],
          [
            -2.7591211333333336,
            58.932257333333332
          ],
          [
            -2.7572014,
            58.933080350000004
          ],
          [
            -2.7552622333333332,
            58.933917350000002
          ],
          [
            -2.7533884500000001,
            58.934717083333332
          ],
          [
            -2.7512394666666666,
            58.93563016666667
          ],
          [
            -2.7484380500000003,
            58.936212233333329
          ],
          [
            -2.74578525,
            58.93658846666667
          ],
          [
            -2.7431450333333336,
            58.936950399999994
          ],
          [
            -2.7431450333333336,
            58.936950399999994
          ],
          [
            -2.740681533333333,
            58.937282249999996
          ],
          [
            -2.7384004499999999,
            58.937590533333335
          ],
          [
            -2.7359183500000004,
            58.937927683333328
          ],
          [
            -2.7333780666666665,
            58.938276516666676
          ],
          [
            -2.7310904499999999,
            58.938585349999997
          ],
          [
            -2.7290050333333333,
            58.938855116666673
          ],
          [
            -2.7273585833333334,
            58.939335783333341
          ],
          [
            -2.7256955666666665,
            58.939854183333331
          ],
          [
            -2.7240731097072279,
            58.940395074544881
          ],
          [
            -2.7225418885455959,
            58.940909883544215
          ],
          [
            -2.7209563031187702,
            58.94152201259287
          ],
          [
            -2.7187714999999999,
            58.942460299999993
          ],
          [
            -2.717495,
            58.943104533333326
          ],
          [
            -2.718174233333333,
            58.943996216666662
          ],
          [
            -2.7189952166666664,
            58.944854566666663
          ],
          [
            -2.7198057666666666,
            58.945766716666668
          ],
          [
            -2.7204495027161077,
            58.94667355025463
          ],
          [
            -2.7208478251597268,
            58.947548235278767
          ],
          [
            -2.7197278760390069,
            58.948324709054475
          ],
          [
            -2.7186278535374035,
            58.94908906772006
          ],
          [
            -2.7175724856240184,
            58.949833016496605
          ],
          [
            -2.7161852166666667,
            58.950395183333328
          ],
          [
            -2.7145836372371432,
            58.956179885856251
          ],
          [
            -2.709490984507898,
            58.9562093024402
          ],
          [
            -2.7148664936834916,
            58.956381212564033
          ],
          [
            -2.7176680977967118,
            58.949821285870719
          ],
          [
            -2.7190171600503668,
            58.948873644758713
          ],
          [
            -2.7203109619510366,
            58.947979918367523
          ],
          [
            -2.7208010924561585,
            58.947047606674495
          ],
          [
            -2.7199456757476601,
            58.945910209022941
          ],
          [
            -2.7190153184922936,
            58.944834532921242
          ],
          [
            -2.7181459749826402,
            58.943897065010425
          ],
          [
            -2.7176238090736984,
            58.943026337952922
          ],
          [
            -2.7196581717585682,
            58.94212100756495
          ],
          [
            -2.7216286072067386,
            58.941239631455659
          ],
          [
            -2.7237120309679534,
            58.940541337365978
          ],
          [
            -2.7256184409702722,
            58.939919900088967
          ],
          [
            -2.7276718232921811,
            58.939247555823059
          ],
          [
            -2.7291869057621243,
            58.938851925401529
          ],
          [
            -2.7316595650179578,
            58.938538610397885
          ],
          [
            -2.7344197594545356,
            58.938158648029408
          ],
          [
            -2.7372324764057159,
            58.93777625588497
          ],
          [
            -2.7396707568058911,
            58.937443255793475
          ],
          [
            -2.7422443692233904,
            58.937100419941288
          ],
          [
            -2.7446154693145037,
            58.936777670040343
          ],
          [
            -2.7468269282356346,
            58.936474807393729
          ],
          [
            -2.7493268167370268,
            58.936091600465886
          ],
          [
            -2.7518491353042558,
            58.935430807184851
          ],
          [
            -2.7537706908899664,
            58.934596926516825
          ],
          [
            -2.7556196621844258,
            58.933799647874686
          ],
          [
            -2.7574046044364384,
            58.933025183515156
          ],
          [
            -2.7590972651886849,
            58.932301232583228
          ],
          [
            -2.7604590779630529,
            58.931493409673898
          ],
          [
            -2.7616158826155157,
            58.930562571802227
          ],
          [
            -2.7627242413495026,
            58.929685527146745
          ],
          [
            -2.7639767629904028,
            58.928622036455359
          ],
          [
            -2.7650592698680874,
            58.927553926966063
          ],
          [
            -2.7655981462993071,
            58.926398183392799
          ],
          [
            -2.7660539524242416,
            58.925267770133566
          ],
          [
            -2.7664243332615031,
            58.92434138171231
          ],
          [
            -2.7667603178610527,
            58.923394083289388
          ],
          [
            -2.7662187125303181,
            58.922494317413985
          ],
          [
            -2.7644863170765772,
            58.922429554645205
          ],
          [
            -2.7626548834587812,
            58.922367542207411
          ],
          [
            -2.7608916969531241,
            58.922308609104469
          ],
          [
            -2.759129698790511,
            58.922252859983253
          ],
          [
            -2.7573694720969986,
            58.922196593429192
          ],
          [
            -2.7528847848566262,
            58.92273258633557
          ],
          [
            -2.7528747487262124,
            58.922361094820751
          ]
        ]
      },
      "type" : "Feature"
    }
  ]
}