{
  "features" : [
    {
      "geometry" : {
        "type" : "Point",
        "coordinates" : [
          -7.0703791160753093,
          55.271939371541301
        ]
      },
      "properties" : {
        "departure" : "2026-04-23T01:39:58Z",
        "address" : "North Inishowen Coast SAC, County Donegal, Irland",
        "arrival" : "2026-04-22T19:19:37Z",
        "type" : "visit",
        "timestamp" : "2026-04-22T19:19:37Z",
        "device" : "B9E47AEB-E54C-4563-96B6-06995DD4BC56 (iPhone 16 Pro)",
        "duration" : 22821.000843048096,
        "rating" : 0,
        "source" : "Geory 5.3.2"
      },
      "type" : "Feature"
    },
    {
      "type" : "Feature",
      "geometry" : {
        "coordinates" : [
          -7.070785981530916,
          55.271931974095885
        ],
        "type" : "Point"
      },
      "properties" : {
        "rating" : 0,
        "type" : "visit",
        "device" : "B9E47AEB-E54C-4563-96B6-06995DD4BC56 (iPhone 16 Pro)",
        "arrival" : "2026-04-23T01:53:49Z",
        "duration" : 1949.6824474334717,
        "timestamp" : "2026-04-23T01:53:49Z",
        "source" : "Geory 5.3.2",
        "departure" : "2026-04-23T02:26:18Z",
        "address" : "North Inishowen Coast SAC, County Donegal, Irland"
      }
    },
    {
      "type" : "Feature",
      "geometry" : {
        "type" : "Point",
        "coordinates" : [
          -7.0708151326972573,
          55.271928537087561
        ]
      },
      "properties" : {
        "type" : "visit",
        "duration" : 6303.4088444709778,
        "rating" : 0,
        "source" : "Geory 5.3.2",
        "timestamp" : "2026-04-23T02:46:17Z",
        "arrival" : "2026-04-23T02:46:17Z",
        "address" : "North Inishowen Coast SAC, County Donegal, Irland",
        "device" : "B9E47AEB-E54C-4563-96B6-06995DD4BC56 (iPhone 16 Pro)",
        "departure" : "2026-04-23T04:31:20Z"
      }
    },
    {
      "properties" : {
        "type" : "visit",
        "duration" : 1860.0613794326782,
        "arrival" : "2026-04-23T04:36:09Z",
        "address" : "North Inishowen Coast SAC, County Donegal, Irland",
        "timestamp" : "2026-04-23T04:36:09Z",
        "departure" : "2026-04-23T05:07:09Z",
        "rating" : 0,
        "source" : "Geory 5.3.2",
        "device" : "B9E47AEB-E54C-4563-96B6-06995DD4BC56 (iPhone 16 Pro)"
      },
      "type" : "Feature",
      "geometry" : {
        "type" : "Point",
        "coordinates" : [
          -7.0707570273401545,
          55.271863612001987
        ]
      }
    },
    {
      "geometry" : {
        "type" : "Point",
        "coordinates" : [
          -7.0674655408793656,
          55.272159990974771
        ]
      },
      "type" : "Feature",
      "properties" : {
        "type" : "visit",
        "timestamp" : "2026-04-23T05:09:40Z",
        "address" : "North Inishowen Coast SAC, Irland",
        "arrival" : "2026-04-23T05:09:40Z",
        "device" : "B9E47AEB-E54C-4563-96B6-06995DD4BC56 (iPhone 16 Pro)",
        "source" : "Geory 5.3.2",
        "departure" : "2026-04-23T05:37:35Z",
        "duration" : 1674.5036423206329,
        "rating" : 0
      }
    },
    {
      "type" : "Feature",
      "properties" : {
        "arrival" : "2026-04-23T05:40:08Z",
        "timestamp" : "2026-04-23T05:40:08Z",
        "rating" : 0,
        "device" : "B9E47AEB-E54C-4563-96B6-06995DD4BC56 (iPhone 16 Pro)",
        "duration" : 10419.83321762085,
        "departure" : "2026-04-23T08:33:48Z",
        "address" : "North Inishowen Coast SAC, County Donegal, Irland",
        "source" : "Geory 5.3.2",
        "type" : "visit"
      },
      "geometry" : {
        "coordinates" : [
          -7.0708149279306847,
          55.271945853812376
        ],
        "type" : "Point"
      }
    },
    {
      "geometry" : {
        "coordinates" : [
          -7.1512684349077613,
          55.293762529644205
        ],
        "type" : "Point"
      },
      "properties" : {
        "arrival" : "2026-04-23T08:47:20Z",
        "source" : "Geory 5.3.2",
        "device" : "B9E47AEB-E54C-4563-96B6-06995DD4BC56 (iPhone 16 Pro)",
        "departure" : "2026-04-23T12:44:48Z",
        "address" : "North Inishowen Coast SAC, County Donegal, Irland",
        "rating" : 0,
        "duration" : 14248.192048072815,
        "weather" : "Bedeckter Himmel (9,7 °C)",
        "timestamp" : "2026-04-23T08:47:20Z",
        "type" : "visit"
      },
      "type" : "Feature"
    },
    {
      "geometry" : {
        "coordinates" : [
          -7.1572624094445016,
          55.296690351087655
        ],
        "type" : "Point"
      },
      "type" : "Feature",
      "properties" : {
        "device" : "B9E47AEB-E54C-4563-96B6-06995DD4BC56 (iPhone 16 Pro)",
        "timestamp" : "2026-04-23T12:58:30Z",
        "departure" : "2026-04-23T13:20:41Z",
        "duration" : 1330.9594926834106,
        "arrival" : "2026-04-23T12:58:30Z",
        "type" : "visit",
        "source" : "Geory 5.3.2",
        "weather" : "Bedeckter Himmel (14,9 °C)",
        "address" : "Culdaff Blue Flag Beach, County Donegal, Irland",
        "rating" : 0
      }
    },
    {
      "type" : "Feature",
      "properties" : {
        "source" : "Geory 5.3.2",
        "address" : "North Inishowen Coast SAC, County Donegal, Irland",
        "weather" : "Bedeckter Himmel (15,9 °C)",
        "device" : "B9E47AEB-E54C-4563-96B6-06995DD4BC56 (iPhone 16 Pro)",
        "timestamp" : "2026-04-23T13:21:05Z",
        "duration" : 3173.3694717884064,
        "rating" : 0,
        "departure" : "2026-04-23T14:13:59Z",
        "type" : "visit",
        "arrival" : "2026-04-23T13:21:05Z"
      },
      "geometry" : {
        "type" : "Point",
        "coordinates" : [
          -7.1513195448018978,
          55.293771891854995
        ]
      }
    },
    {
      "geometry" : {
        "coordinates" : [
          -7.2624785680007689,
          55.251720315467267
        ],
        "type" : "Point"
      },
      "properties" : {
        "source" : "Geory 5.3.2",
        "rating" : 0,
        "departure" : "2026-04-23T14:54:38Z",
        "address" : "Station Road, County Donegal, F93 Y46F, Irland",
        "timestamp" : "2026-04-23T14:30:24Z",
        "weather" : "Bedeckter Himmel (16,7 °C)",
        "type" : "visit",
        "device" : "B9E47AEB-E54C-4563-96B6-06995DD4BC56 (iPhone 16 Pro)",
        "arrival" : "2026-04-23T14:30:24Z",
        "duration" : 1454.0006659030914
      },
      "type" : "Feature"
    },
    {
      "geometry" : {
        "coordinates" : [
          -7.332679599895056,
          55.327565244945866
        ],
        "type" : "Point"
      },
      "properties" : {
        "weather" : "Bedeckter Himmel (13,1 °C)",
        "timestamp" : "2026-04-23T15:14:30Z",
        "source" : "Geory 5.3.2",
        "rating" : 0,
        "duration" : 1121.0041389465332,
        "type" : "visit",
        "device" : "B9E47AEB-E54C-4563-96B6-06995DD4BC56 (iPhone 16 Pro)",
        "departure" : "2026-04-23T15:33:11Z",
        "arrival" : "2026-04-23T15:14:30Z",
        "address" : "North Inishowen Coast SAC, County Donegal, Irland"
      },
      "type" : "Feature"
    },
    {
      "geometry" : {
        "coordinates" : [
          -7.3747971940025829,
          55.38038377903532
        ],
        "type" : "Point"
      },
      "type" : "Feature",
      "properties" : {
        "address" : "North Inishowen Coast SAC, County Donegal, Irland",
        "weather" : "Bedeckter Himmel (12,4 °C)",
        "source" : "Geory 5.3.2",
        "timestamp" : "2026-04-23T15:54:10Z",
        "rating" : 0,
        "device" : "B9E47AEB-E54C-4563-96B6-06995DD4BC56 (iPhone 16 Pro)",
        "arrival" : "2026-04-23T15:54:10Z",
        "departure" : "2026-04-23T16:16:21Z",
        "duration" : 1330.9984560012817,
        "type" : "visit"
      }
    },
    {
      "type" : "Feature",
      "properties" : {
        "device" : "B9E47AEB-E54C-4563-96B6-06995DD4BC56 (iPhone 16 Pro)",
        "timestamp" : "2026-04-23T16:22:59Z",
        "arrival" : "2026-04-23T16:22:59Z",
        "duration" : 7785.6955235004425,
        "address" : "Malin Head SPA, Ballygorman, Malin Head, County Donegal, F93 ED30, Irland",
        "source" : "Geory 5.3.2",
        "rating" : 0,
        "type" : "visit",
        "departure" : "2026-04-23T18:32:45Z"
      },
      "geometry" : {
        "type" : "Point",
        "coordinates" : [
          -7.3309080297437585,
          55.367330471584296
        ]
      }
    },
    {
      "properties" : {
        "source" : "Geory 5.3.2",
        "arrival" : "2026-04-23T18:56:41Z",
        "rating" : 0,
        "address" : "Malin Head SPA, Malin Head, County Donegal, F93 ED30, Irland",
        "weather" : "Aufgelockert bewölkt (10,5 °C)",
        "type" : "visit",
        "timestamp" : "2026-04-23T18:56:41Z",
        "departure" : "2026-04-24T09:48:28Z",
        "duration" : 53507.051242113113,
        "device" : "B9E47AEB-E54C-4563-96B6-06995DD4BC56 (iPhone 16 Pro)"
      },
      "type" : "Feature",
      "geometry" : {
        "coordinates" : [
          -7.3308142558244187,
          55.367371335968109
        ],
        "type" : "Point"
      }
    },
    {
      "properties" : {
        "device" : "B9E47AEB-E54C-4563-96B6-06995DD4BC56 (iPhone 16 Pro)",
        "start" : "2026-04-22T22:00:00Z",
        "end" : "2026-04-23T21:59:59Z",
        "source" : "Geory 5.3.2",
        "type" : "route"
      },
      "geometry" : {
        "type" : "LineString",
        "coordinates" : [
          [
            -7.3308142558244187,
            55.367371335968109
          ],
          [
            -7.3289450543131709,
            55.367565659192906
          ],
          [
            -7.3284051057376178,
            55.367651785950024
          ],
          [
            -7.3352439043559716,
            55.371556872665273
          ],
          [
            -7.3350514748737297,
            55.370979890952299
          ],
          [
            -7.32768400601437,
            55.368062470453495
          ],
          [
            -7.3263348640394899,
            55.36815234389514
          ],
          [
            -7.3255863870294533,
            55.368101237394065
          ],
          [
            -7.3252076230591676,
            55.368518686253196
          ],
          [
            -7.3250170161676253,
            55.368170383644134
          ],
          [
            -7.3260329629175196,
            55.368307133986342
          ],
          [
            -7.3309080297437585,
            55.367330471584296
          ],
          [
            -7.3317428500000004,
            55.367536999999992
          ],
          [
            -7.3332687500000002,
            55.367273350000005
          ],
          [
            -7.3339442833333335,
            55.366444166666668
          ],
          [
            -7.3351186000000004,
            55.365719933333338
          ],
          [
            -7.336760299999999,
            55.365492833333334
          ],
          [
            -7.3382876833333341,
            55.366537216666671
          ],
          [
            -7.3384394333333338,
            55.36756101666667
          ],
          [
            -7.3386572000000001,
            55.368949033333337
          ],
          [
            -7.3388181666666652,
            55.370098116666661
          ],
          [
            -7.3389284666666663,
            55.371100766666665
          ],
          [
            -7.340274533333333,
            55.371958283333335
          ],
          [
            -7.3421067666666655,
            55.372787116666657
          ],
          [
            -7.3437979499999999,
            55.373540950000006
          ],
          [
            -7.3454666999999993,
            55.374089533333333
          ],
          [
            -7.3473696833333326,
            55.374463116666661
          ],
          [
            -7.3492487500000001,
            55.374688050000003
          ],
          [
            -7.3508174666666664,
            55.374939099999999
          ],
          [
            -7.3522524017365889,
            55.375428783322519
          ],
          [
            -7.3536805458540142,
            55.375973844446087
          ],
          [
            -7.3549843571854634,
            55.376534482420595
          ],
          [
            -7.356611466666668,
            55.37676793333334
          ],
          [
            -7.3580558333333324,
            55.376373950000001
          ],
          [
            -7.3597208000000007,
            55.376178700000004
          ],
          [
            -7.3612212166666664,
            55.375875733333338
          ],
          [
            -7.3628368666666661,
            55.375675616666662
          ],
          [
            -7.3644880166666669,
            55.375702950000004
          ],
          [
            -7.3652375684826614,
            55.376556230452429
          ],
          [
            -7.3666585066939501,
            55.376967791215442
          ],
          [
            -7.3681759666666666,
            55.377235166666665
          ],
          [
            -7.3747971940025829,
            55.38038377903532
          ],
          [
            -7.3720264666666671,
            55.378464883333329
          ],
          [
            -7.3706022333333339,
            55.377588549999999
          ],
          [
            -7.3694171666666666,
            55.37689910000001
          ],
          [
            -7.3678980333333337,
            55.377168400000002
          ],
          [
            -7.3663399000000007,
            55.376881383333327
          ],
          [
            -7.3650954541353446,
            55.376282309683518
          ],
          [
            -7.3640888333333328,
            55.375502599999997
          ],
          [
            -7.3624615499999999,
            55.375645933333331
          ],
          [
            -7.3609081666666674,
            55.375841300000005
          ],
          [
            -7.3593172666666673,
            55.376192516666663
          ],
          [
            -7.3576549499999997,
            55.376437083333336
          ],
          [
            -7.3560651000000004,
            55.376725033333337
          ],
          [
            -7.354661583333332,
            55.376310683333337
          ],
          [
            -7.353266500000001,
            55.375751999999991
          ],
          [
            -7.3517500000000009,
            55.375298933333333
          ],
          [
            -7.3503067333333334,
            55.374806400000011
          ],
          [
            -7.3486842500000007,
            55.374591049999992
          ],
          [
            -7.3466718666666653,
            55.37429508333333
          ],
          [
            -7.3451168999999998,
            55.37396991666666
          ],
          [
            -7.3437536666666672,
            55.373486433333333
          ],
          [
            -7.3420760666666673,
            55.372735766666665
          ],
          [
            -7.3404736166666664,
            55.372009133333322
          ],
          [
            -7.3391641166666668,
            55.371406383333337
          ],
          [
            -7.3388670333333339,
            55.369994833333337
          ],
          [
            -7.3386237666666663,
            55.368370116666661
          ],
          [
            -7.3384198666666673,
            55.366957466666662
          ],
          [
            -7.3382408000000003,
            55.365642933333326
          ],
          [
            -7.3380530833333335,
            55.36446243333333
          ],
          [
            -7.3378293500000007,
            55.363479533333333
          ],
          [
            -7.3372664666666667,
            55.362637416666672
          ],
          [
            -7.3367718383422531,
            55.361767068979596
          ],
          [
            -7.3382380669703808,
            55.361071100216598
          ],
          [
            -7.3398658332990365,
            55.360291137808012
          ],
          [
            -7.3414342754417437,
            55.359515993323981
          ],
          [
            -7.3427448271012024,
            55.358585180671646
          ],
          [
            -7.3438545986187247,
            55.357621791992322
          ],
          [
            -7.3450932334903669,
            55.356721178280139
          ],
          [
            -7.3461756273556844,
            55.356061512288768
          ],
          [
            -7.3474699962809682,
            55.355453898549797
          ],
          [
            -7.3479105924125241,
            55.354578791746768
          ],
          [
            -7.3480872892009854,
            55.353619801422447
          ],
          [
            -7.34817730532715,
            55.352685334175042
          ],
          [
            -7.3480140000000009,
            55.351522350000003
          ],
          [
            -7.3477476000000008,
            55.350619933333341
          ],
          [
            -7.3469049000000002,
            55.349855499999997
          ],
          [
            -7.3455075166666663,
            55.349348883333334
          ],
          [
            -7.3440119499999996,
            55.349017266666664
          ],
          [
            -7.3427167499999992,
            55.348479349999998
          ],
          [
            -7.3415409333333326,
            55.3478724
          ],
          [
            -7.3410588499999996,
            55.34698933333334
          ],
          [
            -7.340071916666667,
            55.346279716666672
          ],
          [
            -7.3400468666666674,
            55.345348666666659
          ],
          [
            -7.3402644185154031,
            55.344455555011834
          ],
          [
            -7.3419025666666657,
            55.344349133333331
          ],
          [
            -7.343668366666666,
            55.343909533333331
          ],
          [
            -7.3444583666666663,
            55.343293433333336
          ],
          [
            -7.3449664628400759,
            55.342375321606461
          ],
          [
            -7.3454225333333341,
            55.341482166666673
          ],
          [
            -7.3459069970982567,
            55.340599408068591
          ],
          [
            -7.346991459325662,
            55.339943743369922
          ],
          [
            -7.3472620000000006,
            55.339026466666667
          ],
          [
            -7.3472620666666666,
            55.338088933333331
          ],
          [
            -7.3469267166666672,
            55.337169566666674
          ],
          [
            -7.3459063000000002,
            55.336437716666666
          ],
          [
            -7.3452409148389295,
            55.335603563944339
          ],
          [
            -7.3448017046265415,
            55.334701499728197
          ],
          [
            -7.3445984566876614,
            55.333807867783293
          ],
          [
            -7.3436871166666666,
            55.33303901666666
          ],
          [
            -7.3424577745603603,
            55.332428331228598
          ],
          [
            -7.3417484000000002,
            55.331590516666665
          ],
          [
            -7.3404697666666658,
            55.330992683333342
          ],
          [
            -7.3389690666666674,
            55.3303467
          ],
          [
            -7.3376310166666672,
            55.330301133333329
          ],
          [
            -7.3360611000000002,
            55.330200900000001
          ],
          [
            -7.3357564166666673,
            55.328284283333339
          ],
          [
            -7.332679599895056,
            55.327565244945866
          ],
          [
            -7.3319504499999999,
            55.327688000000002
          ],
          [
            -7.330439216666667,
            55.327999950000006
          ],
          [
            -7.3289210499999999,
            55.328293216666665
          ],
          [
            -7.3279165666666666,
            55.328990049999994
          ],
          [
            -7.3264993500000006,
            55.329466166666663
          ],
          [
            -7.3249474333333335,
            55.329261916666674
          ],
          [
            -7.3233329500000002,
            55.329409516666665
          ],
          [
            -7.3218029666666666,
            55.329769100000007
          ],
          [
            -7.3201955499999993,
            55.329690200000009
          ],
          [
            -7.3190923833333335,
            55.328976933333323
          ],
          [
            -7.3178150333333329,
            55.328375533333336
          ],
          [
            -7.3162574666666673,
            55.328579099999999
          ],
          [
            -7.3146881166666669,
            55.328871616666653
          ],
          [
            -7.3130949666666671,
            55.328676300000005
          ],
          [
            -7.3126315666666661,
            55.327749050000001
          ],
          [
            -7.3127354221495811,
            55.326812332701749
          ],
          [
            -7.3133914357837204,
            55.325960765181165
          ],
          [
            -7.3141351598481723,
            55.325165748420623
          ],
          [
            -7.3149544769545178,
            55.324388992226652
          ],
          [
            -7.3163144000000013,
            55.323850433333341
          ],
          [
            -7.317914160750111,
            55.323581675096733
          ],
          [
            -7.3194244503222707,
            55.323275872122402
          ],
          [
            -7.320647053277308,
            55.322299123358356
          ],
          [
            -7.3210798652746005,
            55.321174635357806
          ],
          [
            -7.3213633223788408,
            55.320005544033172
          ],
          [
            -7.3222724376186692,
            55.319198859064826
          ],
          [
            -7.3220284666666666,
            55.320122283333333
          ],
          [
            -7.3229897556988641,
            55.320890403909509
          ],
          [
            -7.3221059166666675,
            55.320087966666669
          ],
          [
            -7.3222941166666651,
            55.319066633333328
          ],
          [
            -7.3225273666666668,
            55.318194083333339
          ],
          [
            -7.3227195499999995,
            55.317631133333329
          ],
          [
            -7.3223303333333334,
            55.31609193333334
          ],
          [
            -7.321161833333333,
            55.314483716666672
          ],
          [
            -7.3203581666666668,
            55.313061449999999
          ],
          [
            -7.3197336833333342,
            55.311912666666665
          ],
          [
            -7.317541433333334,
            55.311479583333323
          ],
          [
            -7.3162049000000007,
            55.31080875
          ],
          [
            -7.3152364333333333,
            55.31044236666667
          ],
          [
            -7.3131299999999992,
            55.309740516666665
          ],
          [
            -7.3114230999999998,
            55.30877843333333
          ],
          [
            -7.3098719000000001,
            55.307897033333333
          ],
          [
            -7.3079083333333337,
            55.306890283333324
          ],
          [
            -7.3051380333333329,
            55.305966733333328
          ],
          [
            -7.3023028666666674,
            55.304901666666666
          ],
          [
            -7.2995819166666669,
            55.303996949999991
          ],
          [
            -7.2970517833333339,
            55.303025566666669
          ],
          [
            -7.2947224500000001,
            55.301791100000003
          ],
          [
            -7.2924960333333333,
            55.300752216666659
          ],
          [
            -7.2895931666666671,
            55.299761400000001
          ],
          [
            -7.2865871000000011,
            55.298735599999993
          ],
          [
            -7.2838375833333338,
            55.297808600000003
          ],
          [
            -7.2811601333333327,
            55.29669676666667
          ],
          [
            -7.2789179495931213,
            55.295511025470297
          ],
          [
            -7.2764598814226096,
            55.294554366026098
          ],
          [
            -7.2738902666666663,
            55.293771333333346
          ],
          [
            -7.2713451000000004,
            55.29316468333333
          ],
          [
            -7.2687565166666674,
            55.293135733333337
          ],
          [
            -7.2665202000000004,
            55.29363273333334
          ],
          [
            -7.2652657166666659,
            55.294431299999999
          ],
          [
            -7.2639626100650441,
            55.294963401064507
          ],
          [
            -7.2623377168344536,
            55.294866157826888
          ],
          [
            -7.2607938406780592,
            55.2946350928054
          ],
          [
            -7.2599236962644982,
            55.293382234342602
          ],
          [
            -7.2592594882003123,
            55.291899135518435
          ],
          [
            -7.2584209027028237,
            55.290257244358592
          ],
          [
            -7.2575052397514908,
            55.288482888177086
          ],
          [
            -7.2567452531349579,
            55.286929131589389
          ],
          [
            -7.2558596209514938,
            55.285232576432016
          ],
          [
            -7.2545380982896157,
            55.283608316562571
          ],
          [
            -7.252723333333333,
            55.282121766666663
          ],
          [
            -7.2505348833333345,
            55.280722516666671
          ],
          [
            -7.2480468333333326,
            55.279749016666663
          ],
          [
            -7.2460894333333332,
            55.278664666666664
          ],
          [
            -7.2458801314140606,
            55.277051436841582
          ],
          [
            -7.2467105524025817,
            55.275485795956413
          ],
          [
            -7.2475644868421698,
            55.273968029835522
          ],
          [
            -7.2484866873732567,
            55.272259582880913
          ],
          [
            -7.2495277048748203,
            55.270372211929569
          ],
          [
            -7.2505145495798633,
            55.268617485550791
          ],
          [
            -7.2514531700780553,
            55.26693903242267
          ],
          [
            -7.2524026034241356,
            55.265291157162665
          ],
          [
            -7.2533920712394853,
            55.263612611976413
          ],
          [
            -7.2541881092175853,
            55.262183138600257
          ],
          [
            -7.2550565086529728,
            55.26066727782905
          ],
          [
            -7.2560934653430822,
            55.259092417121167
          ],
          [
            -7.2566727373819973,
            55.258244252060358
          ],
          [
            -7.257431711674319,
            55.257128129810916
          ],
          [
            -7.2577214231784328,
            55.25670293299877
          ],
          [
            -7.258632848056715,
            55.255374961233883
          ],
          [
            -7.2594464258434375,
            55.254189993535434
          ],
          [
            -7.260804883333333,
            55.253047066666674
          ],
          [
            -7.2624785680007689,
            55.251720315467267
          ],
          [
            -7.26141025,
            55.253062733333337
          ],
          [
            -7.2596843999999994,
            55.252793883333339
          ],
          [
            -7.2580614500000005,
            55.252601366666674
          ],
          [
            -7.2558493499999992,
            55.252316566666664
          ],
          [
            -7.2535950166666661,
            55.251790633333336
          ],
          [
            -7.2506519166666674,
            55.25124113333333
          ],
          [
            -7.2491241666666673,
            55.251454016666671
          ],
          [
            -7.2475840833333338,
            55.252022533333331
          ],
          [
            -7.2466049166666666,
            55.252988166666668
          ],
          [
            -7.2462090833333344,
            55.254003116666667
          ],
          [
            -7.2457153500000002,
            55.254937516666665
          ],
          [
            -7.2447295166666663,
            55.255981216666669
          ],
          [
            -7.2436278499999993,
            55.256905333333336
          ],
          [
            -7.2427982000000002,
            55.257680416666666
          ],
          [
            -7.2406144166666673,
            55.258256866666663
          ],
          [
            -7.2379080000000009,
            55.258374933333336
          ],
          [
            -7.2354221999999995,
            55.259256883333329
          ],
          [
            -7.233465100000001,
            55.260469766666667
          ],
          [
            -7.2314550999999998,
            55.261351916666676
          ],
          [
            -7.2288597000000001,
            55.26204121666666
          ],
          [
            -7.2256446666666667,
            55.262000199999996
          ],
          [
            -7.2223730166666673,
            55.26177058333333
          ],
          [
            -7.2223730166666673,
            55.26177058333333
          ],
          [
            -7.2197315499999997,
            55.260961000000002
          ],
          [
            -7.2173847666666671,
            55.260030283333329
          ],
          [
            -7.214290966666665,
            55.26015743333334
          ],
          [
            -7.2117365666666675,
            55.260891033333337
          ],
          [
            -7.2092123499999996,
            55.261532500000008
          ],
          [
            -7.2060892666666669,
            55.261739549999994
          ],
          [
            -7.2029810166666657,
            55.26202193333333
          ],
          [
            -7.1998344499999991,
            55.262098933333327
          ],
          [
            -7.1969574500000002,
            55.26209205
          ],
          [
            -7.1944400666666679,
            55.261290166666669
          ],
          [
            -7.1921884166666654,
            55.260363516666672
          ],
          [
            -7.1897416000000005,
            55.259799999999991
          ],
          [
            -7.1881678999999998,
            55.258970533333333
          ],
          [
            -7.1863228394082741,
            55.259044139930211
          ],
          [
            -7.1848577333333328,
            55.259780283333335
          ],
          [
            -7.1828235166666676,
            55.260504183333325
          ],
          [
            -7.1805764333333322,
            55.261189600000009
          ],
          [
            -7.1788855999999992,
            55.261838050000009
          ],
          [
            -7.1781593000000008,
            55.263323033333336
          ],
          [
            -7.1774980166666671,
            55.264691016666667
          ],
          [
            -7.1769731166666659,
            55.265773766666669
          ],
          [
            -7.1763477333333343,
            55.267092016666652
          ],
          [
            -7.1756867882587221,
            55.26830350063274
          ],
          [
            -7.1743648001370275,
            55.26925538560544
          ],
          [
            -7.1731896547968557,
            55.269897244673452
          ],
          [
            -7.1712943847138853,
            55.270523178990949
          ],
          [
            -7.1693064315610027,
            55.271212647309177
          ],
          [
            -7.1693064315610027,
            55.271212647309177
          ],
          [
            -7.1678319530344936,
            55.271662780725052
          ],
          [
            -7.1655720711200219,
            55.271903943902274
          ],
          [
            -7.1633334855167901,
            55.272137004307844
          ],
          [
            -7.1611002392270064,
            55.272372574033419
          ],
          [
            -7.1592042960001256,
            55.272579305744095
          ],
          [
            -7.156890888356064,
            55.272922338314373
          ],
          [
            -7.1534624500000001,
            55.273383766666669
          ],
          [
            -7.1531087272485614,
            55.274463505301142
          ],
          [
            -7.1523202807597412,
            55.275593266384583
          ],
          [
            -7.1528407238363343,
            55.277132684426647
          ],
          [
            -7.1533601338823312,
            55.278686480821477
          ],
          [
            -7.1538163986134604,
            55.279989308280456
          ],
          [
            -7.1544372333333346,
            55.281185633333337
          ],
          [
            -7.1562966166666664,
            55.281944033333339
          ],
          [
            -7.157841472872934,
            55.282437459688076
          ],
          [
            -7.1590369384903223,
            55.283288142289763
          ],
          [
            -7.1603512799401674,
            55.283811055383516
          ],
          [
            -7.1619935175929319,
            55.284456722162936
          ],
          [
            -7.1634757997797776,
            55.285015825360496
          ],
          [
            -7.1643110261481979,
            55.285873444838714
          ],
          [
            -7.1635871519172944,
            55.286702410262642
          ],
          [
            -7.1626984500239352,
            55.287610400542192
          ],
          [
            -7.1615469088747128,
            55.288656921755212
          ],
          [
            -7.1603122822582774,
            55.289557971223118
          ],
          [
            -7.1589255366942028,
            55.290178324819671
          ],
          [
            -7.1574958162476188,
            55.290628389810337
          ],
          [
            -7.1571203505101852,
            55.29104641508701
          ],
          [
            -7.1565737174302697,
            55.291407505088763
          ],
          [
            -7.1554894011322254,
            55.292169832617667
          ],
          [
            -7.1529664945019942,
            55.292390419073342
          ],
          [
            -7.1513195448018978,
            55.293771891854995
          ],
          [
            -7.1526415907838627,
            55.294920981836754
          ],
          [
            -7.1572624094445016,
            55.296690351087655
          ],
          [
            -7.1456351125455688,
            55.292711880445005
          ],
          [
            -7.1512684349077613,
            55.293762529644205
          ],
          [
            -7.1553738833333336,
            55.292222266666677
          ],
          [
            -7.1565477500000005,
            55.291462116666665
          ],
          [
            -7.1574507166666663,
            55.29069488333333
          ],
          [
            -7.1596047666666669,
            55.289936699999991
          ],
          [
            -7.1612794333333332,
            55.288967800000002
          ],
          [
            -7.1624093833333324,
            55.28794786666667
          ],
          [
            -7.1633104426885863,
            55.287115551771919
          ],
          [
            -7.163993409512492,
            55.286293765575827
          ],
          [
            -7.164245366666667,
            55.28533976666666
          ],
          [
            -7.1627297333333333,
            55.284660466666672
          ],
          [
            -7.1612803666666665,
            55.284097199999991
          ],
          [
            -7.1599513333333338,
            55.283539516666664
          ],
          [
            -7.1586145697577175,
            55.283000250620503
          ],
          [
            -7.1565826833333324,
            55.283047400000001
          ],
          [
            -7.1542823333333327,
            55.283211183333336
          ],
          [
            -7.1518401333333328,
            55.283384599999998
          ],
          [
            -7.1494059499999993,
            55.283560583333333
          ],
          [
            -7.1471127666666669,
            55.28370386666667
          ],
          [
            -7.144383416666666,
            55.283790466666673
          ],
          [
            -7.1415962333333329,
            55.28392869999999
          ],
          [
            -7.138851250000001,
            55.284100033333331
          ],
          [
            -7.1367000666666671,
            55.284168550000004
          ],
          [
            -7.1350996878227138,
            55.283949919528787
          ],
          [
            -7.1330567833333349,
            55.283708966666673
          ],
          [
            -7.1307146833333332,
            55.283248500000006
          ],
          [
            -7.1283598666666661,
            55.282799466666667
          ],
          [
            -7.1266063666666657,
            55.282471550000004
          ],
          [
            -7.1256589166666666,
            55.28144111666667
          ],
          [
            -7.1249454499999993,
            55.280440883333327
          ],
          [
            -7.1237993333333334,
            55.27968886666666
          ],
          [
            -7.1220284499999993,
            55.279564950000001
          ],
          [
            -7.1198668833333327,
            55.279509249999997
          ],
          [
            -7.1181329500000006,
            55.279459766666662
          ],
          [
            -7.1165656833333326,
            55.278769183333331
          ],
          [
            -7.1152255833333342,
            55.277949000000007
          ],
          [
            -7.11420656420849,
            55.276901845386902
          ],
          [
            -7.1128852833333331,
            55.27618828333334
          ],
          [
            -7.111234866666666,
            55.275564633333332
          ],
          [
            -7.1097894333333329,
            55.275026466666667
          ],
          [
            -7.1081740166666671,
            55.274463883333325
          ],
          [
            -7.1065683499999999,
            55.274024516666671
          ],
          [
            -7.1047851,
            55.273575566666665
          ],
          [
            -7.1028203000000003,
            55.27306955000001
          ],
          [
            -7.1013641999999999,
            55.272523616666668
          ],
          [
            -7.1006419666666654,
            55.271710883333327
          ],
          [
            -7.0998011833333337,
            55.27075026666666
          ],
          [
            -7.0990229166666659,
            55.269833433333332
          ],
          [
            -7.098026383333333,
            55.269044016666676
          ],
          [
            -7.0962966833333327,
            55.269308016666677
          ],
          [
            -7.0946621333333324,
            55.269574116666675
          ],
          [
            -7.0930298499999997,
            55.269847300000002
          ],
          [
            -7.0915119666666673,
            55.27015200000001
          ],
          [
            -7.0899369500000002,
            55.270598400000004
          ],
          [
            -7.0882932833333339,
            55.271074399999996
          ],
          [
            -7.0864395666666669,
            55.271365616666664
          ],
          [
            -7.0848677500000008,
            55.271594283333322
          ],
          [
            -7.0833130000000004,
            55.271796183333329
          ],
          [
            -7.081730966666667,
            55.271667999999998
          ],
          [
            -7.0801964499999999,
            55.271406616666667
          ],
          [
            -7.0786375999999995,
            55.271168516666663
          ],
          [
            -7.0786375999999995,
            55.271168516666663
          ],
          [
            -7.077392266666668,
            55.2717855
          ],
          [
            -7.0761176666666659,
            55.27238018333334
          ],
          [
            -7.0708149279306847,
            55.271945853812376
          ],
          [
            -7.0674655408793656,
            55.272159990974771
          ],
          [
            -7.0707570273401545,
            55.271863612001987
          ],
          [
            -7.0696317087565355,
            55.268137631728223
          ],
          [
            -7.0708083828760895,
            55.271921289133061
          ],
          [
            -7.0708151326972573,
            55.271928537087561
          ],
          [
            -7.0708089179904503,
            55.271969775245495
          ],
          [
            -7.070785981530916,
            55.271931974095885
          ],
          [
            -7.0696457697947457,
            55.268161098858563
          ],
          [
            -7.0709023621376925,
            55.271992173055999
          ],
          [
            -7.0696382214448867,
            55.268140344525577
          ],
          [
            -7.0708074112101835,
            55.271978407825976
          ],
          [
            -7.0696382697950444,
            55.26814034282836
          ],
          [
            -7.0707676709435283,
            55.27194522522403
          ],
          [
            -7.0696376861458399,
            55.268140314731149
          ],
          [
            -7.0706599467970479,
            55.271943430772367
          ],
          [
            -7.0707737067944203,
            55.271965925804146
          ],
          [
            -7.0703791160753093,
            55.271939371541301
          ]
        ]
      },
      "type" : "Feature"
    }
  ],
  "type" : "FeatureCollection"
}