{
  "features" : [
    {
      "geometry" : {
        "type" : "Point",
        "coordinates" : [
          -5.0158142115287525,
          55.747067772989205
        ]
      },
      "properties" : {
        "timestamp" : "2026-05-11T19:40:58Z",
        "source" : "Geory 5.3.2",
        "device" : "B9E47AEB-E54C-4563-96B6-06995DD4BC56 (iPhone 16 Pro)",
        "type" : "visit",
        "duration" : 62154.000238895416,
        "arrival" : "2026-05-11T19:40:58Z",
        "departure" : "2026-05-12T12:56:53Z",
        "weather" : "Überwiegend bewölkt (8,6 °C)",
        "address" : "Isle Of Bute, PA20, Schottland",
        "rating" : 0
      },
      "type" : "Feature"
    },
    {
      "type" : "Feature",
      "properties" : {
        "device" : "B9E47AEB-E54C-4563-96B6-06995DD4BC56 (iPhone 16 Pro)",
        "duration" : 1506.9997625350952,
        "weather" : "Leicht bewölkt (9,9 °C)",
        "type" : "visit",
        "arrival" : "2026-05-12T13:33:39Z",
        "address" : "Isle Of Bute, PA20, Schottland",
        "departure" : "2026-05-12T13:58:46Z",
        "timestamp" : "2026-05-12T13:33:39Z",
        "rating" : 0,
        "source" : "Geory 5.3.2"
      },
      "geometry" : {
        "type" : "Point",
        "coordinates" : [
          -5.004954220846435,
          55.730952192275666
        ]
      }
    },
    {
      "type" : "Feature",
      "geometry" : {
        "type" : "Point",
        "coordinates" : [
          -5.0109023146272005,
          55.729680431671206
        ]
      },
      "properties" : {
        "arrival" : "2026-05-12T13:58:47Z",
        "duration" : 1530.0005145072937,
        "type" : "visit",
        "device" : "B9E47AEB-E54C-4563-96B6-06995DD4BC56 (iPhone 16 Pro)",
        "weather" : "Leicht bewölkt (10,0 °C)",
        "departure" : "2026-05-12T14:24:18Z",
        "timestamp" : "2026-05-12T13:58:47Z",
        "source" : "Geory 5.3.2",
        "address" : "Isle Of Bute, PA20, Schottland",
        "rating" : 0
      }
    },
    {
      "properties" : {
        "device" : "B9E47AEB-E54C-4563-96B6-06995DD4BC56 (iPhone 16 Pro)",
        "duration" : 1026.9998066425323,
        "address" : "Isle Of Bute, PA20, Schottland",
        "weather" : "Leicht bewölkt (13,1 °C)",
        "timestamp" : "2026-05-12T14:30:55Z",
        "arrival" : "2026-05-12T14:30:55Z",
        "source" : "Geory 5.3.2",
        "departure" : "2026-05-12T14:48:01Z",
        "type" : "visit",
        "rating" : 0
      },
      "type" : "Feature",
      "geometry" : {
        "type" : "Point",
        "coordinates" : [
          -5.02019884543299,
          55.7288394613512
        ]
      }
    },
    {
      "properties" : {
        "device" : "B9E47AEB-E54C-4563-96B6-06995DD4BC56 (iPhone 16 Pro)",
        "arrival" : "2026-05-12T14:57:14Z",
        "timestamp" : "2026-05-12T14:57:14Z",
        "duration" : 985.0004768371582,
        "address" : "Isle Of Bute, PA20, Schottland",
        "weather" : "Leicht bewölkt (13,0 °C)",
        "rating" : 0,
        "source" : "Geory 5.3.2",
        "type" : "visit",
        "departure" : "2026-05-12T15:13:39Z"
      },
      "type" : "Feature",
      "geometry" : {
        "coordinates" : [
          -5.0209615758332493,
          55.728661628946831
        ],
        "type" : "Point"
      }
    },
    {
      "geometry" : {
        "type" : "Point",
        "coordinates" : [
          -5.0355837037937601,
          55.736750675936179
        ]
      },
      "type" : "Feature",
      "properties" : {
        "type" : "visit",
        "address" : "Isle Of Bute, PA20, Schottland",
        "duration" : 1585.9993598461151,
        "weather" : "Klarer Himmel (12,8 °C)",
        "rating" : 0,
        "source" : "Geory 5.3.2",
        "arrival" : "2026-05-12T15:33:17Z",
        "timestamp" : "2026-05-12T15:33:17Z",
        "departure" : "2026-05-12T15:59:43Z",
        "device" : "B9E47AEB-E54C-4563-96B6-06995DD4BC56 (iPhone 16 Pro)"
      }
    },
    {
      "geometry" : {
        "coordinates" : [
          -5.0158165908323724,
          55.747069531717351
        ],
        "type" : "Point"
      },
      "type" : "Feature",
      "properties" : {
        "device" : "B9E47AEB-E54C-4563-96B6-06995DD4BC56 (iPhone 16 Pro)",
        "type" : "visit",
        "departure" : "2026-05-13T08:57:46Z",
        "timestamp" : "2026-05-12T17:06:13Z",
        "address" : "Isle Of Bute, PA20, Schottland",
        "arrival" : "2026-05-12T17:06:13Z",
        "weather" : "Regen (10,3 °C)",
        "rating" : 0,
        "duration" : 57092.99941444397,
        "source" : "Geory 5.3.2"
      }
    },
    {
      "properties" : {
        "device" : "B9E47AEB-E54C-4563-96B6-06995DD4BC56 (iPhone 16 Pro)",
        "start" : "2026-05-11T22:00:00Z",
        "type" : "route",
        "end" : "2026-05-12T21:59:59Z",
        "source" : "Geory 5.3.2"
      },
      "type" : "Feature",
      "geometry" : {
        "coordinates" : [
          [
            -5.0158165908323724,
            55.747069531717351
          ],
          [
            -5.0162265943343147,
            55.747121866353652
          ],
          [
            -5.0162485487076758,
            55.747125983375291
          ],
          [
            -5.0173606847909982,
            55.747434393339127
          ],
          [
            -5.018621347472922,
            55.747988240522133
          ],
          [
            -5.0198764633179893,
            55.748544138018261
          ],
          [
            -5.0212317336777517,
            55.749028431017436
          ],
          [
            -5.0224069215182485,
            55.749655582942189
          ],
          [
            -5.0234264515634219,
            55.750357279628226
          ],
          [
            -5.0247131340951929,
            55.750906934646274
          ],
          [
            -5.0260841050691036,
            55.751364966932371
          ],
          [
            -5.0275817733963359,
            55.75105749980348
          ],
          [
            -5.0276738912752572,
            55.750156379690658
          ],
          [
            -5.0283782448640153,
            55.74934919959513
          ],
          [
            -5.029552147480004,
            55.748735011069847
          ],
          [
            -5.0308026148334841,
            55.748165697678274
          ],
          [
            -5.0328233824713582,
            55.747413324180442
          ],
          [
            -5.0353609369591243,
            55.746033429838334
          ],
          [
            -5.0365957076077734,
            55.744867436396042
          ],
          [
            -5.0375315974503678,
            55.743560324480271
          ],
          [
            -5.0373555789396001,
            55.742732917872303
          ],
          [
            -5.0381704884960845,
            55.741998305946801
          ],
          [
            -5.0376161297098081,
            55.741313339085039
          ],
          [
            -5.0369711765197165,
            55.740488011416488
          ],
          [
            -5.0365411314989865,
            55.739620698834017
          ],
          [
            -5.0355837037937601,
            55.736750675936179
          ],
          [
            -5.0316306668869171,
            55.733936098406296
          ],
          [
            -5.0304090822006806,
            55.733574729586707
          ],
          [
            -5.0297640128592755,
            55.73274768051364
          ],
          [
            -5.0283393185885492,
            55.732341474613648
          ],
          [
            -5.0274089169218552,
            55.731602519279285
          ],
          [
            -5.0258248684988489,
            55.730857442461364
          ],
          [
            -5.0251893007252084,
            55.730308273328447
          ],
          [
            -5.0236568547553038,
            55.729179214148644
          ],
          [
            -5.0209615758332493,
            55.728661628946831
          ],
          [
            -5.0198888213798503,
            55.728814480809106
          ],
          [
            -5.0184198528908945,
            55.729185234620239
          ],
          [
            -5.0168922354207268,
            55.729441442370558
          ],
          [
            -5.0153856986347201,
            55.72974112918677
          ],
          [
            -5.0175887203164065,
            55.729437456497976
          ],
          [
            -5.02019884543299,
            55.7288394613512
          ],
          [
            -5.0180821167829732,
            55.729311482658979
          ],
          [
            -5.0164978020845474,
            55.729442937986789
          ],
          [
            -5.0149538338636841,
            55.729678205604856
          ],
          [
            -5.0109023146272005,
            55.729680431671206
          ],
          [
            -5.004954220846435,
            55.730952192275666
          ],
          [
            -5.004756362562115,
            55.733034916614891
          ],
          [
            -5.0052598961343957,
            55.733759737633555
          ],
          [
            -5.005610487798589,
            55.734643644651058
          ],
          [
            -5.0055067410871317,
            55.735541945258866
          ],
          [
            -5.0060779546597942,
            55.736877567993027
          ],
          [
            -5.0060411564714213,
            55.737468002068596
          ],
          [
            -5.0066299247901478,
            55.738517054020853
          ],
          [
            -5.0070129763791584,
            55.73938914240582
          ],
          [
            -5.0080388329066015,
            55.740084872764584
          ],
          [
            -5.0087242037796518,
            55.740904086199343
          ],
          [
            -5.0092482737850048,
            55.741754151517434
          ],
          [
            -5.0097662284659599,
            55.742608899100517
          ],
          [
            -5.0102908919995945,
            55.743457841823201
          ],
          [
            -5.0110985184171515,
            55.744234852988242
          ],
          [
            -5.0121510690516384,
            55.744910995535328
          ],
          [
            -5.013012038469304,
            55.74554111103896
          ],
          [
            -5.0137519232323173,
            55.745728934135236
          ],
          [
            -5.0158142115287525,
            55.747067772989205
          ]
        ],
        "type" : "LineString"
      }
    }
  ],
  "type" : "FeatureCollection"
}