{
  "type" : "FeatureCollection",
  "features" : [
    {
      "type" : "Feature",
      "properties" : {
        "timestamp" : "2026-09-12T22:59:54Z",
        "rating" : 0,
        "address" : "9 West Braes, Pittenweem, Anstruther, KY10, Schottland",
        "device" : "B9E47AEB-E54C-4563-96B6-06995DD4BC56 (iPhone 16 Pro)",
        "source" : "Geory 5.3.2",
        "weather" : "Überwiegend bewölkt (14,0 °C)",
        "duration" : 37822.835360050201,
        "departure" : "2026-09-13T09:30:16Z",
        "type" : "visit",
        "arrival" : "2026-09-12T22:59:54Z"
      },
      "geometry" : {
        "coordinates" : [
          -2.7362583825971005,
          56.211610506803822
        ],
        "type" : "Point"
      }
    },
    {
      "geometry" : {
        "type" : "Point",
        "coordinates" : [
          -2.8117994410546765,
          56.187510133909072
        ]
      },
      "type" : "Feature",
      "properties" : {
        "timestamp" : "2026-09-13T09:39:51Z",
        "type" : "visit",
        "weather" : "Bedeckter Himmel (15,1 °C)",
        "arrival" : "2026-09-13T09:39:51Z",
        "device" : "B9E47AEB-E54C-4563-96B6-06995DD4BC56 (iPhone 16 Pro)",
        "duration" : 2718.9162068367004,
        "address" : "Admiralty Lane, Elie, Leven, KY9, Schottland",
        "rating" : 0,
        "departure" : "2026-09-13T10:25:10Z",
        "source" : "Geory 5.3.2"
      }
    },
    {
      "properties" : {
        "weather" : "Bedeckter Himmel (16,9 °C)",
        "departure" : "2026-09-13T13:43:18Z",
        "rating" : 0,
        "type" : "visit",
        "source" : "Geory 5.3.2",
        "duration" : 7682.0111470222473,
        "timestamp" : "2026-09-13T11:35:16Z",
        "address" : "The Bowhouse, St. Monans, St Monans, Anstruther, KY10 2FB, Schottland",
        "device" : "B9E47AEB-E54C-4563-96B6-06995DD4BC56 (iPhone 16 Pro)",
        "arrival" : "2026-09-13T11:35:16Z"
      },
      "geometry" : {
        "type" : "Point",
        "coordinates" : [
          -2.7830184219942398,
          56.205104586891046
        ]
      },
      "type" : "Feature"
    },
    {
      "geometry" : {
        "coordinates" : [
          -2.7940189457567195,
          56.196928193290105
        ],
        "type" : "Point"
      },
      "properties" : {
        "departure" : "2026-09-13T14:43:16Z",
        "duration" : 2266.5416448116302,
        "source" : "Geory 5.3.2",
        "device" : "B9E47AEB-E54C-4563-96B6-06995DD4BC56 (iPhone 16 Pro)",
        "weather" : "Bedeckter Himmel (15,3 °C)",
        "rating" : 0,
        "arrival" : "2026-09-13T14:05:29Z",
        "address" : "A917, Ardross, Elie, Leven, KY9, Schottland",
        "timestamp" : "2026-09-13T14:05:29Z",
        "type" : "visit"
      },
      "type" : "Feature"
    },
    {
      "type" : "Feature",
      "geometry" : {
        "type" : "Point",
        "coordinates" : [
          -2.7990721369985136,
          56.193493079392063
        ]
      },
      "properties" : {
        "duration" : 2379.7276620864868,
        "arrival" : "2026-09-13T14:43:17Z",
        "rating" : 0,
        "departure" : "2026-09-13T15:22:56Z",
        "address" : "Firth of Forth, Schottland",
        "type" : "visit",
        "source" : "Geory 5.3.2",
        "timestamp" : "2026-09-13T14:43:17Z",
        "weather" : "Bedeckter Himmel (17,1 °C)",
        "device" : "B9E47AEB-E54C-4563-96B6-06995DD4BC56 (iPhone 16 Pro)"
      }
    },
    {
      "properties" : {
        "timestamp" : "2026-09-13T15:43:40Z",
        "arrival" : "2026-09-13T15:43:40Z",
        "weather" : "Bedeckter Himmel (17,0 °C)",
        "rating" : 0,
        "departure" : "2026-09-13T18:24:07Z",
        "type" : "visit",
        "duration" : 9626.5809965133667,
        "source" : "Geory 5.3.2",
        "device" : "B9E47AEB-E54C-4563-96B6-06995DD4BC56 (iPhone 16 Pro)",
        "address" : "Admiralty Lane, Elie, Leven, KY9, Schottland"
      },
      "geometry" : {
        "type" : "Point",
        "coordinates" : [
          -2.812326102161983,
          56.187217811259515
        ]
      },
      "type" : "Feature"
    },
    {
      "properties" : {
        "source" : "Geory 5.3.2",
        "device" : "B9E47AEB-E54C-4563-96B6-06995DD4BC56 (iPhone 16 Pro)",
        "arrival" : "2026-09-13T18:24:31Z",
        "rating" : 0,
        "duration" : 1682.3310680389404,
        "address" : "8–62 Toft, Elie, Leven, KY9, Schottland",
        "departure" : "2026-09-13T18:52:34Z",
        "timestamp" : "2026-09-13T18:24:31Z",
        "weather" : "Bedeckter Himmel (14,8 °C)",
        "type" : "visit"
      },
      "type" : "Feature",
      "geometry" : {
        "type" : "Point",
        "coordinates" : [
          -2.8160319467303543,
          56.187003969992809
        ]
      }
    },
    {
      "geometry" : {
        "type" : "Point",
        "coordinates" : [
          -2.811542712168535,
          56.187440777368813
        ]
      },
      "properties" : {
        "duration" : 10966.965712785721,
        "rating" : 0,
        "timestamp" : "2026-09-13T18:56:49Z",
        "weather" : "Bedeckter Himmel (14,5 °C)",
        "type" : "visit",
        "device" : "B9E47AEB-E54C-4563-96B6-06995DD4BC56 (iPhone 16 Pro)",
        "departure" : "2026-09-13T21:59:36Z",
        "source" : "Geory 5.3.2",
        "arrival" : "2026-09-13T18:56:49Z",
        "address" : "Admiralty Lane, Elie, Leven, KY9, Schottland"
      },
      "type" : "Feature"
    },
    {
      "properties" : {
        "weather" : "Bedeckter Himmel (14,4 °C)",
        "timestamp" : "2026-09-13T22:03:45Z",
        "source" : "Geory 5.3.2",
        "duration" : 5030.9815828800201,
        "rating" : 0,
        "device" : "B9E47AEB-E54C-4563-96B6-06995DD4BC56 (iPhone 16 Pro)",
        "type" : "visit",
        "arrival" : "2026-09-13T22:03:45Z",
        "address" : "Admiralty Lane, Elie, Leven, KY9, Schottland",
        "departure" : "2026-09-13T23:27:36Z"
      },
      "geometry" : {
        "type" : "Point",
        "coordinates" : [
          -2.8122834985011482,
          56.187768451076636
        ]
      },
      "type" : "Feature"
    },
    {
      "type" : "Feature",
      "geometry" : {
        "type" : "LineString",
        "coordinates" : [
          [
            -2.8122834985011482,
            56.187768451076636
          ],
          [
            -2.8116109993485612,
            56.187488733427962
          ],
          [
            -2.814554345494213,
            56.188664199828203
          ],
          [
            -2.811542712168535,
            56.187440777368813
          ],
          [
            -2.8160319467303543,
            56.187003969992809
          ],
          [
            -2.812326102161983,
            56.187217811259515
          ],
          [
            -2.8105580181365974,
            56.187176831179698
          ],
          [
            -2.8095074490484988,
            56.186835161688506
          ],
          [
            -2.8080996200894708,
            56.187054950673492
          ],
          [
            -2.8067358697845597,
            56.187580732798757
          ],
          [
            -2.8047270910139201,
            56.188725204270639
          ],
          [
            -2.8034710435052377,
            56.189313850069013
          ],
          [
            -2.8034710435052377,
            56.189313850069013
          ],
          [
            -2.8028490410943587,
            56.190585103872941
          ],
          [
            -2.8017777901046546,
            56.191358050103794
          ],
          [
            -2.7990721369985136,
            56.193493079392063
          ],
          [
            -2.7940189457567195,
            56.196928193290105
          ],
          [
            -2.7891222655400281,
            56.197234612057272
          ],
          [
            -2.7874918903627672,
            56.197842027453554
          ],
          [
            -2.7864903036462962,
            56.198713824473238
          ],
          [
            -2.7851150669323328,
            56.199413125536488
          ],
          [
            -2.7828638916644226,
            56.200230962159935
          ],
          [
            -2.7816448047378159,
            56.200871966967561
          ],
          [
            -2.7790046573353675,
            56.201128930874425
          ],
          [
            -2.7781279405445432,
            56.201410830509552
          ],
          [
            -2.7778461111826496,
            56.201700300376395
          ],
          [
            -2.7777682874113578,
            56.202971418458752
          ],
          [
            -2.7830184219942398,
            56.205104586891046
          ],
          [
            -2.7775526555156702,
            56.202829137740011
          ],
          [
            -2.7776372349598932,
            56.2019487391279
          ],
          [
            -2.7784776941474871,
            56.201256091590338
          ],
          [
            -2.7826206309870947,
            56.200286928346138
          ],
          [
            -2.7830750758696645,
            56.199422623874419
          ],
          [
            -2.7853039120108138,
            56.19926048705053
          ],
          [
            -2.7870017735481367,
            56.198354272847006
          ],
          [
            -2.7882486073488115,
            56.19761120703874
          ],
          [
            -2.7882486073488115,
            56.19761120703874
          ],
          [
            -2.7912681366613303,
            56.197388946507189
          ],
          [
            -2.7940762037551581,
            56.196661238551023
          ],
          [
            -2.795536118992235,
            56.195451120946423
          ],
          [
            -2.797243295707633,
            56.194848379474003
          ],
          [
            -2.798803585400413,
            56.193626530107409
          ],
          [
            -2.8016396727856647,
            56.191323875657901
          ],
          [
            -2.8028582365070118,
            56.190239228937273
          ],
          [
            -2.8036975000690556,
            56.188864326037468
          ],
          [
            -2.8050492997596059,
            56.188342277775725
          ],
          [
            -2.8069087489231537,
            56.187422606199732
          ],
          [
            -2.8081361298256988,
            56.187016006982233
          ],
          [
            -2.8110094618241703,
            56.187232021475801
          ],
          [
            -2.8117994410546765,
            56.187510133909072
          ],
          [
            -2.8146963841791437,
            56.188510712176857
          ],
          [
            -2.8143051333333333,
            56.18941783333333
          ],
          [
            -2.8149121633345278,
            56.190549513244648
          ],
          [
            -2.8155389333333334,
            56.191445099999996
          ],
          [
            -2.8137218333333336,
            56.192131633333339
          ],
          [
            -2.8111851666666663,
            56.192644050000013
          ],
          [
            -2.8085685499999999,
            56.193045083333331
          ],
          [
            -2.8057654166666666,
            56.193474249999994
          ],
          [
            -2.8032350500000005,
            56.193877299999997
          ],
          [
            -2.8005742666666671,
            56.194505183333327
          ],
          [
            -2.7981904499999999,
            56.195376833333334
          ],
          [
            -2.7974225833333337,
            56.195762133333332
          ],
          [
            -2.7960713833333335,
            56.196437016666671
          ],
          [
            -2.7943212933117096,
            56.197598136815763
          ],
          [
            -2.7928577076569545,
            56.198809298022475
          ],
          [
            -2.7912495031577924,
            56.200141898382462
          ],
          [
            -2.789746060230184,
            56.201370639869289
          ],
          [
            -2.7875671166666667,
            56.202435749999999
          ],
          [
            -2.78536955,
            56.203328333333339
          ],
          [
            -2.7831450333333332,
            56.204049583333337
          ],
          [
            -2.7810404499999999,
            56.20457638333334
          ],
          [
            -2.7786732166666668,
            56.205156599999995
          ],
          [
            -2.7766801909705028,
            56.205902966746642
          ],
          [
            -2.7746890923322995,
            56.206800436553522
          ],
          [
            -2.7724329000000005,
            56.207541899999995
          ],
          [
            -2.7701286607279858,
            56.207938825291734
          ],
          [
            -2.7677826231297877,
            56.207957950090815
          ],
          [
            -2.7657545948548665,
            56.207891870180099
          ],
          [
            -2.7637847166666663,
            56.207829833333335
          ],
          [
            -2.7621218768039979,
            56.207961751252171
          ],
          [
            -2.7600243999999998,
            56.208367333333342
          ],
          [
            -2.7574530166666666,
            56.208952833333328
          ],
          [
            -2.7551080666666667,
            56.209475433333331
          ],
          [
            -2.7528451,
            56.209966916666666
          ],
          [
            -2.7510502833333335,
            56.210559866666671
          ],
          [
            -2.7494768851995772,
            56.211560567533375
          ],
          [
            -2.7480661224425544,
            56.212196128549429
          ],
          [
            -2.7462054529912123,
            56.212787618740897
          ],
          [
            -2.744343101300267,
            56.212963059113036
          ],
          [
            -2.742624446922588,
            56.213217529163956
          ],
          [
            -2.7404400500000001,
            56.212854850000006
          ],
          [
            -2.7390429872589448,
            56.213723781818572
          ],
          [
            -2.7377528835506721,
            56.214324159275627
          ],
          [
            -2.7361242682620008,
            56.214582643432522
          ],
          [
            -2.734514548922192,
            56.214437550431043
          ],
          [
            -2.7334351398929284,
            56.213722235847612
          ],
          [
            -2.734910933333333,
            56.213328350000005
          ],
          [
            -2.7362583825971005,
            56.211610506803822
          ]
        ]
      },
      "properties" : {
        "end" : "2026-09-13T22:59:59Z",
        "start" : "2026-09-12T23:00:00Z",
        "device" : "B9E47AEB-E54C-4563-96B6-06995DD4BC56 (iPhone 16 Pro)",
        "source" : "Geory 5.3.2",
        "type" : "route"
      }
    }
  ]
}