{
  "features" : [
    {
      "type" : "Feature",
      "geometry" : {
        "type" : "Point",
        "coordinates" : [
          -3.3855447670693528,
          58.873333436839602
        ]
      },
      "properties" : {
        "timestamp" : "2026-09-25T15:31:08Z",
        "arrival" : "2026-09-25T15:31:08Z",
        "duration" : 60913.999618053436,
        "type" : "visit",
        "weather" : "Aufgelockert bewölkt (13,8 °C)",
        "rating" : 0,
        "address" : "Hoy, Orkney Islands, Schottland",
        "device" : "B9E47AEB-E54C-4563-96B6-06995DD4BC56 (iPhone 16 Pro)",
        "source" : "Geory 5.3.2",
        "departure" : "2026-09-26T08:26:22Z"
      }
    },
    {
      "properties" : {
        "type" : "visit",
        "arrival" : "2026-09-26T09:00:51Z",
        "timestamp" : "2026-09-26T09:00:51Z",
        "address" : "B9048, Lyness, Stromness, KW16, Schottland",
        "weather" : "Überwiegend bewölkt (11,7 °C)",
        "rating" : 0,
        "source" : "Geory 5.3.2",
        "device" : "B9E47AEB-E54C-4563-96B6-06995DD4BC56 (iPhone 16 Pro)",
        "duration" : 2479.7303581237793,
        "departure" : "2026-09-26T09:42:11Z"
      },
      "type" : "Feature",
      "geometry" : {
        "coordinates" : [
          -3.1949263608864658,
          58.83367848944836
        ],
        "type" : "Point"
      }
    },
    {
      "properties" : {
        "source" : "Geory 5.3.2",
        "timestamp" : "2026-09-26T10:56:47Z",
        "address" : "Point of Ness Caravan & Camping Site, Ness Road, Stromness, KW16, Schottland",
        "weather" : "Aufgelockert bewölkt (13,4 °C)",
        "device" : "B9E47AEB-E54C-4563-96B6-06995DD4BC56 (iPhone 16 Pro)",
        "rating" : 0,
        "type" : "visit",
        "duration" : 4227.5158524513245,
        "arrival" : "2026-09-26T10:56:47Z",
        "departure" : "2026-09-26T12:07:14Z"
      },
      "type" : "Feature",
      "geometry" : {
        "coordinates" : [
          -3.2955131622620875,
          58.952555317397994
        ],
        "type" : "Point"
      }
    },
    {
      "geometry" : {
        "type" : "Point",
        "coordinates" : [
          -3.2952739111432141,
          58.952518691936774
        ]
      },
      "type" : "Feature",
      "properties" : {
        "timestamp" : "2026-09-26T12:21:04Z",
        "address" : "Point of Ness Caravan & Camping Site, Ness Road, Stromness, KW16, Schottland",
        "source" : "Geory 5.3.2",
        "type" : "visit",
        "duration" : 2604.4539103507996,
        "arrival" : "2026-09-26T12:21:04Z",
        "rating" : 0,
        "device" : "B9E47AEB-E54C-4563-96B6-06995DD4BC56 (iPhone 16 Pro)",
        "departure" : "2026-09-26T13:04:28Z",
        "weather" : "Aufgelockert bewölkt (14,5 °C)"
      }
    },
    {
      "type" : "Feature",
      "properties" : {
        "timestamp" : "2026-09-26T13:34:50Z",
        "departure" : "2026-09-26T14:22:28Z",
        "address" : "Stones of Stenness, Stromness, KW16, Schottland",
        "rating" : 0,
        "duration" : 2857.9996092319489,
        "source" : "Geory 5.3.2",
        "type" : "visit",
        "device" : "B9E47AEB-E54C-4563-96B6-06995DD4BC56 (iPhone 16 Pro)",
        "arrival" : "2026-09-26T13:34:50Z",
        "weather" : "Überwiegend bewölkt (15,0 °C)"
      },
      "geometry" : {
        "type" : "Point",
        "coordinates" : [
          -3.208227231919357,
          58.993861970585279
        ]
      }
    },
    {
      "geometry" : {
        "coordinates" : [
          -3.2297716052156047,
          59.001968712066422
        ],
        "type" : "Point"
      },
      "type" : "Feature",
      "properties" : {
        "duration" : 2378.0006055831909,
        "departure" : "2026-09-26T15:07:40Z",
        "arrival" : "2026-09-26T14:28:01Z",
        "type" : "visit",
        "address" : "The Ring of Brodgar, Stromness, KW16, Schottland",
        "weather" : "Bedeckter Himmel (15,0 °C)",
        "source" : "Geory 5.3.2",
        "device" : "B9E47AEB-E54C-4563-96B6-06995DD4BC56 (iPhone 16 Pro)",
        "timestamp" : "2026-09-26T14:28:01Z",
        "rating" : 0
      }
    },
    {
      "type" : "Feature",
      "geometry" : {
        "type" : "Point",
        "coordinates" : [
          -3.29844252109215,
          58.962746791977565
        ]
      },
      "properties" : {
        "arrival" : "2026-09-26T15:55:06Z",
        "duration" : 3502.7186970710754,
        "timestamp" : "2026-09-26T15:55:06Z",
        "address" : "38 Victoria Street, Stromness, KW16 3AA, Schottland",
        "source" : "Geory 5.3.2",
        "departure" : "2026-09-26T16:53:28Z",
        "type" : "visit",
        "weather" : "Bedeckter Himmel (14,3 °C)",
        "device" : "B9E47AEB-E54C-4563-96B6-06995DD4BC56 (iPhone 16 Pro)",
        "rating" : 0
      }
    },
    {
      "properties" : {
        "type" : "visit",
        "arrival" : "2026-09-26T16:58:02Z",
        "duration" : 1321.7490859031677,
        "departure" : "2026-09-26T17:20:03Z",
        "timestamp" : "2026-09-26T16:58:02Z",
        "device" : "B9E47AEB-E54C-4563-96B6-06995DD4BC56 (iPhone 16 Pro)",
        "rating" : 0,
        "weather" : "Bedeckter Himmel (13,9 °C)",
        "source" : "Geory 5.3.2",
        "address" : "Point of Ness Caravan & Camping Site, Ness Road, Stromness, KW16, Schottland"
      },
      "type" : "Feature",
      "geometry" : {
        "type" : "Point",
        "coordinates" : [
          -3.2944599677646433,
          58.952382709053005
        ]
      }
    },
    {
      "type" : "Feature",
      "properties" : {
        "arrival" : "2026-09-26T17:35:54Z",
        "weather" : "Bedeckter Himmel (13,4 °C)",
        "source" : "Geory 5.3.2",
        "device" : "B9E47AEB-E54C-4563-96B6-06995DD4BC56 (iPhone 16 Pro)",
        "address" : "Back Road, Stromness, KW16, Schottland",
        "duration" : 1654.4227755069733,
        "rating" : 0,
        "type" : "visit",
        "departure" : "2026-09-26T18:03:28Z",
        "timestamp" : "2026-09-26T17:35:54Z"
      },
      "geometry" : {
        "coordinates" : [
          -3.3084519251090958,
          58.950227049558308
        ],
        "type" : "Point"
      }
    },
    {
      "type" : "Feature",
      "geometry" : {
        "coordinates" : [
          -3.2944277447321846,
          58.952384001269749
        ],
        "type" : "Point"
      },
      "properties" : {
        "rating" : 0,
        "arrival" : "2026-09-26T18:22:30Z",
        "departure" : "2026-09-26T18:46:05Z",
        "device" : "B9E47AEB-E54C-4563-96B6-06995DD4BC56 (iPhone 16 Pro)",
        "type" : "visit",
        "source" : "Geory 5.3.2",
        "duration" : 1414.9245052337646,
        "weather" : "Bedeckter Himmel (13,4 °C)",
        "timestamp" : "2026-09-26T18:22:30Z",
        "address" : "Point of Ness Caravan & Camping Site, Ness Road, Stromness, KW16, Schottland"
      }
    },
    {
      "geometry" : {
        "type" : "Point",
        "coordinates" : [
          -3.2943255466349957,
          58.952387880532058
        ]
      },
      "properties" : {
        "duration" : 53215.108727693558,
        "timestamp" : "2026-09-26T18:59:51Z",
        "address" : "Point of Ness Caravan & Camping Site, Ness Road, Stromness, KW16, Schottland",
        "arrival" : "2026-09-26T18:59:51Z",
        "type" : "visit",
        "rating" : 0,
        "source" : "Geory 5.3.2",
        "departure" : "2026-09-27T09:46:46Z",
        "device" : "B9E47AEB-E54C-4563-96B6-06995DD4BC56 (iPhone 16 Pro)",
        "weather" : "Überwiegend bewölkt (12,8 °C)"
      },
      "type" : "Feature"
    },
    {
      "geometry" : {
        "type" : "LineString",
        "coordinates" : [
          [
            -3.2943255466349957,
            58.952387880532058
          ],
          [
            -3.2943484021429832,
            58.952414714613312
          ],
          [
            -3.2945034329510361,
            58.952226371343734
          ],
          [
            -3.2943346003661165,
            58.952260063124328
          ],
          [
            -3.2944277447321846,
            58.952384001269749
          ],
          [
            -3.294687107363214,
            58.952254156892707
          ],
          [
            -3.294687107363214,
            58.952254156892707
          ],
          [
            -3.3020785265585619,
            58.950185259844545
          ],
          [
            -3.3043008728876573,
            58.950017006893397
          ],
          [
            -3.3084519251090958,
            58.950227049558308
          ],
          [
            -3.3083943969457725,
            58.950350138348362
          ],
          [
            -3.3079893019817237,
            58.950322670006791
          ],
          [
            -3.3018753063119548,
            58.950284513967723
          ],
          [
            -3.2944599677646433,
            58.952382709053005
          ],
          [
            -3.2982373670634337,
            58.953400542976425
          ],
          [
            -3.2995524590630061,
            58.954038090921067
          ],
          [
            -3.3004170531991623,
            58.954825035136814
          ],
          [
            -3.3005820597549551,
            58.955743485719395
          ],
          [
            -3.3008791204686778,
            58.956642858863681
          ],
          [
            -3.3012064533113921,
            58.957544245202158
          ],
          [
            -3.3008814742580239,
            58.958432169893662
          ],
          [
            -3.300737118969995,
            58.959410220286927
          ],
          [
            -3.3001885254210492,
            58.960209838126893
          ],
          [
            -3.29844252109215,
            58.962746791977565
          ],
          [
            -3.2971606348121014,
            58.963556165175227
          ],
          [
            -3.2964971235098735,
            58.964402373341166
          ],
          [
            -3.2957798496257449,
            58.965223958641779
          ],
          [
            -3.2951321157051701,
            58.966073548787527
          ],
          [
            -3.2943909889090279,
            58.966925324579627
          ],
          [
            -3.2938345163523395,
            58.967807065374025
          ],
          [
            -3.2935945346054036,
            58.968717064780648
          ],
          [
            -3.2937050170303621,
            58.969660606157163
          ],
          [
            -3.2932942071307165,
            58.970535828016601
          ],
          [
            -3.292614270804703,
            58.971425310884968
          ],
          [
            -3.2915868644162196,
            58.972203665974327
          ],
          [
            -3.2903012940924143,
            58.972810828489067
          ],
          [
            -3.2892167192233237,
            58.97353209559094
          ],
          [
            -3.2887794787042735,
            58.974411529028337
          ],
          [
            -3.2883981955761055,
            58.97531203894183
          ],
          [
            -3.2880209646433021,
            58.976211251252536
          ],
          [
            -3.2876479414562096,
            58.977105908011772
          ],
          [
            -3.2874368946126786,
            58.977597362122154
          ],
          [
            -3.287245593573795,
            58.978053404581168
          ],
          [
            -3.2867982214880245,
            58.978964395061553
          ],
          [
            -3.2883213397454116,
            58.979422775668674
          ],
          [
            -3.2896848915039945,
            58.980039789226261
          ],
          [
            -3.2906440316553693,
            58.980851180833099
          ],
          [
            -3.2907207815075128,
            58.981788821079469
          ],
          [
            -3.290662019887435,
            58.982701917252847
          ],
          [
            -3.2905834833955003,
            58.983647279785558
          ],
          [
            -3.2905148522135872,
            58.984565953863815
          ],
          [
            -3.2904308751334805,
            58.985478568265471
          ],
          [
            -3.2903620151996864,
            58.986403113748949
          ],
          [
            -3.2902828488837912,
            58.987329883989084
          ],
          [
            -3.2901973877824076,
            58.988261325350273
          ],
          [
            -3.2901251090502126,
            58.98920507256399
          ],
          [
            -3.2900502130263907,
            58.99013101620676
          ],
          [
            -3.2900842033785223,
            58.991072114809292
          ],
          [
            -3.2905822371803479,
            58.991959980711179
          ],
          [
            -3.2911796313443804,
            58.992890569680327
          ],
          [
            -3.2917556424169656,
            58.993692749884808
          ],
          [
            -3.292567120423926,
            58.994545901722255
          ],
          [
            -3.2930075216457357,
            58.995427214348958
          ],
          [
            -3.2930637763838799,
            58.996364217546102
          ],
          [
            -3.2930125231701828,
            58.997291587438816
          ],
          [
            -3.2946650655540703,
            58.997597995870599
          ],
          [
            -3.2964132658333889,
            58.997704136763993
          ],
          [
            -3.2976119210102373,
            58.998406121783454
          ],
          [
            -3.2984026082891753,
            58.999306804154536
          ],
          [
            -3.2997703371933449,
            58.999962995307513
          ],
          [
            -3.3009543417156997,
            59.000679225608636
          ],
          [
            -3.3023039332163577,
            59.001296656077265
          ],
          [
            -3.3034697286928267,
            59.002008614761735
          ],
          [
            -3.3046013951740827,
            59.002711593139594
          ],
          [
            -3.3057402033182628,
            59.003395533283445
          ],
          [
            -3.3071329676175885,
            59.004240618285777
          ],
          [
            -3.3080324718938603,
            59.004788145410899
          ],
          [
            -3.3086592689457013,
            59.005626624240357
          ],
          [
            -3.3071944306000849,
            59.006128177237059
          ],
          [
            -3.306124898140463,
            59.006880534760562
          ],
          [
            -3.3051863805387245,
            59.007636847173359
          ],
          [
            -3.3040363689149821,
            59.00836306568393
          ],
          [
            -3.3027675500350351,
            59.008977845253938
          ],
          [
            -3.3020435662625243,
            59.009842092300836
          ],
          [
            -3.3008484111883565,
            59.0105325018462
          ],
          [
            -3.3000931189158522,
            59.011368280825025
          ],
          [
            -3.3007559362827235,
            59.012228307161877
          ],
          [
            -3.3011579913775493,
            59.01311821519743
          ],
          [
            -3.3022144577565506,
            59.013853612161945
          ],
          [
            -3.3031601751237729,
            59.014636806856004
          ],
          [
            -3.3029779352575237,
            59.015563347674465
          ],
          [
            -3.3014472145288885,
            59.016017963864797
          ],
          [
            -3.2998581328207153,
            59.016439085326517
          ],
          [
            -3.298187813590554,
            59.016794469785474
          ],
          [
            -3.2964979844256703,
            59.017157971703611
          ],
          [
            -3.2947761056841132,
            59.017492017214373
          ],
          [
            -3.2930262089727131,
            59.017470161192307
          ],
          [
            -3.2912015233050216,
            59.017441119560935
          ],
          [
            -3.2893671190779936,
            59.017331762096539
          ],
          [
            -3.287647421252557,
            59.016991062064875
          ],
          [
            -3.2859674532566667,
            59.016635087285295
          ],
          [
            -3.2842249249051139,
            59.016346813616522
          ],
          [
            -3.2824077764349884,
            59.016454506027642
          ],
          [
            -3.2805519140894464,
            59.016580947941087
          ],
          [
            -3.2788985140099878,
            59.01665460163111
          ],
          [
            -3.2770913621051405,
            59.016713794893242
          ],
          [
            -3.2753134320789177,
            59.016770808454517
          ],
          [
            -3.2735665236244835,
            59.016830579903974
          ],
          [
            -3.2717303517143073,
            59.0168916181292
          ],
          [
            -3.2699310693975927,
            59.016950375817352
          ],
          [
            -3.2681018790235439,
            59.017012412880646
          ],
          [
            -3.2663372850193646,
            59.016783509209624
          ],
          [
            -3.264570648906691,
            59.016938168393501
          ],
          [
            -3.2628910101817756,
            59.017183144783161
          ],
          [
            -3.2611225273193551,
            59.017241908672538
          ],
          [
            -3.2593244052615744,
            59.017304239975097
          ],
          [
            -3.2575515661467911,
            59.017254700832339
          ],
          [
            -3.255976905988569,
            59.016131060291826
          ],
          [
            -3.2554581915159,
            59.015757727417522
          ],
          [
            -3.2544851839846376,
            59.01498596325888
          ],
          [
            -3.2537176430914307,
            59.014152462471259
          ],
          [
            -3.2528967585805839,
            59.0133484241045
          ],
          [
            -3.2514047083927471,
            59.012819212521769
          ],
          [
            -3.2496810211838234,
            59.012583677477195
          ],
          [
            -3.2479187511970706,
            59.012392480675615
          ],
          [
            -3.2461669489272684,
            59.012204371818932
          ],
          [
            -3.2445452229360119,
            59.011858420422762
          ],
          [
            -3.2433756758160786,
            59.011176464460952
          ],
          [
            -3.2424899355532597,
            59.010369097653808
          ],
          [
            -3.2416162365912147,
            59.009546159892786
          ],
          [
            -3.2407387533068275,
            59.008715765391798
          ],
          [
            -3.2398692237728128,
            59.007917439026222
          ],
          [
            -3.2385797695108107,
            59.007302541664835
          ],
          [
            -3.2372584286595845,
            59.006714457889117
          ],
          [
            -3.2358492875470044,
            59.006096648295426
          ],
          [
            -3.2340156394990394,
            59.005268798492487
          ],
          [
            -3.233068534628023,
            59.004752401154271
          ],
          [
            -3.2312484729687876,
            59.003709066581543
          ],
          [
            -3.2297716052156047,
            59.001968712066422
          ],
          [
            -3.2262429171446243,
            59.001491655274819
          ],
          [
            -3.2246300931444294,
            59.001145181573293
          ],
          [
            -3.2229555982780265,
            59.000813333607773
          ],
          [
            -3.2214374385876141,
            59.000271186093421
          ],
          [
            -3.2200689157312627,
            58.999670537868859
          ],
          [
            -3.2187267668959336,
            58.999011942291929
          ],
          [
            -3.2173622687391852,
            58.998444679996929
          ],
          [
            -3.2159257260371645,
            58.997895969219975
          ],
          [
            -3.2145494290073318,
            58.997314262585839
          ],
          [
            -3.213124370064814,
            58.996795274206974
          ],
          [
            -3.211882315532042,
            58.996051022322995
          ],
          [
            -3.2103408955231294,
            58.995246738557746
          ],
          [
            -3.2102981612577057,
            58.995214341924651
          ],
          [
            -3.208227231919357,
            58.993861970585279
          ],
          [
            -3.2044252815068379,
            58.99134480638476
          ],
          [
            -3.2029824480182834,
            58.990757002435721
          ],
          [
            -3.201586187219561,
            58.990182223189322
          ],
          [
            -3.201402500263177,
            58.98926281853047
          ],
          [
            -3.2029146198814691,
            58.988806572438442
          ],
          [
            -3.2045122526757588,
            58.988342246865358
          ],
          [
            -3.2061165994925016,
            58.987906725915742
          ],
          [
            -3.2077312958551616,
            58.987509167577528
          ],
          [
            -3.2094047294623058,
            58.987143891085189
          ],
          [
            -3.211089390421825,
            58.986858738554858
          ],
          [
            -3.2128493903493078,
            58.986670172327052
          ],
          [
            -3.2146005865077636,
            58.98656086215248
          ],
          [
            -3.2164316050822546,
            58.986448916797158
          ],
          [
            -3.2182085519615411,
            58.986343109432326
          ],
          [
            -3.2200134959104143,
            58.986230207716616
          ],
          [
            -3.2217600472724843,
            58.98612392010191
          ],
          [
            -3.2235439614651793,
            58.986019027830991
          ],
          [
            -3.225319162958233,
            58.985905139959939
          ],
          [
            -3.2270618903697095,
            58.985797844085276
          ],
          [
            -3.228868704199094,
            58.985691614591012
          ],
          [
            -3.2306155491320476,
            58.985583058292704
          ],
          [
            -3.2323839794419191,
            58.985474388872987
          ],
          [
            -3.2341433662528125,
            58.98536596696114
          ],
          [
            -3.2359540803718372,
            58.985257211761351
          ],
          [
            -3.2378094101655428,
            58.985147010699045
          ],
          [
            -3.2396453098103759,
            58.985035102050027
          ],
          [
            -3.2413912142123142,
            58.984907835157031
          ],
          [
            -3.2431383823589024,
            58.984651621559024
          ],
          [
            -3.2447960130967002,
            58.984237445673045
          ],
          [
            -3.2463578551031498,
            58.983839859091326
          ],
          [
            -3.2479490711376413,
            58.983437028305076
          ],
          [
            -3.2495462846733769,
            58.983035130543207
          ],
          [
            -3.2511257202716384,
            58.982633176228539
          ],
          [
            -3.2527663158056233,
            58.982272620677861
          ],
          [
            -3.2545699488334376,
            58.98227404834212
          ],
          [
            -3.2562802077525577,
            58.982474691440295
          ],
          [
            -3.257936778955731,
            58.982754516435605
          ],
          [
            -3.2597839040688017,
            58.9825596030757
          ],
          [
            -3.2611023441388016,
            58.981803866362434
          ],
          [
            -3.2623747556601081,
            58.981075308046641
          ],
          [
            -3.2634245446071199,
            58.980282369122726
          ],
          [
            -3.2648710998355894,
            58.979319747517792
          ],
          [
            -3.2658900870887071,
            58.978964607193788
          ],
          [
            -3.2674345312900837,
            58.978460839299451
          ],
          [
            -3.2690347720475952,
            58.977942415671045
          ],
          [
            -3.2706146826214257,
            58.977252616602172
          ],
          [
            -3.2719847460209084,
            58.976456362728754
          ],
          [
            -3.2731491741374668,
            58.975777081613579
          ],
          [
            -3.2744203373169065,
            58.97504108713737
          ],
          [
            -3.2756909350153518,
            58.974371426922538
          ],
          [
            -3.2771167270951911,
            58.973835669666975
          ],
          [
            -3.2785889646765636,
            58.973291174273818
          ],
          [
            -3.2800244473635214,
            58.972752082037907
          ],
          [
            -3.2814644688315142,
            58.972214815110746
          ],
          [
            -3.2829453795718364,
            58.971668528919551
          ],
          [
            -3.2845978863924388,
            58.971309043340547
          ],
          [
            -3.2863727733105037,
            58.971015968354578
          ],
          [
            -3.2879632936245238,
            58.970639459146241
          ],
          [
            -3.2894799333133391,
            58.970105264030444
          ],
          [
            -3.2909383775174677,
            58.969568222079602
          ],
          [
            -3.2924244444878439,
            58.969025772868051
          ],
          [
            -3.2937634175930559,
            58.968446346474089
          ],
          [
            -3.2940757207609419,
            58.967526351391861
          ],
          [
            -3.2946949654386608,
            58.966659125134157
          ],
          [
            -3.2954090272053338,
            58.965784246461432
          ],
          [
            -3.296073559919285,
            58.964922763341498
          ],
          [
            -3.2968151341938325,
            58.96407399791395
          ],
          [
            -3.2977394961619071,
            58.963284360882305
          ],
          [
            -3.2989421916139197,
            58.962616761322032
          ],
          [
            -3.2994239607668217,
            58.961751217077754
          ],
          [
            -3.2999187586688232,
            58.960849107411526
          ],
          [
            -3.3006719112213294,
            58.959770178221625
          ],
          [
            -3.3010843412991502,
            58.958297501862283
          ],
          [
            -3.3016930516295959,
            58.957809977127589
          ],
          [
            -3.3010375387872042,
            58.956969268115103
          ],
          [
            -3.3005802607247192,
            58.95564192336473
          ],
          [
            -3.3004105421406469,
            58.955179036990387
          ],
          [
            -3.2997698592582121,
            58.954216698447674
          ],
          [
            -3.2952739111432141,
            58.952518691936774
          ],
          [
            -3.2943749334538488,
            58.952395249801476
          ],
          [
            -3.2943618558332086,
            58.952392913282225
          ],
          [
            -3.2955131622620875,
            58.952555317397994
          ],
          [
            -3.2983102833333335,
            58.953426683333326
          ],
          [
            -3.2995135517748206,
            58.95412051606634
          ],
          [
            -3.3012838478949629,
            58.953988317126139
          ],
          [
            -3.3016326302312442,
            58.954883557109937
          ],
          [
            -3.3018686935360591,
            58.955843445544694
          ],
          [
            -3.3030155166666666,
            58.956541716666663
          ],
          [
            -3.3041452833333333,
            58.957283283333332
          ],
          [
            -3.305196160163677,
            58.958615151906614
          ],
          [
            -3.3053227833333332,
            58.959116899999998
          ],
          [
            -3.3043207514973112,
            58.959905258737876
          ],
          [
            -3.3039219666666666,
            58.960853399999998
          ],
          [
            -3.30366005,
            58.961743350000006
          ],
          [
            -3.3025228746991346,
            58.962495189893374
          ],
          [
            -3.3017609366785874,
            58.963438522554078
          ],
          [
            -3.3004390825857675,
            58.96412204567379
          ],
          [
            -3.299117131723285,
            58.964748006689078
          ],
          [
            -3.2974151628084645,
            58.96514918661795
          ],
          [
            -3.2961785333333333,
            58.965857299999996
          ],
          [
            -3.2953785333333334,
            58.966713716666661
          ],
          [
            -3.2949291666666665,
            58.967585800000009
          ],
          [
            -3.293755445808114,
            58.968254412903434
          ],
          [
            -3.294077033333334,
            58.967370716666657
          ],
          [
            -3.2936893447608906,
            58.968278440005385
          ],
          [
            -3.2923549666666663,
            58.968998466666669
          ],
          [
            -3.2906597500000001,
            58.96962103333334
          ],
          [
            -3.2891247166666671,
            58.970187299999992
          ],
          [
            -3.2875420333333336,
            58.9707334
          ],
          [
            -3.2852460166666666,
            58.971135533333339
          ],
          [
            -3.2828080666666666,
            58.971652599999999
          ],
          [
            -3.2803211333333335,
            58.972564216666662
          ],
          [
            -3.277717733333334,
            58.973537833333332
          ],
          [
            -3.2754727333333338,
            58.974384833333339
          ],
          [
            -3.273381033333334,
            58.975560116666678
          ],
          [
            -3.2714041833333329,
            58.976708916666666
          ],
          [
            -3.2692510333333331,
            58.977797783333337
          ],
          [
            -3.2667720119101591,
            58.978607346501541
          ],
          [
            -3.2645617313441861,
            58.979390507510061
          ],
          [
            -3.263012716273487,
            58.980527134282703
          ],
          [
            -3.261281733333333,
            58.981588666666667
          ],
          [
            -3.2599708333333335,
            58.982401749999987
          ],
          [
            -3.257411933333334,
            58.98259001666667
          ],
          [
            -3.2543553333333333,
            58.982189866666673
          ],
          [
            -3.2516917833333339,
            58.982424549999998
          ],
          [
            -3.2493646666666671,
            58.983036300000002
          ],
          [
            -3.2467786166666666,
            58.982516133333341
          ],
          [
            -3.2454766166666666,
            58.98104785000001
          ],
          [
            -3.2440926000000001,
            58.979485249999996
          ],
          [
            -3.2426299666666667,
            58.977849366666668
          ],
          [
            -3.2413213666666665,
            58.976386450000007
          ],
          [
            -3.24003555,
            58.974941000000001
          ],
          [
            -3.2394349333333334,
            58.974257133333339
          ],
          [
            -3.2387936333333331,
            58.973511866666669
          ],
          [
            -3.2366308333333338,
            58.972214716666663
          ],
          [
            -3.2342842499999995,
            58.971168733333322
          ],
          [
            -3.2320628833333331,
            58.970173350000003
          ],
          [
            -3.2298605500000002,
            58.969182233333342
          ],
          [
            -3.2276821333333334,
            58.968015449999996
          ],
          [
            -3.226064383333334,
            58.966506349999996
          ],
          [
            -3.2250159500000004,
            58.964838333333333
          ],
          [
            -3.2240280500000003,
            58.963257166666672
          ],
          [
            -3.2230764999999999,
            58.961726399999996
          ],
          [
            -3.2222257833333332,
            58.960272783333323
          ],
          [
            -3.2213926833333333,
            58.958800266666671
          ],
          [
            -3.2205976666666669,
            58.957371216666658
          ],
          [
            -3.2200099999999998,
            58.956239249999996
          ],
          [
            -3.2192145666666669,
            58.954670933333333
          ],
          [
            -3.2183548000000002,
            58.953034566666673
          ],
          [
            -3.2174868500000002,
            58.951413450000004
          ],
          [
            -3.2166193499999998,
            58.949821050000004
          ],
          [
            -3.215749933333333,
            58.948238433333337
          ],
          [
            -3.2149219333333328,
            58.946732783333331
          ],
          [
            -3.2144864224574365,
            58.945402034669172
          ],
          [
            -3.2147979333333336,
            58.943822500000003
          ],
          [
            -3.2151185166666663,
            58.942351933333342
          ],
          [
            -3.2139289666666668,
            58.940763349999997
          ],
          [
            -3.2130784166666664,
            58.939366500000006
          ],
          [
            -3.2133806166666665,
            58.937903866666666
          ],
          [
            -3.2119872500000004,
            58.936242250000006
          ],
          [
            -3.2107033,
            58.934718733333334
          ],
          [
            -3.2092371000000002,
            58.932983116666669
          ],
          [
            -3.2082269499999994,
            58.931781116666663
          ],
          [
            -3.2069900833333329,
            58.930542616666663
          ],
          [
            -3.2051248333333326,
            58.929391633333339
          ],
          [
            -3.2031632499999998,
            58.928281633333334
          ],
          [
            -3.2013362333333331,
            58.92715454999999
          ],
          [
            -3.2001950833333335,
            58.925846116666662
          ],
          [
            -3.1990641000000002,
            58.924561899999993
          ],
          [
            -3.1983655833333331,
            58.923035700000007
          ],
          [
            -3.1975940499999997,
            58.921735050000002
          ],
          [
            -3.1968360999999996,
            58.92086703333333
          ],
          [
            -3.1942832189271524,
            58.921048544645735
          ],
          [
            -3.1923238833333332,
            58.9210244
          ],
          [
            -3.1899860333333332,
            58.920764849999991
          ],
          [
            -3.1876604666666672,
            58.920924600000006
          ],
          [
            -3.1853775833333335,
            58.920731933333343
          ],
          [
            -3.1836291333333326,
            58.920270233333333
          ],
          [
            -3.1828829064453599,
            58.919378738537809
          ],
          [
            -3.1844708333333331,
            58.918957749999997
          ],
          [
            -3.1841126333333336,
            58.918039566666664
          ],
          [
            -3.1834618286163234,
            58.917518040469453
          ],
          [
            -3.1582965666666669,
            58.860118033333336
          ],
          [
            -3.1582965666666669,
            58.860118033333336
          ],
          [
            -3.18481537155761,
            58.916455882338603
          ],
          [
            -3.1851985342009952,
            58.916013249897269
          ],
          [
            -3.1870661311950239,
            58.913505390524421
          ],
          [
            -3.1849149533515786,
            58.912273882925177
          ],
          [
            -3.1821651822580983,
            58.910654106275935
          ],
          [
            -3.1763883835955835,
            58.907690645975734
          ],
          [
            -3.1656815011269268,
            58.899143671425215
          ],
          [
            -3.1630923931915342,
            58.897214118008684
          ],
          [
            -3.1620150904090689,
            58.896267045894881
          ],
          [
            -3.1590730702453396,
            58.893194654818508
          ],
          [
            -3.158031644615618,
            58.890991673953899
          ],
          [
            -3.1426964440247818,
            58.861633953163611
          ],
          [
            -3.1426964440247818,
            58.861633953163611
          ],
          [
            -3.1362126085140534,
            58.837664479210481
          ],
          [
            -3.1370365445068322,
            58.837840139746937
          ],
          [
            -3.1560653055654773,
            58.831774743267538
          ],
          [
            -3.176562852023276,
            58.831383567333454
          ],
          [
            -3.1802952353762577,
            58.832051385950535
          ],
          [
            -3.1847584400246922,
            58.832679136062978
          ],
          [
            -3.1847584400246922,
            58.832679136062978
          ],
          [
            -3.1949263608864658,
            58.83367848944836
          ],
          [
            -3.1949759166666669,
            58.833488350000003
          ],
          [
            -3.1948549111751192,
            58.832582388479125
          ],
          [
            -3.1964124166666665,
            58.832061516666663
          ],
          [
            -3.1983429941303529,
            58.831677188532289
          ],
          [
            -3.2008479549643396,
            58.831531373968708
          ],
          [
            -3.2028638333333332,
            58.831241683333339
          ],
          [
            -3.2048793499999997,
            58.831284066666662
          ],
          [
            -3.2066670409895446,
            58.831561135803014
          ],
          [
            -3.2065989727199082,
            58.832575133035732
          ],
          [
            -3.2069952999999995,
            58.833460716666671
          ],
          [
            -3.2091110666666669,
            58.833750166666675
          ],
          [
            -3.2112732666666672,
            58.83406218333333
          ],
          [
            -3.2134222000000006,
            58.834857533333327
          ],
          [
            -3.2143652333333335,
            58.836018566666674
          ],
          [
            -3.2153930209530226,
            58.837302576937901
          ],
          [
            -3.2164797832068683,
            58.838662298963904
          ],
          [
            -3.2167754321822759,
            58.839777083733949
          ],
          [
            -3.2157383000000004,
            58.840799233333335
          ],
          [
            -3.214118266666667,
            58.841603966666661
          ],
          [
            -3.2124771000000001,
            58.842539850000009
          ],
          [
            -3.2111515333333327,
            58.8433986
          ],
          [
            -3.2098269166666666,
            58.84438149999999
          ],
          [
            -3.2089707500000002,
            58.844884400000005
          ],
          [
            -3.2083955500000001,
            58.845227383333331
          ],
          [
            -3.206931533333333,
            58.846094849999993
          ],
          [
            -3.2056704500000004,
            58.846862099999996
          ],
          [
            -3.2052549999999993,
            58.847836249999993
          ],
          [
            -3.2048490333333328,
            58.848940499999991
          ],
          [
            -3.2044391833333328,
            58.850005366666664
          ],
          [
            -3.2040896333333335,
            58.850902900000001
          ],
          [
            -3.2036269000000002,
            58.85198663333334
          ],
          [
            -3.2038385666666671,
            58.852880383333328
          ],
          [
            -3.205812466666667,
            58.853084249999995
          ],
          [
            -3.2075712333333333,
            58.853411199999996
          ],
          [
            -3.2091349999999994,
            58.854019050000005
          ],
          [
            -3.2108269166666665,
            58.854702216666659
          ],
          [
            -3.2119972999999997,
            58.855496933333342
          ],
          [
            -3.2132159666666666,
            58.856235016666673
          ],
          [
            -3.2144965000000001,
            58.856970566666668
          ],
          [
            -3.2159229666666667,
            58.857768249999999
          ],
          [
            -3.2176930499999994,
            58.858478849999997
          ],
          [
            -3.2201824333333326,
            58.858747783333335
          ],
          [
            -3.2229428500000004,
            58.858937516666678
          ],
          [
            -3.2252008999999999,
            58.85907855
          ],
          [
            -3.2259645490917972,
            58.859959608006086
          ],
          [
            -3.2244407852976611,
            58.860688549546225
          ],
          [
            -3.2232528333333339,
            58.861661450000007
          ],
          [
            -3.2222532681129898,
            58.862789961430245
          ],
          [
            -3.2213816644173705,
            58.863906771327748
          ],
          [
            -3.2205894000000002,
            58.864918249999995
          ],
          [
            -3.22017825,
            58.865413566666668
          ],
          [
            -3.2197864333333333,
            58.8658863
          ],
          [
            -3.2204542833333334,
            58.866955216666668
          ],
          [
            -3.2222118333333336,
            58.867546183333324
          ],
          [
            -3.224299583333333,
            58.867847433333324
          ],
          [
            -3.2266303333333335,
            58.868192733333338
          ],
          [
            -3.228808616666667,
            58.868518849999994
          ],
          [
            -3.2309024000000006,
            58.868863533333325
          ],
          [
            -3.2317988833333335,
            58.869877349999989
          ],
          [
            -3.232616633333333,
            58.870739583333332
          ],
          [
            -3.2346319166666673,
            58.871419766666669
          ],
          [
            -3.2365477666666664,
            58.872069366666665
          ],
          [
            -3.2384738,
            58.872733616666665
          ],
          [
            -3.2403246166666664,
            58.873370733333331
          ],
          [
            -3.242301383333333,
            58.874021666666678
          ],
          [
            -3.2441295166666664,
            58.874646399999996
          ],
          [
            -3.2458278833333329,
            58.875262549999995
          ],
          [
            -3.2469450612758046,
            58.876050458548228
          ],
          [
            -3.2468770026043718,
            58.877226179193919
          ],
          [
            -3.2474656087371261,
            58.87831100359066
          ],
          [
            -3.2485899999999996,
            58.879081933333332
          ],
          [
            -3.248338723049589,
            58.880043265371981
          ],
          [
            -3.2478229660543678,
            58.880955271678118
          ],
          [
            -3.2484997863915748,
            58.88185448075766
          ],
          [
            -3.2489052291488738,
            58.882993698063338
          ],
          [
            -3.2493502810625201,
            58.88408989879656
          ],
          [
            -3.2500373218531768,
            58.885155519304867
          ],
          [
            -3.2510930024207711,
            58.886110057233907
          ],
          [
            -3.2523007409224496,
            58.887065504655737
          ],
          [
            -3.2536002763015612,
            58.888081587171641
          ],
          [
            -3.2548096126945523,
            58.888920968786117
          ],
          [
            -3.2563169551229141,
            58.88977783256761
          ],
          [
            -3.2581351021970963,
            58.890518602887219
          ],
          [
            -3.2601121702288585,
            58.891313271269574
          ],
          [
            -3.2619574481109574,
            58.892141822742055
          ],
          [
            -3.2632758125760093,
            58.892937565315222
          ],
          [
            -3.2648705850935613,
            58.893551397262797
          ],
          [
            -3.2664594666666669,
            58.894007733333339
          ],
          [
            -3.2681611833333335,
            58.894368433333327
          ],
          [
            -3.2697567478994216,
            58.894969008742962
          ],
          [
            -3.2712182474650962,
            58.895668519759809
          ],
          [
            -3.2727168282519492,
            58.89639063590154
          ],
          [
            -3.2733549251514602,
            58.897345522826434
          ],
          [
            -3.2738467548334063,
            58.898394131306219
          ],
          [
            -3.2743160874951571,
            58.899376927787955
          ],
          [
            -3.2757360666666671,
            58.900009233333336
          ],
          [
            -3.2779595666666665,
            58.900063366666672
          ],
          [
            -3.2802816833333326,
            58.899970333333336
          ],
          [
            -3.2825234166666672,
            58.900073116666668
          ],
          [
            -3.2847523333333335,
            58.900356733333332
          ],
          [
            -3.2869384333333329,
            58.900739300000005
          ],
          [
            -3.2890760333333331,
            58.900940033333335
          ],
          [
            -3.291124962395227,
            58.901169922722289
          ],
          [
            -3.2934327333333329,
            58.901865550000004
          ],
          [
            -3.2957692414439843,
            58.902283206107661
          ],
          [
            -3.2979702347895321,
            58.902670890173312
          ],
          [
            -3.3000373861001329,
            58.903030276406874
          ],
          [
            -3.3018798000000005,
            58.903301899999995
          ],
          [
            -3.303576266666667,
            58.903061549999997
          ],
          [
            -3.303576266666667,
            58.903061549999997
          ],
          [
            -3.3054180356618739,
            58.903104063876135
          ],
          [
            -3.3068575918184648,
            58.903692811198162
          ],
          [
            -3.3082710569372598,
            58.904268940002765
          ],
          [
            -3.309918173434828,
            58.904714433837583
          ],
          [
            -3.3117445731744937,
            58.904597983426214
          ],
          [
            -3.3134796949828265,
            58.904629946899355
          ],
          [
            -3.3148060015435039,
            58.90526588196326
          ],
          [
            -3.3162538264593699,
            58.905813998886693
          ],
          [
            -3.3167497874083431,
            58.904952425852478
          ],
          [
            -3.3168727194113918,
            58.904019357141188
          ],
          [
            -3.316510044402166,
            58.903116431468
          ],
          [
            -3.3161206452185836,
            58.902163980164765
          ],
          [
            -3.3156946929153817,
            58.90121503368421
          ],
          [
            -3.3152715344803325,
            58.900304130349518
          ],
          [
            -3.3148542851533263,
            58.899356258891238
          ],
          [
            -3.3147164890960656,
            58.898417361659348
          ],
          [
            -3.3146199711748072,
            58.897471442650485
          ],
          [
            -3.3145318443441081,
            58.896522130336066
          ],
          [
            -3.3144386082389645,
            58.895584098441361
          ],
          [
            -3.3143460398975195,
            58.894666598585779
          ],
          [
            -3.3145956701609145,
            58.892370482221679
          ],
          [
            -3.3149929166666672,
            58.891203849999997
          ],
          [
            -3.3152240342520138,
            58.890502235030773
          ],
          [
            -3.3156914263827573,
            58.889570181939881
          ],
          [
            -3.3164033842397806,
            58.888740321526726
          ],
          [
            -3.3177028802048465,
            58.888143961973533
          ],
          [
            -3.3192008619705224,
            58.887627034479635
          ],
          [
            -3.3209139000000003,
            58.88737003333334
          ],
          [
            -3.3227322833333335,
            58.887131783333338
          ],
          [
            -3.3245407166666667,
            58.886891883333327
          ],
          [
            -3.3262321999999998,
            58.886665783333335
          ],
          [
            -3.3279768202913309,
            58.886457759695134
          ],
          [
            -3.3297095101895029,
            58.886235826017121
          ],
          [
            -3.3311600999999995,
            58.885730966666671
          ],
          [
            -3.3323977166666672,
            58.885090400000003
          ],
          [
            -3.3337613333333334,
            58.884492083333335
          ],
          [
            -3.3354099999999995,
            58.884081033333324
          ],
          [
            -3.3371525499999999,
            58.883818233333344
          ],
          [
            -3.3387365999999994,
            58.883305533333335
          ],
          [
            -3.3402383666666671,
            58.882737183333333
          ],
          [
            -3.3419694333333338,
            58.882406899999992
          ],
          [
            -3.3436377000000004,
            58.882005966666668
          ],
          [
            -3.3453146999999999,
            58.881658550000012
          ],
          [
            -3.3470323666666664,
            58.881460666666662
          ],
          [
            -3.3488905999999998,
            58.88142641666667
          ],
          [
            -3.3506031015618931,
            58.881737015540551
          ],
          [
            -3.3529963120175905,
            58.881921070194956
          ],
          [
            -3.3554549472997186,
            58.882107362146499
          ],
          [
            -3.3575969531335308,
            58.882063487793936
          ],
          [
            -3.35983325793012,
            58.882057110804261
          ],
          [
            -3.3617458400159195,
            58.881927758140598
          ],
          [
            -3.3637754212085906,
            58.881770692454459
          ],
          [
            -3.3657779994898971,
            58.881683754728222
          ],
          [
            -3.3676350232737819,
            58.881629946133579
          ],
          [
            -3.3694458273190744,
            58.881574555747292
          ],
          [
            -3.371324227614342,
            58.881520427857929
          ],
          [
            -3.3731589533509245,
            58.881551287847785
          ],
          [
            -3.374932359694689,
            58.88176857532725
          ],
          [
            -3.3766966568597434,
            58.882048226454295
          ],
          [
            -3.3784140709506514,
            58.882325022542155
          ],
          [
            -3.380203410792308,
            58.882178617717457
          ],
          [
            -3.3815146166999939,
            58.88156427010523
          ],
          [
            -3.3826648461334581,
            58.880889854971919
          ],
          [
            -3.384187678880084,
            58.880351221423602
          ],
          [
            -3.385908069129671,
            58.880089650994528
          ],
          [
            -3.3861386476047777,
            58.879190303712676
          ],
          [
            -3.3860653159885903,
            58.878238965243376
          ],
          [
            -3.3860814420506684,
            58.877338833962881
          ],
          [
            -3.3863096219790361,
            58.876408259755834
          ],
          [
            -3.3867069082783616,
            58.875026197726001
          ],
          [
            -3.3855447670693528,
            58.873333436839602
          ]
        ]
      },
      "properties" : {
        "device" : "B9E47AEB-E54C-4563-96B6-06995DD4BC56 (iPhone 16 Pro)",
        "start" : "2026-09-25T23:00:00Z",
        "end" : "2026-09-26T22:59:59Z",
        "type" : "route",
        "source" : "Geory 5.3.2"
      },
      "type" : "Feature"
    }
  ],
  "type" : "FeatureCollection"
}