{
  "type" : "FeatureCollection",
  "features" : [
    {
      "type" : "Feature",
      "properties" : {
        "rating" : 0,
        "address" : "Brora, KW9, Schottland",
        "type" : "visit",
        "departure" : "2026-09-20T10:00:49Z",
        "arrival" : "2026-09-19T17:28:45Z",
        "weather" : "Überwiegend bewölkt (12,9 °C)",
        "duration" : 59523.642102003098,
        "source" : "Geory 5.3.2",
        "timestamp" : "2026-09-19T17:28:45Z",
        "device" : "B9E47AEB-E54C-4563-96B6-06995DD4BC56 (iPhone 16 Pro)"
      },
      "geometry" : {
        "type" : "Point",
        "coordinates" : [
          -3.8647165510677097,
          58.011752525710492
        ]
      }
    },
    {
      "properties" : {
        "source" : "Geory 5.3.2",
        "device" : "B9E47AEB-E54C-4563-96B6-06995DD4BC56 (iPhone 16 Pro)",
        "type" : "visit",
        "duration" : 5989.6973929405212,
        "arrival" : "2026-09-20T11:19:43Z",
        "timestamp" : "2026-09-20T11:19:43Z",
        "departure" : "2026-09-20T12:59:32Z",
        "rating" : 0,
        "address" : "Latheron, KW5, Schottland",
        "weather" : "Überwiegend bewölkt (13,2 °C)"
      },
      "type" : "Feature",
      "geometry" : {
        "coordinates" : [
          -3.3809525107536698,
          58.270817968139283
        ],
        "type" : "Point"
      }
    },
    {
      "geometry" : {
        "coordinates" : [
          -3.2017727193140062,
          58.325290871503803
        ],
        "type" : "Point"
      },
      "properties" : {
        "departure" : "2026-09-20T13:51:17Z",
        "device" : "B9E47AEB-E54C-4563-96B6-06995DD4BC56 (iPhone 16 Pro)",
        "arrival" : "2026-09-20T13:14:16Z",
        "address" : "Halberry, Mid Clyth, Midclyth, Lybster, KW3 6BA, Schottland",
        "source" : "Geory 5.3.2",
        "type" : "visit",
        "timestamp" : "2026-09-20T13:14:16Z",
        "duration" : 2221.6830797195435,
        "rating" : 0
      },
      "type" : "Feature"
    },
    {
      "type" : "Feature",
      "properties" : {
        "arrival" : "2026-09-20T13:51:18Z",
        "duration" : 2053.0008931159973,
        "address" : "Lybster, KW3, Schottland",
        "type" : "visit",
        "rating" : 0,
        "device" : "B9E47AEB-E54C-4563-96B6-06995DD4BC56 (iPhone 16 Pro)",
        "source" : "Geory 5.3.2",
        "departure" : "2026-09-20T14:25:32Z",
        "timestamp" : "2026-09-20T13:51:18Z"
      },
      "geometry" : {
        "type" : "Point",
        "coordinates" : [
          -3.2047543562670531,
          58.328494646634056
        ]
      }
    },
    {
      "geometry" : {
        "type" : "Point",
        "coordinates" : [
          -3.2015100426531191,
          58.325286337191493
        ]
      },
      "properties" : {
        "weather" : "Überwiegend bewölkt (12,7 °C)",
        "timestamp" : "2026-09-20T14:29:32Z",
        "rating" : 0,
        "arrival" : "2026-09-20T14:29:32Z",
        "duration" : 1300.9999580383301,
        "address" : "Halberry, Mid Clyth, Midclyth, Lybster, KW3 6BA, Schottland",
        "type" : "visit",
        "departure" : "2026-09-20T14:51:13Z",
        "source" : "Geory 5.3.2",
        "device" : "B9E47AEB-E54C-4563-96B6-06995DD4BC56 (iPhone 16 Pro)"
      },
      "type" : "Feature"
    },
    {
      "geometry" : {
        "type" : "Point",
        "coordinates" : [
          -3.1653507074826188,
          58.350438630193317
        ]
      },
      "properties" : {
        "type" : "visit",
        "device" : "B9E47AEB-E54C-4563-96B6-06995DD4BC56 (iPhone 16 Pro)",
        "departure" : "2026-09-20T15:37:23Z",
        "address" : "Heatherbrae, The Haven, Ulbster, Lybster, KW2 6AA, Schottland",
        "arrival" : "2026-09-20T14:56:13Z",
        "duration" : 2469.7043142318726,
        "source" : "Geory 5.3.2",
        "rating" : 0,
        "timestamp" : "2026-09-20T14:56:13Z"
      },
      "type" : "Feature"
    },
    {
      "properties" : {
        "type" : "visit",
        "departure" : "2026-09-20T16:28:17Z",
        "timestamp" : "2026-09-20T15:37:24Z",
        "device" : "B9E47AEB-E54C-4563-96B6-06995DD4BC56 (iPhone 16 Pro)",
        "rating" : 0,
        "duration" : 3053.9984846115112,
        "arrival" : "2026-09-20T15:37:24Z",
        "address" : "Nordatlantik, Schottland",
        "source" : "Geory 5.3.2"
      },
      "type" : "Feature",
      "geometry" : {
        "type" : "Point",
        "coordinates" : [
          -3.161274391429246,
          58.345318222608896
        ]
      }
    },
    {
      "type" : "Feature",
      "geometry" : {
        "type" : "LineString",
        "coordinates" : [
          [
            -3.0817549111951661,
            58.423876365416461
          ],
          [
            -3.0808177653043201,
            58.424629581920478
          ],
          [
            -3.0785339998974743,
            58.424984161458049
          ],
          [
            -3.0819028706793934,
            58.423897359303965
          ],
          [
            -3.0811158528299556,
            58.424778954985086
          ],
          [
            -3.0823280833333335,
            58.425150100000003
          ],
          [
            -3.0839067666666669,
            58.425543400000002
          ],
          [
            -3.0854610559288895,
            58.425964158389363
          ],
          [
            -3.0869969229731415,
            58.426363652931187
          ],
          [
            -3.0885275862471211,
            58.426781860399927
          ],
          [
            -3.0900722644115231,
            58.427207208294504
          ],
          [
            -3.0916078963101143,
            58.427614794868376
          ],
          [
            -3.0931561833333339,
            58.428022383333335
          ],
          [
            -3.0948355925113202,
            58.42781234905118
          ],
          [
            -3.0972695172847229,
            58.427622194511841
          ],
          [
            -3.0985395476501014,
            58.426015012151701
          ],
          [
            -3.0993575550926913,
            58.424300708565731
          ],
          [
            -3.1005375585887238,
            58.422623112306667
          ],
          [
            -3.1017125000000001,
            58.421011783333341
          ],
          [
            -3.1029701057376657,
            58.419493484786088
          ],
          [
            -3.1041181166666667,
            58.41805278333333
          ],
          [
            -3.1053819768234727,
            58.41665112008743
          ],
          [
            -3.1067754999999995,
            58.41501486666666
          ],
          [
            -3.1080838833333333,
            58.413499683333342
          ],
          [
            -3.1095262999999997,
            58.411843766666671
          ],
          [
            -3.1109128772791061,
            58.410292811428576
          ],
          [
            -3.1122610499999999,
            58.408707233333345
          ],
          [
            -3.1136467166666666,
            58.407134533333327
          ],
          [
            -3.1154080833333335,
            58.405576000000003
          ],
          [
            -3.1169976000000004,
            58.404039499999996
          ],
          [
            -3.1182180833333328,
            58.402450383333345
          ],
          [
            -3.11967945,
            58.401071699999996
          ],
          [
            -3.1218015166666668,
            58.399913866666679
          ],
          [
            -3.1240037666666662,
            58.398720433333331
          ],
          [
            -3.1264331333333333,
            58.397382466666677
          ],
          [
            -3.1285406166666667,
            58.396162466666659
          ],
          [
            -3.1307815833333335,
            58.395096250000002
          ],
          [
            -3.1315001166666669,
            58.394641766666673
          ],
          [
            -3.1324068333333335,
            58.393704249999999
          ],
          [
            -3.1336458500000002,
            58.392346583333328
          ],
          [
            -3.1349744666666668,
            58.391140183333327
          ],
          [
            -3.1363495999999995,
            58.389964133333329
          ],
          [
            -3.1378931000000003,
            58.388643416666675
          ],
          [
            -3.1395082000000003,
            58.387202600000002
          ],
          [
            -3.1410718666666666,
            58.385811399999994
          ],
          [
            -3.1426093833333328,
            58.384408216666664
          ],
          [
            -3.1442635500000007,
            58.382834666666668
          ],
          [
            -3.1456832666666665,
            58.381302716666674
          ],
          [
            -3.1474467500000003,
            58.379572583333321
          ],
          [
            -3.1490593499999999,
            58.377939633333334
          ],
          [
            -3.1505830166666673,
            58.37641871666667
          ],
          [
            -3.1521179999999993,
            58.374873300000004
          ],
          [
            -3.1527599333333334,
            58.373280700000002
          ],
          [
            -3.1524637500000003,
            58.371628183333328
          ],
          [
            -3.1524587847061527,
            58.370070681713152
          ],
          [
            -3.1531140833333331,
            58.368516899999996
          ],
          [
            -3.1539967786715422,
            58.366979114952926
          ],
          [
            -3.1541757206539796,
            58.365283806909254
          ],
          [
            -3.1541852850301146,
            58.363665096787557
          ],
          [
            -3.1538565365829441,
            58.362165383616798
          ],
          [
            -3.1540849660603003,
            58.36064503240376
          ],
          [
            -3.1542361042651419,
            58.359310618405125
          ],
          [
            -3.1552290759004213,
            58.358015926371472
          ],
          [
            -3.1558800432652996,
            58.356599358485276
          ],
          [
            -3.156239289585081,
            58.355660820002491
          ],
          [
            -3.1569526023592358,
            58.354120164862628
          ],
          [
            -3.157609014282543,
            58.35233772152602
          ],
          [
            -3.1584084190856307,
            58.351175286107853
          ],
          [
            -3.1595767265569106,
            58.350001077990584
          ],
          [
            -3.1606564656192804,
            58.348933755794334
          ],
          [
            -3.1616362776282005,
            58.348160906681521
          ],
          [
            -3.1631425621359472,
            58.347697648980763
          ],
          [
            -3.1632404030878494,
            58.349184081808666
          ],
          [
            -3.1654655029065077,
            58.350411245213635
          ],
          [
            -3.1640797093642985,
            58.349559194038754
          ],
          [
            -3.1632121351661189,
            58.349148307544702
          ],
          [
            -3.1631533484044176,
            58.347975655842902
          ],
          [
            -3.161274391429246,
            58.345318222608896
          ],
          [
            -3.1653507074826188,
            58.350438630193317
          ],
          [
            -3.1665816909270341,
            58.345355500786205
          ],
          [
            -3.1678768564559201,
            58.343949430985361
          ],
          [
            -3.1692270988667617,
            58.342722945986125
          ],
          [
            -3.1705965953972282,
            58.341519946153532
          ],
          [
            -3.1720915389475532,
            58.340305702384207
          ],
          [
            -3.173528266962101,
            58.339190108218169
          ],
          [
            -3.1754907876351011,
            58.338328129183253
          ],
          [
            -3.1779540372565265,
            58.338758901626647
          ],
          [
            -3.180224449843732,
            58.339276237551942
          ],
          [
            -3.1823712037957068,
            58.338514166716429
          ],
          [
            -3.1842790667793679,
            58.337451891885436
          ],
          [
            -3.1865996422296718,
            58.336470116489068
          ],
          [
            -3.1885834657388106,
            58.335566232969136
          ],
          [
            -3.1896453122432633,
            58.334192159380208
          ],
          [
            -3.1906340039977477,
            58.332815994491305
          ],
          [
            -3.1914485096749381,
            58.331498523994355
          ],
          [
            -3.1916736790886691,
            58.330074635946566
          ],
          [
            -3.1917852240557867,
            58.329134565622219
          ],
          [
            -3.191941344187148,
            58.327967528374302
          ],
          [
            -3.193358580838777,
            58.327093147195228
          ],
          [
            -3.193358580838777,
            58.327093147195228
          ],
          [
            -3.1947673824946317,
            58.326195152047717
          ],
          [
            -3.1958652982346201,
            58.325460012879439
          ],
          [
            -3.2015100426531191,
            58.325286337191493
          ],
          [
            -3.2009676052631915,
            58.325946694232798
          ],
          [
            -3.2005439816390466,
            58.326823618297688
          ],
          [
            -3.2047543562670531,
            58.328494646634056
          ],
          [
            -3.2017727193140062,
            58.325290871503803
          ],
          [
            -3.1984996846825759,
            58.323174300873561
          ],
          [
            -3.1998120666666665,
            58.321911666666665
          ],
          [
            -3.2025252166666673,
            58.321073833333337
          ],
          [
            -3.2042917833333333,
            58.319841849999996
          ],
          [
            -3.2058992999999996,
            58.31840046666666
          ],
          [
            -3.2082414999999997,
            58.317154500000001
          ],
          [
            -3.2110139000000002,
            58.316051833333333
          ],
          [
            -3.2128775000000003,
            58.314700216666672
          ],
          [
            -3.2144011166666662,
            58.313344183333328
          ],
          [
            -3.2165618333333335,
            58.312075333333325
          ],
          [
            -3.2192792499999996,
            58.311137833333333
          ],
          [
            -3.2226075166666663,
            58.31058663333333
          ],
          [
            -3.2259262333333329,
            58.310052733333336
          ],
          [
            -3.2291972666666671,
            58.309543550000008
          ],
          [
            -3.2324356833333336,
            58.30903361666666
          ],
          [
            -3.2355285500000002,
            58.308502583333336
          ],
          [
            -3.2389852666666665,
            58.308037700000007
          ],
          [
            -3.2421595833333337,
            58.307806516666673
          ],
          [
            -3.2433719166666664,
            58.307684383333324
          ],
          [
            -3.245108507626576,
            58.307222121725509
          ],
          [
            -3.2470810136332755,
            58.306166192817912
          ],
          [
            -3.2500512833333337,
            58.306113900000007
          ],
          [
            -3.2533562666666662,
            58.306678233333336
          ],
          [
            -3.2563634999999995,
            58.307228783333329
          ],
          [
            -3.2597005166666664,
            58.307362616666659
          ],
          [
            -3.2624156333333332,
            58.308573233333334
          ],
          [
            -3.2659930333333338,
            58.308989783333331
          ],
          [
            -3.2692793000000004,
            58.309296399999994
          ],
          [
            -3.2724482833333335,
            58.310002716666666
          ],
          [
            -3.275867016666667,
            58.310305866666674
          ],
          [
            -3.2790853999999996,
            58.309965216666662
          ],
          [
            -3.2817120333333332,
            58.309110949999997
          ],
          [
            -3.2843359000000003,
            58.308563400000004
          ],
          [
            -3.2866805365439196,
            58.308121220918117
          ],
          [
            -3.2895762999999998,
            58.307614733333338
          ],
          [
            -3.2921189999999996,
            58.306666799999995
          ],
          [
            -3.2944196666666672,
            58.305238683333336
          ],
          [
            -3.2972463500000004,
            58.303880066666672
          ],
          [
            -3.2998120666666666,
            58.30265871666667
          ],
          [
            -3.302724,
            58.301617366666669
          ],
          [
            -3.3056127517100751,
            58.301013850298112
          ],
          [
            -3.3089191836647065,
            58.300601044111431
          ],
          [
            -3.3120354606685338,
            58.300200294384972
          ],
          [
            -3.3148407237030098,
            58.299566251376277
          ],
          [
            -3.3175220320439109,
            58.298810983164245
          ],
          [
            -3.3200837618929357,
            58.297743855776837
          ],
          [
            -3.3223021666666663,
            58.296645766666671
          ],
          [
            -3.3252314000000003,
            58.295655783333324
          ],
          [
            -3.3280099166666663,
            58.294712516666671
          ],
          [
            -3.33084275,
            58.293747416666676
          ],
          [
            -3.3336651608088368,
            58.292812900164378
          ],
          [
            -3.3364192653956621,
            58.291938112070554
          ],
          [
            -3.3393071608287377,
            58.291064812494348
          ],
          [
            -3.3418763734216954,
            58.290063276091203
          ],
          [
            -3.3445354999999997,
            58.288675966666673
          ],
          [
            -3.3471763666666665,
            58.287411750000004
          ],
          [
            -3.34974945,
            58.286184633333342
          ],
          [
            -3.3522095666666658,
            58.285033250000005
          ],
          [
            -3.354975566666667,
            58.284167700000005
          ],
          [
            -3.357826133333333,
            58.283320999999994
          ],
          [
            -3.3607398333333331,
            58.282753550000002
          ],
          [
            -3.3635897999999997,
            58.282697883333334
          ],
          [
            -3.366205349653733,
            58.283141169596888
          ],
          [
            -3.3684346999999999,
            58.282556233333331
          ],
          [
            -3.3690700166666669,
            58.281546683333332
          ],
          [
            -3.3693667833333336,
            58.280307683333326
          ],
          [
            -3.3698273000000003,
            58.279057183333329
          ],
          [
            -3.3711278333333334,
            58.277898466666663
          ],
          [
            -3.3736229333333334,
            58.277340666666667
          ],
          [
            -3.3763368833333334,
            58.277060083333332
          ],
          [
            -3.3787232778624903,
            58.276877578993357
          ],
          [
            -3.3809612166666665,
            58.276659716666664
          ],
          [
            -3.382856381167977,
            58.276559657411447
          ],
          [
            -3.3843924843318569,
            58.276153320115505
          ],
          [
            -3.3830031478041573,
            58.274896015236727
          ],
          [
            -3.3809525107536698,
            58.270817968139283
          ],
          [
            -3.3796480565529357,
            58.272446938928418
          ],
          [
            -3.380300566666667,
            58.273277616666675
          ],
          [
            -3.3814243666666668,
            58.273982266666657
          ],
          [
            -3.3825471,
            58.274664966666663
          ],
          [
            -3.3836868,
            58.275414866666672
          ],
          [
            -3.38439545,
            58.276661683333337
          ],
          [
            -3.3858883333333334,
            58.27670225
          ],
          [
            -3.3886892999999993,
            58.276162599999999
          ],
          [
            -3.39058445,
            58.274926866666661
          ],
          [
            -3.3916921666666666,
            58.27345176666666
          ],
          [
            -3.3926262999999999,
            58.271861749999999
          ],
          [
            -3.3930949499999996,
            58.270028466666659
          ],
          [
            -3.3934220000000002,
            58.268396716666665
          ],
          [
            -3.3940136333333339,
            58.266987266666668
          ],
          [
            -3.3952067376901569,
            58.26546371455624
          ],
          [
            -3.3971170723556243,
            58.263875846697452
          ],
          [
            -3.3993996791928613,
            58.262678146985081
          ],
          [
            -3.4020332553151351,
            58.261376913059067
          ],
          [
            -3.4048220333333337,
            58.259953783333337
          ],
          [
            -3.406963974383002,
            58.258601180365545
          ],
          [
            -3.408361733006918,
            58.257232187833971
          ],
          [
            -3.4100697758305243,
            58.255827270199049
          ],
          [
            -3.4126520576536792,
            58.254657108455874
          ],
          [
            -3.415283183333333,
            58.25358705
          ],
          [
            -3.4177486666666663,
            58.252378533333328
          ],
          [
            -3.4194964666666663,
            58.251009516666663
          ],
          [
            -3.4208639500000007,
            58.249933216666669
          ],
          [
            -3.4221738839277771,
            58.248963919046908
          ],
          [
            -3.4249942500000001,
            58.248485416666668
          ],
          [
            -3.4283838333333336,
            58.248625250000003
          ],
          [
            -3.4317554166666664,
            58.248750699999995
          ],
          [
            -3.4348531666666662,
            58.248695399999995
          ],
          [
            -3.4373974333333339,
            58.248245283333333
          ],
          [
            -3.4394716833333328,
            58.247493916666663
          ],
          [
            -3.4400742833333329,
            58.247159716666665
          ],
          [
            -3.441196366666667,
            58.246324216666665
          ],
          [
            -3.4428142499999996,
            58.245124566666661
          ],
          [
            -3.4446112666666662,
            58.243662383333337
          ],
          [
            -3.4455250499999996,
            58.241813466666663
          ],
          [
            -3.4452592333333336,
            58.24011071666667
          ],
          [
            -3.4447532999999999,
            58.23819901666667
          ],
          [
            -3.4443115975949041,
            58.236538489896105
          ],
          [
            -3.4445102166666666,
            58.234773833333335
          ],
          [
            -3.4450145333333335,
            58.233010950000001
          ],
          [
            -3.4457176166666668,
            58.231463966666659
          ],
          [
            -3.4467067166666672,
            58.230004133333324
          ],
          [
            -3.4478889666666666,
            58.228529750000007
          ],
          [
            -3.4491978333333333,
            58.227265083333329
          ],
          [
            -3.4519815666666669,
            58.226318300000003
          ],
          [
            -3.4540591603022048,
            58.224933601690715
          ],
          [
            -3.456194213538522,
            58.223622333465791
          ],
          [
            -3.4583676160954466,
            58.222545424642448
          ],
          [
            -3.4609501818165564,
            58.221507610245069
          ],
          [
            -3.4639186337534267,
            58.220498243067503
          ],
          [
            -3.4668985257137601,
            58.219453358379504
          ],
          [
            -3.4700640696423326,
            58.218533375230699
          ],
          [
            -3.4734173933569168,
            58.217491578687891
          ],
          [
            -3.4760672529914944,
            58.216448609634689
          ],
          [
            -3.4786068543933548,
            58.215216741994404
          ],
          [
            -3.4799389077439402,
            58.213859822026834
          ],
          [
            -3.4795215606270666,
            58.212511630503933
          ],
          [
            -3.479690412806526,
            58.210868605942558
          ],
          [
            -3.4800385405110847,
            58.209392859860316
          ],
          [
            -3.4800385405110847,
            58.209392859860316
          ],
          [
            -3.4795917640135952,
            58.207871389333107
          ],
          [
            -3.4801879333333336,
            58.206425800000005
          ],
          [
            -3.4796985166666663,
            58.205219716666669
          ],
          [
            -3.4788051287454187,
            58.203669939702209
          ],
          [
            -3.4793833058140744,
            58.201743197964049
          ],
          [
            -3.4799615833333326,
            58.200029700000009
          ],
          [
            -3.4810323999999997,
            58.198441199999991
          ],
          [
            -3.4826437833333328,
            58.196947600000009
          ],
          [
            -3.4854411166666663,
            58.195851866666665
          ],
          [
            -3.4884309666666664,
            58.194953716666667
          ],
          [
            -3.4901930500000002,
            58.193840699999996
          ],
          [
            -3.4910222333333336,
            58.192599466666657
          ],
          [
            -3.4914268666666666,
            58.191278633333333
          ],
          [
            -3.4937876833333328,
            58.190622783333346
          ],
          [
            -3.4955183500000007,
            58.189701900000003
          ],
          [
            -3.4970799333333331,
            58.188615050000003
          ],
          [
            -3.4980501333333338,
            58.187414416666662
          ],
          [
            -3.4988404000000002,
            58.186310783333326
          ],
          [
            -3.4981272499999996,
            58.18531946666667
          ],
          [
            -3.4966208000000005,
            58.184870716666666
          ],
          [
            -3.4972658833333341,
            58.184021666666666
          ],
          [
            -3.4989742543707827,
            58.184501037357613
          ],
          [
            -3.5003541767368986,
            58.18504999554041
          ],
          [
            -3.5009987288734976,
            58.184031938243947
          ],
          [
            -3.5002049467754022,
            58.183075073717525
          ],
          [
            -3.5020877166666673,
            58.18211453333334
          ],
          [
            -3.5043941333333328,
            58.181709733333335
          ],
          [
            -3.5069826333333327,
            58.180665399999995
          ],
          [
            -3.5091288593377818,
            58.179311822155306
          ],
          [
            -3.5117168833333334,
            58.178408916666669
          ],
          [
            -3.514668233333333,
            58.177989533333324
          ],
          [
            -3.5176257500000001,
            58.176900549999999
          ],
          [
            -3.5199585500000001,
            58.175289599999992
          ],
          [
            -3.5223918499999995,
            58.17343746666667
          ],
          [
            -3.5250845333333332,
            58.171745416666667
          ],
          [
            -3.5288092166666662,
            58.170651266666667
          ],
          [
            -3.533085666666667,
            58.169958466666671
          ],
          [
            -3.5374377333333333,
            58.169742599999999
          ],
          [
            -3.5414215647025067,
            58.169087561321533
          ],
          [
            -3.5452156222943234,
            58.1681096865412
          ],
          [
            -3.5487161576053485,
            58.167202470187632
          ],
          [
            -3.5519752201813222,
            58.166305939359198
          ],
          [
            -3.5545552166666661,
            58.164916966666667
          ],
          [
            -3.55761175,
            58.163732749999987
          ],
          [
            -3.5616263333333338,
            58.163326750000003
          ],
          [
            -3.5658465790580141,
            58.163370351460223
          ],
          [
            -3.569777142069622,
            58.163610230053585
          ],
          [
            -3.5732436671379952,
            58.163258715856081
          ],
          [
            -3.5769319711858456,
            58.162863140818615
          ],
          [
            -3.5806374370641838,
            58.163052240631984
          ],
          [
            -3.5842517833305152,
            58.16315053349124
          ],
          [
            -3.5868803976689927,
            58.162219001714078
          ],
          [
            -3.5883274669581748,
            58.160413639958058
          ],
          [
            -3.5891682033206953,
            58.159228834187957
          ],
          [
            -3.5893100081956866,
            58.158329221490078
          ],
          [
            -3.5884529666666669,
            58.156298399999997
          ],
          [
            -3.5875209333333333,
            58.154254600000002
          ],
          [
            -3.5881439333333329,
            58.152133033333335
          ],
          [
            -3.5905110666666662,
            58.150525333333327
          ],
          [
            -3.5937554500000002,
            58.149679716666668
          ],
          [
            -3.5965135333333333,
            58.14864038333333
          ],
          [
            -3.598266891880201,
            58.146997267996269
          ],
          [
            -3.5997807333333336,
            58.145413866666665
          ],
          [
            -3.6008502999999998,
            58.143749016666668
          ],
          [
            -3.6005230384107594,
            58.142221402151044
          ],
          [
            -3.6024744499999999,
            58.140854400000002
          ],
          [
            -3.6053693999999994,
            58.140716616666673
          ],
          [
            -3.6084987666666666,
            58.141261550000003
          ],
          [
            -3.6111307000000004,
            58.140962000000009
          ],
          [
            -3.6096962666666665,
            58.139502716666662
          ],
          [
            -3.6092035999999998,
            58.137846666666675
          ],
          [
            -3.6108952499999996,
            58.136371533333346
          ],
          [
            -3.614040783333333,
            58.13550468333333
          ],
          [
            -3.6173478833333328,
            58.134713516666672
          ],
          [
            -3.6203420500000001,
            58.133579766666664
          ],
          [
            -3.6239286000000002,
            58.132945266666674
          ],
          [
            -3.6273227333333331,
            58.132363050000002
          ],
          [
            -3.6300954166666664,
            58.13130438333333
          ],
          [
            -3.6321831000000007,
            58.129660266666662
          ],
          [
            -3.6329907333333331,
            58.127906750000001
          ],
          [
            -3.6329742166666663,
            58.125911250000009
          ],
          [
            -3.6329399333333336,
            58.124984599999998
          ],
          [
            -3.6328920833333336,
            58.12384471666666
          ],
          [
            -3.6328937666666672,
            58.122277850000003
          ],
          [
            -3.6333773833333329,
            58.121110783333343
          ],
          [
            -3.6344464166666666,
            58.120278616666667
          ],
          [
            -3.6369378833333332,
            58.119871683333329
          ],
          [
            -3.6394447000000008,
            58.119479383333328
          ],
          [
            -3.6416472833333331,
            58.119007066666676
          ],
          [
            -3.6436620666666668,
            58.118369866666676
          ],
          [
            -3.6457852999999996,
            58.117935383333332
          ],
          [
            -3.6476801833333337,
            58.117995516666667
          ],
          [
            -3.6491569431178212,
            58.117377158779391
          ],
          [
            -3.650411063094138,
            58.116338367402825
          ],
          [
            -3.652110469930351,
            58.115219927782299
          ],
          [
            -3.6548700666666671,
            58.114563683333337
          ],
          [
            -3.6579672166666666,
            58.114101066666677
          ],
          [
            -3.6606394666666668,
            58.112793933333329
          ],
          [
            -3.6619973333333333,
            58.111032449999989
          ],
          [
            -3.6643626333333335,
            58.109567666666663
          ],
          [
            -3.6667501166666665,
            58.108315800000007
          ],
          [
            -3.6683708500000001,
            58.106853166666667
          ],
          [
            -3.6699335833333331,
            58.105187266666654
          ],
          [
            -3.6712681000000007,
            58.103672499999988
          ],
          [
            -3.6725087422829996,
            58.102412200668859
          ],
          [
            -3.6750866603527377,
            58.101471390274547
          ],
          [
            -3.6781218037871111,
            58.100804113226182
          ],
          [
            -3.6809632149727078,
            58.100027954059634
          ],
          [
            -3.6827323291894207,
            58.099242067475167
          ],
          [
            -3.6853398632935668,
            58.098828821280016
          ],
          [
            -3.6869403067092685,
            58.098608549486002
          ],
          [
            -3.6882712856819895,
            58.098505455350846
          ],
          [
            -3.6913118666666662,
            58.098002250000008
          ],
          [
            -3.6949385499999998,
            58.097195866666667
          ],
          [
            -3.6986614137387246,
            58.096150651903052
          ],
          [
            -3.7021824127286251,
            58.095404822446703
          ],
          [
            -3.70551921768004,
            58.094627490544568
          ],
          [
            -3.7081095753038742,
            58.09321634967165
          ],
          [
            -3.7102738316766093,
            58.091530460942415
          ],
          [
            -3.7129049616790293,
            58.0903067317251
          ],
          [
            -3.715844112081014,
            58.089034949472236
          ],
          [
            -3.7188142650525551,
            58.088076379968733
          ],
          [
            -3.7222503033843668,
            58.087355076015918
          ],
          [
            -3.726014464192076,
            58.086813736361542
          ],
          [
            -3.7293752584144091,
            58.086186094773183
          ],
          [
            -3.7327291582488185,
            58.085806850833698
          ],
          [
            -3.7362809115129649,
            58.084982693701633
          ],
          [
            -3.7387881666666667,
            58.084100583333338
          ],
          [
            -3.7417223333333327,
            58.08321066666668
          ],
          [
            -3.7441432419617739,
            58.082393552400042
          ],
          [
            -3.746329208909116,
            58.081296790904752
          ],
          [
            -3.7494366333333335,
            58.080531933333333
          ],
          [
            -3.7523328096705817,
            58.079854749794784
          ],
          [
            -3.7548293358238052,
            58.079018031875442
          ],
          [
            -3.7571833998462165,
            58.078037587509172
          ],
          [
            -3.7594822994137722,
            58.077218846584323
          ],
          [
            -3.7628374166666663,
            58.076634399999996
          ],
          [
            -3.7656802166666665,
            58.075844499999995
          ],
          [
            -3.7687580166666663,
            58.075048383333325
          ],
          [
            -3.7687580166666663,
            58.075048383333325
          ],
          [
            -3.7714734166666668,
            58.07435954999999
          ],
          [
            -3.7738508833333335,
            58.073286700000004
          ],
          [
            -3.7760752499999994,
            58.071785716666668
          ],
          [
            -3.7795075833333338,
            58.07034436666666
          ],
          [
            -3.783526456482706,
            58.070083748700917
          ],
          [
            -3.787218198181137,
            58.070103509995796
          ],
          [
            -3.7911713726853691,
            58.069399077789839
          ],
          [
            -3.7941757967904364,
            58.067744338089732
          ],
          [
            -3.7961855666666668,
            58.065843700000002
          ],
          [
            -3.7984955317672227,
            58.063998753707153
          ],
          [
            -3.8013440972622181,
            58.062454712030295
          ],
          [
            -3.8040031833333332,
            58.060881783333329
          ],
          [
            -3.8061763500000003,
            58.059382499999991
          ],
          [
            -3.8081761333333333,
            58.058014850000006
          ],
          [
            -3.8096547333333328,
            58.056417600000003
          ],
          [
            -3.8111002500000004,
            58.054894116666674
          ],
          [
            -3.8133120000000003,
            58.053490300000007
          ],
          [
            -3.8153639499999996,
            58.052197166666673
          ],
          [
            -3.8167776333333334,
            58.050712833333336
          ],
          [
            -3.8180484666666663,
            58.049028349999993
          ],
          [
            -3.8192901833333335,
            58.04737140000001
          ],
          [
            -3.8211627166666666,
            58.045893016666668
          ],
          [
            -3.8236182333333337,
            58.044659583333335
          ],
          [
            -3.8258510000000006,
            58.043348349999995
          ],
          [
            -3.8286746666666667,
            58.042119116666662
          ],
          [
            -3.8311899666666664,
            58.0410185
          ],
          [
            -3.8331522166666665,
            58.039742666666676
          ],
          [
            -3.8339311666666664,
            58.039068883333329
          ],
          [
            -3.8348067166666668,
            58.038248566666667
          ],
          [
            -3.8368732500000005,
            58.037144733333328
          ],
          [
            -3.8385578000000002,
            58.035817349999995
          ],
          [
            -3.8407170999999996,
            58.034406566666668
          ],
          [
            -3.8428512000000001,
            58.033129700000003
          ],
          [
            -3.8450931833333337,
            58.031947616666663
          ],
          [
            -3.8474550333333335,
            58.030699333333331
          ],
          [
            -3.8499365000000005,
            58.029694733333322
          ],
          [
            -3.8522828471582029,
            58.02870689996692
          ],
          [
            -3.8541954944088492,
            58.027388058146379
          ],
          [
            -3.8556845396653214,
            58.025978632132428
          ],
          [
            -3.8569455497437266,
            58.024774650071414
          ],
          [
            -3.8574161779246312,
            58.02349859489636
          ],
          [
            -3.8568393873785398,
            58.022079360727666
          ],
          [
            -3.856307167442929,
            58.020757906325549
          ],
          [
            -3.8557957626796164,
            58.019504959792172
          ],
          [
            -3.8553349471638483,
            58.018361639462576
          ],
          [
            -3.8549572232550231,
            58.017417901872456
          ],
          [
            -3.8545891370672201,
            58.016509515709721
          ],
          [
            -3.8542294939974919,
            58.015615833242826
          ],
          [
            -3.8538264272456377,
            58.014604840901853
          ],
          [
            -3.8534615340317204,
            58.013587839307796
          ],
          [
            -3.8531639554500114,
            58.012679650191522
          ],
          [
            -3.853727880560911,
            58.011829256255929
          ],
          [
            -3.8555225530098083,
            58.011954302504535
          ],
          [
            -3.8580186694613223,
            58.011758756689275
          ],
          [
            -3.8589330377534825,
            58.011678367519799
          ],
          [
            -3.8615544408520757,
            58.011657270526193
          ],
          [
            -3.8647306110537798,
            58.011783984651544
          ],
          [
            -3.8681636100149275,
            58.010422951688213
          ],
          [
            -3.8681063215168696,
            58.010399896766152
          ],
          [
            -3.8679692466056697,
            58.010330629069273
          ],
          [
            -3.8679692466056697,
            58.010330629069273
          ],
          [
            -3.8662202582349057,
            58.010364839338678
          ],
          [
            -3.8662202582349057,
            58.010364839338678
          ],
          [
            -3.8662202582349057,
            58.010364839338678
          ],
          [
            -3.8647165510677097,
            58.011752525710492
          ]
        ]
      },
      "properties" : {
        "start" : "2026-09-19T23:00:00Z",
        "device" : "B9E47AEB-E54C-4563-96B6-06995DD4BC56 (iPhone 16 Pro)",
        "type" : "route",
        "source" : "Geory 5.3.2",
        "end" : "2026-09-20T19:19:30Z"
      }
    }
  ]
}