{
  "type" : "FeatureCollection",
  "features" : [
    {
      "geometry" : {
        "type" : "Point",
        "coordinates" : [
          -3.9236017831728045,
          58.559312541488517
        ]
      },
      "properties" : {
        "timestamp" : "2026-09-28T21:20:39Z",
        "rating" : 0,
        "arrival" : "2026-09-28T21:20:39Z",
        "device" : "B9E47AEB-E54C-4563-96B6-06995DD4BC56 (iPhone 16 Pro)",
        "departure" : "2026-09-29T00:16:57Z",
        "weather" : "Aufgelockert bewölkt (9,5 °C)",
        "source" : "Geory 5.3.2",
        "type" : "visit",
        "address" : "Thurso, KW14, Schottland",
        "duration" : 10578.117158889771
      },
      "type" : "Feature"
    },
    {
      "geometry" : {
        "type" : "Point",
        "coordinates" : [
          -3.9236653176467566,
          58.55929672801846
        ]
      },
      "type" : "Feature",
      "properties" : {
        "weather" : "Überwiegend bewölkt (8,6 °C)",
        "type" : "visit",
        "timestamp" : "2026-09-29T00:46:59Z",
        "address" : "Thurso, KW14, Schottland",
        "departure" : "2026-09-29T04:07:26Z",
        "duration" : 12027.154188632965,
        "rating" : 0,
        "source" : "Geory 5.3.2",
        "device" : "B9E47AEB-E54C-4563-96B6-06995DD4BC56 (iPhone 16 Pro)",
        "arrival" : "2026-09-29T00:46:59Z"
      }
    },
    {
      "properties" : {
        "timestamp" : "2026-09-29T04:27:32Z",
        "type" : "visit",
        "departure" : "2026-09-29T06:31:58Z",
        "rating" : 0,
        "weather" : "Bedeckter Himmel (10,9 °C)",
        "arrival" : "2026-09-29T04:27:32Z",
        "device" : "B9E47AEB-E54C-4563-96B6-06995DD4BC56 (iPhone 16 Pro)",
        "duration" : 7465.6732177734375,
        "address" : "Thurso, KW14, Schottland",
        "source" : "Geory 5.3.2"
      },
      "type" : "Feature",
      "geometry" : {
        "coordinates" : [
          -3.9237074578050244,
          58.559263833247321
        ],
        "type" : "Point"
      }
    },
    {
      "geometry" : {
        "type" : "Point",
        "coordinates" : [
          -3.9235740817006119,
          58.559264664833407
        ]
      },
      "type" : "Feature",
      "properties" : {
        "address" : "Thurso, KW14, Schottland",
        "arrival" : "2026-09-29T06:36:38Z",
        "type" : "visit",
        "departure" : "2026-09-29T08:26:55Z",
        "duration" : 6616.8047385215759,
        "timestamp" : "2026-09-29T06:36:38Z",
        "weather" : "Bedeckter Himmel (11,6 °C)",
        "rating" : 0,
        "source" : "Geory 5.3.2",
        "device" : "B9E47AEB-E54C-4563-96B6-06995DD4BC56 (iPhone 16 Pro)"
      }
    },
    {
      "geometry" : {
        "coordinates" : [
          -3.9242612599465256,
          58.55862522355303
        ],
        "type" : "Point"
      },
      "properties" : {
        "type" : "visit",
        "duration" : 2320.1594221591949,
        "rating" : 0,
        "address" : "Thurso, KW14, Schottland",
        "timestamp" : "2026-09-29T08:27:00Z",
        "source" : "Geory 5.3.2",
        "departure" : "2026-09-29T09:05:41Z",
        "weather" : "Bedeckter Himmel (12,1 °C)",
        "arrival" : "2026-09-29T08:27:00Z",
        "device" : "B9E47AEB-E54C-4563-96B6-06995DD4BC56 (iPhone 16 Pro)"
      },
      "type" : "Feature"
    },
    {
      "geometry" : {
        "coordinates" : [
          -4.2218146998939377,
          58.528296227429884
        ],
        "type" : "Point"
      },
      "type" : "Feature",
      "properties" : {
        "weather" : "Überwiegend bewölkt (13,3 °C)",
        "address" : "Lochnagar, Bettyhill, Thurso, KW14 7SS, Schottland",
        "source" : "Geory 5.3.2",
        "departure" : "2026-09-29T10:42:20Z",
        "device" : "B9E47AEB-E54C-4563-96B6-06995DD4BC56 (iPhone 16 Pro)",
        "arrival" : "2026-09-29T09:38:28Z",
        "rating" : 0,
        "duration" : 3832.3909487724304,
        "type" : "visit",
        "timestamp" : "2026-09-29T09:38:28Z"
      }
    },
    {
      "type" : "Feature",
      "geometry" : {
        "type" : "Point",
        "coordinates" : [
          -4.5448680795756298,
          58.503623353559405
        ]
      },
      "properties" : {
        "type" : "visit",
        "weather" : "Bedeckter Himmel (14,0 °C)",
        "arrival" : "2026-09-29T12:09:09Z",
        "timestamp" : "2026-09-29T12:09:09Z",
        "rating" : 0,
        "source" : "Geory 5.3.2",
        "departure" : "2026-09-29T12:32:20Z",
        "address" : "A838, Lairg, IV27, Schottland",
        "duration" : 1391.0094542503357,
        "device" : "B9E47AEB-E54C-4563-96B6-06995DD4BC56 (iPhone 16 Pro)"
      }
    },
    {
      "type" : "Feature",
      "geometry" : {
        "type" : "Point",
        "coordinates" : [
          -4.7421420045506251,
          58.569317082401149
        ]
      },
      "properties" : {
        "timestamp" : "2026-09-29T13:32:05Z",
        "source" : "Geory 5.3.2",
        "device" : "B9E47AEB-E54C-4563-96B6-06995DD4BC56 (iPhone 16 Pro)",
        "address" : "A838, Sangomore, Durness, Lairg, IV27, Schottland",
        "departure" : "2026-09-29T15:58:50Z",
        "duration" : 8805.6879625320435,
        "arrival" : "2026-09-29T13:32:05Z",
        "type" : "visit",
        "rating" : 0,
        "weather" : "Bedeckter Himmel (14,5 °C)"
      }
    },
    {
      "properties" : {
        "duration" : 15674.843516111374,
        "weather" : "Bedeckter Himmel (14,5 °C)",
        "type" : "visit",
        "address" : "A838, Sangomore, Durness, Lairg, IV27, Schottland",
        "rating" : 0,
        "source" : "Geory 5.3.2",
        "timestamp" : "2026-09-29T16:12:48Z",
        "arrival" : "2026-09-29T16:12:48Z",
        "device" : "B9E47AEB-E54C-4563-96B6-06995DD4BC56 (iPhone 16 Pro)"
      },
      "geometry" : {
        "coordinates" : [
          -4.7409300121627922,
          58.568997194302199
        ],
        "type" : "Point"
      },
      "type" : "Feature"
    },
    {
      "geometry" : {
        "coordinates" : [
          [
            -4.7409300121627922,
            58.568997194302199
          ],
          [
            -4.737148894960459,
            58.568921543323114
          ],
          [
            -4.7381627220292204,
            58.569689665893833
          ],
          [
            -4.7421420045506251,
            58.569317082401149
          ],
          [
            -4.7419162991492199,
            58.568251421141198
          ],
          [
            -4.740341250998374,
            58.567872107048139
          ],
          [
            -4.7400159333333329,
            58.566639366666671
          ],
          [
            -4.7408799666666663,
            58.565653699999999
          ],
          [
            -4.7418339666666665,
            58.56461516666667
          ],
          [
            -4.7428530499999999,
            58.563519116666676
          ],
          [
            -4.7439760166666662,
            58.562365950000007
          ],
          [
            -4.7433981913392804,
            58.56106308455508
          ],
          [
            -4.7409446833333337,
            58.561753616666657
          ],
          [
            -4.7387782833333336,
            58.562764633333337
          ],
          [
            -4.7370986681111154,
            58.563841474719936
          ],
          [
            -4.7357681033849532,
            58.564755532381156
          ],
          [
            -4.7331685000000006,
            58.564861266666668
          ],
          [
            -4.7306489499999991,
            58.564270016666654
          ],
          [
            -4.7280704,
            58.564335883333328
          ],
          [
            -4.7257394499999998,
            58.564065516666666
          ],
          [
            -4.7235782499999992,
            58.563549133333332
          ],
          [
            -4.7216142166666666,
            58.563411033333324
          ],
          [
            -4.7201536833333337,
            58.562668550000012
          ],
          [
            -4.7194848158358749,
            58.561297359501623
          ],
          [
            -4.7183148990200712,
            58.560126976846234
          ],
          [
            -4.7167169166666669,
            58.559299116666672
          ],
          [
            -4.7152267000000005,
            58.558736533333331
          ],
          [
            -4.7135140666666668,
            58.558389349999999
          ],
          [
            -4.7113550499999999,
            58.558473383333329
          ],
          [
            -4.7094019834465426,
            58.558323162767856
          ],
          [
            -4.7076556653688755,
            58.558201678208022
          ],
          [
            -4.7065713666666662,
            58.557063416666672
          ],
          [
            -4.706164530358774,
            58.555865897495444
          ],
          [
            -4.7060837666666666,
            58.554737700000004
          ],
          [
            -4.7041049500000005,
            58.554034500000007
          ],
          [
            -4.7019747680103707,
            58.554126077621341
          ],
          [
            -4.6998928476006849,
            58.554315401552302
          ],
          [
            -4.6972226666666677,
            58.554171366666665
          ],
          [
            -4.6949829333333337,
            58.55378313333334
          ],
          [
            -4.6921064166666664,
            58.553010683333333
          ],
          [
            -4.6909287499999994,
            58.552078583333333
          ],
          [
            -4.6887069166666668,
            58.551601466666675
          ],
          [
            -4.686096833333333,
            58.551216916666661
          ],
          [
            -4.6840290666666666,
            58.55105786666666
          ],
          [
            -4.6823493833333334,
            58.550478966666667
          ],
          [
            -4.6815147333333336,
            58.549405533333321
          ],
          [
            -4.6802393000000011,
            58.548801500000003
          ],
          [
            -4.6782290166666662,
            58.549157450000003
          ],
          [
            -4.6769690666666666,
            58.548345583333337
          ],
          [
            -4.6754846771075238,
            58.547820880255735
          ],
          [
            -4.6744142499999999,
            58.54691055
          ],
          [
            -4.6739752999999995,
            58.545566549999997
          ],
          [
            -4.6736599166666668,
            58.544157399999989
          ],
          [
            -4.6732419333333333,
            58.542987883333332
          ],
          [
            -4.6747116166666656,
            58.541870183333337
          ],
          [
            -4.6755882333333334,
            58.540507399999996
          ],
          [
            -4.675626513268818,
            58.539168552616886
          ],
          [
            -4.6758375166666672,
            58.537765099999994
          ],
          [
            -4.6761847333333328,
            58.53643506666667
          ],
          [
            -4.6756836887596869,
            58.535063483348857
          ],
          [
            -4.6755484500000009,
            58.533998583333336
          ],
          [
            -4.6762633333333339,
            58.532756133333336
          ],
          [
            -4.6771369333333332,
            58.531768366666661
          ],
          [
            -4.6784004166666664,
            58.530698616666662
          ],
          [
            -4.6796420333333337,
            58.529582883333326
          ],
          [
            -4.6806877166666672,
            58.528481833333338
          ],
          [
            -4.6820111951035255,
            58.527402630480189
          ],
          [
            -4.6829738915797074,
            58.526324889708576
          ],
          [
            -4.684055625372249,
            58.525258534877835
          ],
          [
            -4.68386527155495,
            58.524096480897278
          ],
          [
            -4.6849089396017831,
            58.52302434857031
          ],
          [
            -4.6850589333333339,
            58.521855050000006
          ],
          [
            -4.6856314166666664,
            58.520879866666668
          ],
          [
            -4.6871831333333338,
            58.520314866666666
          ],
          [
            -4.6889800748683745,
            58.519622209268142
          ],
          [
            -4.6905240349057324,
            58.518802809932403
          ],
          [
            -4.6920874486487074,
            58.517962605041909
          ],
          [
            -4.6927864603554728,
            58.516755975272538
          ],
          [
            -4.6932970001658605,
            58.515896238924881
          ],
          [
            -4.694448575444099,
            58.515066557157191
          ],
          [
            -4.6960994896952082,
            58.514357998700056
          ],
          [
            -4.6966055470649195,
            58.513408561478535
          ],
          [
            -4.6978129648704483,
            58.512437162139371
          ],
          [
            -4.6990378530848522,
            58.511687325781885
          ],
          [
            -4.700911491502251,
            58.511169689672315
          ],
          [
            -4.7016912499999997,
            58.510205533333334
          ],
          [
            -4.7013896833333328,
            58.509271716666674
          ],
          [
            -4.7024324654711034,
            58.508519950737004
          ],
          [
            -4.7038352576049176,
            58.50793581168206
          ],
          [
            -4.7050010798461583,
            58.507069875581003
          ],
          [
            -4.7063834002049898,
            58.506286970469446
          ],
          [
            -4.7065076999999995,
            58.505131200000008
          ],
          [
            -4.7074133415483166,
            58.503848821421045
          ],
          [
            -4.7084213063544347,
            58.503059632097553
          ],
          [
            -4.7093983134022182,
            58.501957431576763
          ],
          [
            -4.7106686288742861,
            58.50121815004136
          ],
          [
            -4.7121160617729752,
            58.500381660684681
          ],
          [
            -4.7139716308555446,
            58.499540894897514
          ],
          [
            -4.715222078177475,
            58.498449167227754
          ],
          [
            -4.716791332768878,
            58.497490360523017
          ],
          [
            -4.7185158983088309,
            58.496690898598843
          ],
          [
            -4.719220195687484,
            58.49577035135448
          ],
          [
            -4.720333054447643,
            58.495014373552721
          ],
          [
            -4.7215648706299636,
            58.493750321064255
          ],
          [
            -4.7230680462950705,
            58.492574358270737
          ],
          [
            -4.7240136125340184,
            58.491470019815416
          ],
          [
            -4.7242601565785094,
            58.490250895696505
          ],
          [
            -4.7257836951732646,
            58.4891602746833
          ],
          [
            -4.7262566999999995,
            58.487782166666662
          ],
          [
            -4.7269882564984842,
            58.486378740433132
          ],
          [
            -4.7275707166666665,
            58.484996516666662
          ],
          [
            -4.7290052333333339,
            58.483706383333335
          ],
          [
            -4.7300032833333336,
            58.482453633333336
          ],
          [
            -4.7309397500000001,
            58.481086116666667
          ],
          [
            -4.7317112666666663,
            58.479756516666676
          ],
          [
            -4.7329852666666659,
            58.478478233333334
          ],
          [
            -4.7340926833333334,
            58.477052699999994
          ],
          [
            -4.7350824999999999,
            58.475677700000006
          ],
          [
            -4.7363232999999996,
            58.473859899999994
          ],
          [
            -4.7372826333333329,
            58.473033116666663
          ],
          [
            -4.7392384999999999,
            58.472079249999993
          ],
          [
            -4.7410731833333335,
            58.471001516666661
          ],
          [
            -4.7429860333333336,
            58.469864083333334
          ],
          [
            -4.7445878666666665,
            58.468539683333333
          ],
          [
            -4.7460799333333323,
            58.467205966666675
          ],
          [
            -4.7471839500000002,
            58.465844383333334
          ],
          [
            -4.7487667333333334,
            58.4647869
          ],
          [
            -4.7505886166666675,
            58.463856366666668
          ],
          [
            -4.7519891333333328,
            58.463159466666667
          ],
          [
            -4.7541263333333337,
            58.462300283333335
          ],
          [
            -4.7554847833333334,
            58.461218899999999
          ],
          [
            -4.7567736666666667,
            58.460334333333336
          ],
          [
            -4.7578863,
            58.459063683333341
          ],
          [
            -4.7588867500000003,
            58.457697599999996
          ],
          [
            -4.7596519333333331,
            58.456313233333333
          ],
          [
            -4.7594275500000007,
            58.454865366666667
          ],
          [
            -4.7589182000000001,
            58.45343736666667
          ],
          [
            -4.7593102499999995,
            58.451858783333336
          ],
          [
            -4.7604283999999994,
            58.450581416666665
          ],
          [
            -4.761956866666667,
            58.449488066666667
          ],
          [
            -4.7618196166666671,
            58.44824861666666
          ],
          [
            -4.7600234390689637,
            58.44791894648737
          ],
          [
            -4.7578075166666673,
            58.447227750000003
          ],
          [
            -4.7559587999999993,
            58.446113233333335
          ],
          [
            -4.7547301666666675,
            58.444765766666663
          ],
          [
            -4.7532491166666668,
            58.443851033333338
          ],
          [
            -4.7498588833333333,
            58.444211183333323
          ],
          [
            -4.7478243666666673,
            58.444490549999998
          ],
          [
            -4.7452871833333345,
            58.444815199999994
          ],
          [
            -4.7426187666666664,
            58.444770500000004
          ],
          [
            -4.7399411333333337,
            58.444845516666661
          ],
          [
            -4.7381499500000004,
            58.445242766666659
          ],
          [
            -4.7363598333333341,
            58.446361250000002
          ],
          [
            -4.735002933333333,
            58.447567733333337
          ],
          [
            -4.7339112833333337,
            58.449063116666672
          ],
          [
            -4.7329698845722792,
            58.450315773511292
          ],
          [
            -4.7314634166666663,
            58.451478433333321
          ],
          [
            -4.7303410166666664,
            58.452779883333342
          ],
          [
            -4.7286643333333327,
            58.454038783333331
          ],
          [
            -4.7273241000000006,
            58.455205133333322
          ],
          [
            -4.72634623471588,
            58.456353188396101
          ],
          [
            -4.7247827000000004,
            58.456795416666672
          ],
          [
            -4.7232263666666663,
            58.45595926666666
          ],
          [
            -4.7209442666666677,
            58.455622783333332
          ],
          [
            -4.7185302166666672,
            58.456319666666658
          ],
          [
            -4.7162604000000004,
            58.456972066666673
          ],
          [
            -4.7137897999999998,
            58.45735633333333
          ],
          [
            -4.7113762166666664,
            58.457302716666668
          ],
          [
            -4.7088802833333334,
            58.457719966666673
          ],
          [
            -4.7073600277110703,
            58.458821762758248
          ],
          [
            -4.7061930499999995,
            58.459796166666671
          ],
          [
            -4.7048132166666665,
            58.460748399999993
          ],
          [
            -4.7030658833333332,
            58.461410166666674
          ],
          [
            -4.7022231169265787,
            58.462492338222233
          ],
          [
            -4.7003969000000003,
            58.463075783333331
          ],
          [
            -4.6986289333333326,
            58.463062416666659
          ],
          [
            -4.6970084091672835,
            58.464050896347239
          ],
          [
            -4.6969304864936188,
            58.465120815937304
          ],
          [
            -4.6957016166666667,
            58.466094616666666
          ],
          [
            -4.6937050833333336,
            58.466592850000005
          ],
          [
            -4.6909883499999996,
            58.466560550000004
          ],
          [
            -4.6885375736262906,
            58.46710854151128
          ],
          [
            -4.6865340500000006,
            58.467848016666657
          ],
          [
            -4.6846568333333334,
            58.468838733333328
          ],
          [
            -4.6834134500000006,
            58.469855933333335
          ],
          [
            -4.6819680666666672,
            58.470768799999995
          ],
          [
            -4.6815864079912206,
            58.472071189529188
          ],
          [
            -4.6815673000000002,
            58.473317183333329
          ],
          [
            -4.6807271602160858,
            58.47448492578139
          ],
          [
            -4.6803410666666663,
            58.475786116666661
          ],
          [
            -4.6787513833333332,
            58.476607433333328
          ],
          [
            -4.6770644666666676,
            58.477470883333339
          ],
          [
            -4.6759952,
            58.478613583333328
          ],
          [
            -4.6760851833333339,
            58.479801416666668
          ],
          [
            -4.6753970999162258,
            58.480915552219471
          ],
          [
            -4.6744018548365123,
            58.482035354414286
          ],
          [
            -4.6728304666666665,
            58.482635566666673
          ],
          [
            -4.6706872500000003,
            58.482322700000005
          ],
          [
            -4.6690264666666668,
            58.481556683333338
          ],
          [
            -4.6667667833333333,
            58.481133699999994
          ],
          [
            -4.6650356333333329,
            58.481231866666661
          ],
          [
            -4.6639350999999998,
            58.482079400000003
          ],
          [
            -4.66268905,
            58.482999599999992
          ],
          [
            -4.6617587166666672,
            58.48388289999999
          ],
          [
            -4.6609741833333329,
            58.484690666666665
          ],
          [
            -4.6605007166666663,
            58.485579000000008
          ],
          [
            -4.6609582833333327,
            58.486490266666671
          ],
          [
            -4.6610576166666666,
            58.487548833333328
          ],
          [
            -4.661432333333333,
            58.488455666666674
          ],
          [
            -4.66181745,
            58.489384199999996
          ],
          [
            -4.6621197666666667,
            58.490292050000008
          ],
          [
            -4.6619854333333333,
            58.491297116666658
          ],
          [
            -4.6615603499999994,
            58.492251100000011
          ],
          [
            -4.6610397499999996,
            58.493157916666661
          ],
          [
            -4.6606057999999999,
            58.494060699999999
          ],
          [
            -4.660138466666667,
            58.494967233333334
          ],
          [
            -4.6593508500000009,
            58.495837366666663
          ],
          [
            -4.658605866666667,
            58.496648916666665
          ],
          [
            -4.6577668576657256,
            58.498083449392446
          ],
          [
            -4.6579245256099391,
            58.499889686635484
          ],
          [
            -4.6573482000000004,
            58.500480449999998
          ],
          [
            -4.6565311666666656,
            58.501307766666663
          ],
          [
            -4.6556368333333333,
            58.502229633333336
          ],
          [
            -4.6546760333333328,
            58.503232333333337
          ],
          [
            -4.6529960166666662,
            58.50399376666666
          ],
          [
            -4.6507229666666667,
            58.503701299999996
          ],
          [
            -4.6485935000000005,
            58.50377486666666
          ],
          [
            -4.6468305333333326,
            58.502848366666669
          ],
          [
            -4.6457012333333338,
            58.501738016666664
          ],
          [
            -4.6434096166666663,
            58.501336083333342
          ],
          [
            -4.6405683333333325,
            58.501679799999998
          ],
          [
            -4.6381117666666665,
            58.501882700000003
          ],
          [
            -4.6357862999999995,
            58.501411599999997
          ],
          [
            -4.6341642333333333,
            58.500230233333333
          ],
          [
            -4.6330265166666669,
            58.499115883333332
          ],
          [
            -4.6307857000000006,
            58.499361183333335
          ],
          [
            -4.6290910666666676,
            58.500522249999996
          ],
          [
            -4.6274242000000001,
            58.501665133333333
          ],
          [
            -4.6260122666666668,
            58.502627799999999
          ],
          [
            -4.6248581833333331,
            58.503612333333329
          ],
          [
            -4.6233135666666669,
            58.504312849999998
          ],
          [
            -4.6216463831630481,
            58.504038053699951
          ],
          [
            -4.6214510666666664,
            58.503117016666664
          ],
          [
            -4.620842933333333,
            58.502029566666671
          ],
          [
            -4.6190774500000007,
            58.501877049999997
          ],
          [
            -4.6190454736459348,
            58.502787170187439
          ],
          [
            -4.6180066333333336,
            58.503535449999994
          ],
          [
            -4.6161085833333333,
            58.503166166666674
          ],
          [
            -4.6143211833333329,
            58.50309901666666
          ],
          [
            -4.6132441333333336,
            58.504065933333337
          ],
          [
            -4.6118685333333334,
            58.504989750000007
          ],
          [
            -4.6095508333333335,
            58.505624800000007
          ],
          [
            -4.6060223499999999,
            58.505909599999995
          ],
          [
            -4.6028882333333332,
            58.506158749999997
          ],
          [
            -4.6000541833333326,
            58.506295216666665
          ],
          [
            -4.5974583666666673,
            58.505817666666658
          ],
          [
            -4.5963125666666667,
            58.504650783333332
          ],
          [
            -4.5951439166666672,
            58.503417800000001
          ],
          [
            -4.5934062999999998,
            58.502330399999998
          ],
          [
            -4.5910772166666671,
            58.501941400000007
          ],
          [
            -4.5881881166666671,
            58.501962050000003
          ],
          [
            -4.585107616666666,
            58.501750566666672
          ],
          [
            -4.5819105666666662,
            58.501561250000009
          ],
          [
            -4.5785336166666672,
            58.501533833333333
          ],
          [
            -4.5756324666666659,
            58.50192340000001
          ],
          [
            -4.5731165166666665,
            58.503017083333333
          ],
          [
            -4.5707160166666663,
            58.504242549999994
          ],
          [
            -4.5678304166666663,
            58.504768866666666
          ],
          [
            -4.5649878499999996,
            58.504666733333337
          ],
          [
            -4.5622689333333337,
            58.504657083333328
          ],
          [
            -4.5598047333333325,
            58.505104233333334
          ],
          [
            -4.558161300000001,
            58.505506900000007
          ],
          [
            -4.5448680795756298,
            58.503623353559405
          ],
          [
            -4.5443474666666663,
            58.504071733333333
          ],
          [
            -4.541851733333333,
            58.503428966666661
          ],
          [
            -4.5390652999999999,
            58.502712433333329
          ],
          [
            -4.5362724999999999,
            58.502162250000005
          ],
          [
            -4.5334371666666673,
            58.50188825
          ],
          [
            -4.530243050000001,
            58.501779933333331
          ],
          [
            -4.5271882333333338,
            58.501794933333336
          ],
          [
            -4.5242645666666661,
            58.501917266666666
          ],
          [
            -4.5215601333333337,
            58.502213099999999
          ],
          [
            -4.5189015166666673,
            58.502905016666666
          ],
          [
            -4.5162730166666671,
            58.503701833333324
          ],
          [
            -4.5133695166666667,
            58.50406253333334
          ],
          [
            -4.5106116666666667,
            58.50411368333333
          ],
          [
            -4.5076956333333342,
            58.50415666666666
          ],
          [
            -4.504547633333333,
            58.504205616666667
          ],
          [
            -4.5013609499999996,
            58.504253749999997
          ],
          [
            -4.4984381333333339,
            58.504305049999992
          ],
          [
            -4.4957351999999995,
            58.504252700000002
          ],
          [
            -4.4930955000000008,
            58.503662533333333
          ],
          [
            -4.4907873,
            58.502595400000004
          ],
          [
            -4.4884209166666666,
            58.501782216666662
          ],
          [
            -4.4863607999999999,
            58.500870400000004
          ],
          [
            -4.4846656166666659,
            58.499110433333335
          ],
          [
            -4.484293666666666,
            58.498124599999997
          ],
          [
            -4.4829828333333337,
            58.497014116666662
          ],
          [
            -4.4801978999999994,
            58.496564350000007
          ],
          [
            -4.4770744999999996,
            58.496176116666661
          ],
          [
            -4.4742558500000005,
            58.496007750000004
          ],
          [
            -4.4713840333333339,
            58.496219833333335
          ],
          [
            -4.4684781833333336,
            58.49665233333333
          ],
          [
            -4.465830416666666,
            58.497043333333345
          ],
          [
            -4.4634715666666667,
            58.497393716666664
          ],
          [
            -4.4613255999999994,
            58.497682833333329
          ],
          [
            -4.4592797333333332,
            58.497736000000003
          ],
          [
            -4.4569726666666662,
            58.497495750000006
          ],
          [
            -4.4548004333333333,
            58.496941266666667
          ],
          [
            -4.4529759499999999,
            58.496109350000012
          ],
          [
            -4.4511693999999995,
            58.495261600000006
          ],
          [
            -4.4492449999999995,
            58.494343550000004
          ],
          [
            -4.4470653333333336,
            58.493477666666664
          ],
          [
            -4.4449292000000007,
            58.492876066666668
          ],
          [
            -4.4424384166666675,
            58.492414799999999
          ],
          [
            -4.4399625333333343,
            58.492157433333325
          ],
          [
            -4.4377021666666669,
            58.492077633333338
          ],
          [
            -4.4359818000000004,
            58.492109783333341
          ],
          [
            -4.4339497833333334,
            58.492245433333331
          ],
          [
            -4.4319397999999994,
            58.492383466666659
          ],
          [
            -4.4300031833333335,
            58.49240249999999
          ],
          [
            -4.4278546166666661,
            58.4919753
          ],
          [
            -4.4254297666666664,
            58.491191933333326
          ],
          [
            -4.4231557499999994,
            58.490457716666668
          ],
          [
            -4.4222666833333335,
            58.490177466666673
          ],
          [
            -4.4207700666666661,
            58.489700700000007
          ],
          [
            -4.4187866833333329,
            58.488910950000005
          ],
          [
            -4.418019966666666,
            58.487581666666664
          ],
          [
            -4.4181992666666661,
            58.486372550000006
          ],
          [
            -4.4184162166666665,
            58.484965716666665
          ],
          [
            -4.4184111666666661,
            58.48372655
          ],
          [
            -4.4182489500000006,
            58.482420550000008
          ],
          [
            -4.4183426333333324,
            58.481235716666667
          ],
          [
            -4.4190196542712625,
            58.480118667439996
          ],
          [
            -4.4192393394311438,
            58.478912490510233
          ],
          [
            -4.4188234219425313,
            58.477789576978239
          ],
          [
            -4.4184685722264634,
            58.476852654539563
          ],
          [
            -4.4174230937074146,
            58.476110790277211
          ],
          [
            -4.4169367482514419,
            58.477143219913138
          ],
          [
            -4.4164257628426435,
            58.478241501375521
          ],
          [
            -4.4158107666666666,
            58.479617383333334
          ],
          [
            -4.4153332333333326,
            58.48063475
          ],
          [
            -4.4149449166666672,
            58.481681266666662
          ],
          [
            -4.4146002333333332,
            58.482774783333333
          ],
          [
            -4.4142212999999995,
            58.483954949999998
          ],
          [
            -4.4138608500000007,
            58.485072683333328
          ],
          [
            -4.413499766666666,
            58.48605808333334
          ],
          [
            -4.4131171666666669,
            58.486949250000002
          ],
          [
            -4.4126786866929342,
            58.487820929644002
          ],
          [
            -4.4116454605022337,
            58.488760864292296
          ],
          [
            -4.4112434333333326,
            58.489738500000009
          ],
          [
            -4.4112765333333339,
            58.49084460000001
          ],
          [
            -4.4109249166666666,
            58.491823133333341
          ],
          [
            -4.4104958999999999,
            58.492823083333327
          ],
          [
            -4.4103586954021798,
            58.493981073538436
          ],
          [
            -4.4099996333333333,
            58.49497401666666
          ],
          [
            -4.4095493792730815,
            58.49590020212505
          ],
          [
            -4.4086733666666662,
            58.496755383333323
          ],
          [
            -4.4072768333333334,
            58.497373016666671
          ],
          [
            -4.4057408499999999,
            58.497936600000003
          ],
          [
            -4.4039431166666665,
            58.49830983333333
          ],
          [
            -4.4023418999999997,
            58.498927850000001
          ],
          [
            -4.400665533333334,
            58.499713616666675
          ],
          [
            -4.3990951666666671,
            58.500416683333334
          ],
          [
            -4.3972965499999992,
            58.50100900000001
          ],
          [
            -4.3957790999999995,
            58.501596333333325
          ],
          [
            -4.3947997666666669,
            58.502382799999999
          ],
          [
            -4.3941175625264979,
            58.503229495955296
          ],
          [
            -4.3935615833333337,
            58.504509850000005
          ],
          [
            -4.3921275333333334,
            58.50556790000001
          ],
          [
            -4.3908740000000002,
            58.506314766666677
          ],
          [
            -4.3887804333333333,
            58.50654913333333
          ],
          [
            -4.3870131084904784,
            58.506296562074681
          ],
          [
            -4.3854120467005453,
            58.505885146603958
          ],
          [
            -4.3837096917519487,
            58.506119993524308
          ],
          [
            -4.3816740333333328,
            58.506070699999995
          ],
          [
            -4.3797886999999998,
            58.506089833333334
          ],
          [
            -4.3783135426873416,
            58.505437498897678
          ],
          [
            -4.3779031994747868,
            58.504361428584716
          ],
          [
            -4.3770401212231036,
            58.503405012098405
          ],
          [
            -4.375661383333334,
            58.502761350000007
          ],
          [
            -4.3739630833333338,
            58.502432016666667
          ],
          [
            -4.3719449333333333,
            58.501721600000003
          ],
          [
            -4.370047337238093,
            58.500879273444923
          ],
          [
            -4.3682222423054995,
            58.500193843661783
          ],
          [
            -4.3663586764751496,
            58.500716014333527
          ],
          [
            -4.3658289636147565,
            58.50162987134452
          ],
          [
            -4.3637945666666669,
            58.501774516666671
          ],
          [
            -4.3620329,
            58.501527199999998
          ],
          [
            -4.3600204868242169,
            58.501430992752091
          ],
          [
            -4.3577168500000001,
            58.501352566666675
          ],
          [
            -4.3564837166666663,
            58.50033126666667
          ],
          [
            -4.3556923999999997,
            58.49942025
          ],
          [
            -4.3548249166666668,
            58.498377416666663
          ],
          [
            -4.3531370999999996,
            58.497713933333337
          ],
          [
            -4.3510077166666674,
            58.497609716666659
          ],
          [
            -4.3492915666666665,
            58.497951349999994
          ],
          [
            -4.3474087333333324,
            58.498751899999995
          ],
          [
            -4.3465165500000005,
            58.499161033333337
          ],
          [
            -4.3454587333333334,
            58.499652600000005
          ],
          [
            -4.3437468333333333,
            58.500442300000003
          ],
          [
            -4.3421870582141304,
            58.501340384047417
          ],
          [
            -4.3406352999999998,
            58.502126449999999
          ],
          [
            -4.3381944500000005,
            58.502198516666667
          ],
          [
            -4.3362594619077637,
            58.502818627463618
          ],
          [
            -4.3335489166666665,
            58.503026000000006
          ],
          [
            -4.331459783333333,
            58.502817299999997
          ],
          [
            -4.3295690833333333,
            58.502208733333326
          ],
          [
            -4.3282357666666664,
            58.501343666666664
          ],
          [
            -4.3268360000000001,
            58.500651550000008
          ],
          [
            -4.3253179666666668,
            58.50022138333334
          ],
          [
            -4.3237484839010341,
            58.499300439852298
          ],
          [
            -4.3215484999999996,
            58.498475933333339
          ],
          [
            -4.318744716666667,
            58.497981250000002
          ],
          [
            -4.3163558500000008,
            58.497528600000003
          ],
          [
            -4.3145052333333336,
            58.497062499999998
          ],
          [
            -4.3121897000000002,
            58.496758383333329
          ],
          [
            -4.3094410333333339,
            58.496486933333337
          ],
          [
            -4.3072260499999997,
            58.495869166666672
          ],
          [
            -4.3051039127174295,
            58.49499773445428
          ],
          [
            -4.3025519166666673,
            58.494883233333333
          ],
          [
            -4.3003149333333326,
            58.495169866666657
          ],
          [
            -4.2981632833333334,
            58.495180116666667
          ],
          [
            -4.2958966833333339,
            58.495452133333345
          ],
          [
            -4.2935971666666664,
            58.495676699999997
          ],
          [
            -4.2912210333333327,
            58.495614966666665
          ],
          [
            -4.2891993833333331,
            58.496122883333328
          ],
          [
            -4.28732750769547,
            58.496379616600024
          ],
          [
            -4.2853781833333331,
            58.496365633333333
          ],
          [
            -4.2831228833333332,
            58.496531850000004
          ],
          [
            -4.2809080166666673,
            58.496539383333328
          ],
          [
            -4.2787695166666664,
            58.496108766666673
          ],
          [
            -4.2763612500000008,
            58.495592683333342
          ],
          [
            -4.2740948000000003,
            58.495177166666657
          ],
          [
            -4.2721000727332088,
            58.49432101901148
          ],
          [
            -4.2704874240160029,
            58.493043070479082
          ],
          [
            -4.2693753696864105,
            58.491965451629952
          ],
          [
            -4.2682001562742506,
            58.490906505071834
          ],
          [
            -4.2670229872505807,
            58.490050307872401
          ],
          [
            -4.2660200984628149,
            58.488959451663455
          ],
          [
            -4.2640658753911298,
            58.488013069770517
          ],
          [
            -4.2622609000094336,
            58.487420173099004
          ],
          [
            -4.2607462982015951,
            58.48690121421501
          ],
          [
            -4.2591352333333328,
            58.486547700000003
          ],
          [
            -4.2575085499999998,
            58.486245733333327
          ],
          [
            -4.2555492333333325,
            58.485779233333339
          ],
          [
            -4.2535172999999995,
            58.48553878333334
          ],
          [
            -4.2519441705654586,
            58.485063251915818
          ],
          [
            -4.250861116666667,
            58.48429191666667
          ],
          [
            -4.2490064536096792,
            58.483721151619399
          ],
          [
            -4.2471333499999995,
            58.48378091666666
          ],
          [
            -4.2461516666666661,
            58.483817600000009
          ],
          [
            -4.2450457500000001,
            58.483770766666673
          ],
          [
            -4.2426405499999991,
            58.483985233333335
          ],
          [
            -4.2403982999999998,
            58.484130566666671
          ],
          [
            -4.2381711666666675,
            58.484444283333339
          ],
          [
            -4.2360525833333336,
            58.484361683333326
          ],
          [
            -4.2339207333333331,
            58.484533900000002
          ],
          [
            -4.2318268860756483,
            58.484445560360179
          ],
          [
            -4.2292406833333329,
            58.484419866666663
          ],
          [
            -4.2266858500000009,
            58.484440666666657
          ],
          [
            -4.2243929328684278,
            58.48448242590225
          ],
          [
            -4.2221360850678247,
            58.48455712656304
          ],
          [
            -4.2202269000000001,
            58.484809766666665
          ],
          [
            -4.2183286166666667,
            58.484968949999995
          ],
          [
            -4.2165724166666667,
            58.485364083333323
          ],
          [
            -4.2152135333333325,
            58.486055566666664
          ],
          [
            -4.2138629999999999,
            58.486735283333338
          ],
          [
            -4.2126724500000003,
            58.487485383333322
          ],
          [
            -4.2123011833333335,
            58.488709
          ],
          [
            -4.2126695833333336,
            58.489813416666657
          ],
          [
            -4.2133594499999996,
            58.491002750000014
          ],
          [
            -4.2144424166666665,
            58.491992516666677
          ],
          [
            -4.2148714666666667,
            58.493239600000003
          ],
          [
            -4.215550583333334,
            58.494603866666665
          ],
          [
            -4.2164545499999999,
            58.49578549999999
          ],
          [
            -4.21707125,
            58.496914066666676
          ],
          [
            -4.2172999999999998,
            58.498053083333332
          ],
          [
            -4.2173219,
            58.499140016666658
          ],
          [
            -4.2174404333333335,
            58.500135550000003
          ],
          [
            -4.2171004999999999,
            58.501297883333336
          ],
          [
            -4.2171004999999999,
            58.501297883333336
          ],
          [
            -4.2173400666666669,
            58.502213883333333
          ],
          [
            -4.2180225166666663,
            58.503118583333325
          ],
          [
            -4.2185451,
            58.504114349999995
          ],
          [
            -4.2190944500000001,
            58.505244183333325
          ],
          [
            -4.219688783333333,
            58.506279516666666
          ],
          [
            -4.2199760333333334,
            58.507251866666671
          ],
          [
            -4.2198007000000004,
            58.508243016666668
          ],
          [
            -4.2186568333333332,
            58.508932000000001
          ],
          [
            -4.217352610448402,
            58.509926140933558
          ],
          [
            -4.215675308524566,
            58.51054313502668
          ],
          [
            -4.2155438000000007,
            58.51155086666666
          ],
          [
            -4.2168359500000001,
            58.512428333333339
          ],
          [
            -4.2178404499999997,
            58.513439783333332
          ],
          [
            -4.2187323666666661,
            58.514565783333332
          ],
          [
            -4.2198621666666671,
            58.515873716666661
          ],
          [
            -4.2209781333333334,
            58.516837050000007
          ],
          [
            -4.2215726,
            58.517968199999999
          ],
          [
            -4.2218448333333338,
            58.5191631
          ],
          [
            -4.2230455166666658,
            58.520096299999992
          ],
          [
            -4.2239967698306513,
            58.521014759824872
          ],
          [
            -4.2248190602731555,
            58.521915687995964
          ],
          [
            -4.2252710743719417,
            58.522861345505575
          ],
          [
            -4.2247285937737908,
            58.523791684980019
          ],
          [
            -4.2240469700877625,
            58.52461739209528
          ],
          [
            -4.2224611810685255,
            58.525103934850833
          ],
          [
            -4.2207657252908541,
            58.525396450217613
          ],
          [
            -4.2191018933651918,
            58.525760662546396
          ],
          [
            -4.2165667785202476,
            58.526675925793178
          ],
          [
            -4.2146334859167647,
            58.528037013828921
          ],
          [
            -4.2148920054048169,
            58.529520805812368
          ],
          [
            -4.2124259528296735,
            58.530941601293328
          ],
          [
            -4.2095150361471276,
            58.533742689274469
          ],
          [
            -4.209534555847001,
            58.533184500850069
          ],
          [
            -4.209534555847001,
            58.533184500850069
          ],
          [
            -4.2134523453364787,
            58.530471911320312
          ],
          [
            -4.2144747021034927,
            58.528667309333684
          ],
          [
            -4.2144475191358426,
            58.528632496210506
          ],
          [
            -4.2144475191358426,
            58.528632496210506
          ],
          [
            -4.2149341118064774,
            58.528001451798069
          ],
          [
            -4.2176380511551779,
            58.528192989398057
          ],
          [
            -4.2218146998939377,
            58.528296227429884
          ],
          [
            -4.2145850833333336,
            58.528117850000008
          ],
          [
            -4.2129772228549482,
            58.528080630298582
          ],
          [
            -4.2110816833333331,
            58.528117350000002
          ],
          [
            -4.2093372166666665,
            58.528281600000007
          ],
          [
            -4.2075887500000002,
            58.528452866666669
          ],
          [
            -4.2057038833333342,
            58.528768283333328
          ],
          [
            -4.2035207000000003,
            58.529188133333342
          ],
          [
            -4.201382549999999,
            58.528965183333334
          ],
          [
            -4.1997018833333337,
            58.529478733333328
          ],
          [
            -4.1977990666666667,
            58.529048633333325
          ],
          [
            -4.1958275333333335,
            58.529132366666666
          ],
          [
            -4.1935950833333333,
            58.529253583333336
          ],
          [
            -4.1918828099880372,
            58.529658351634886
          ],
          [
            -4.1895221666666664,
            58.529968016666665
          ],
          [
            -4.1868051333333325,
            58.529977300000006
          ],
          [
            -4.1841515166666667,
            58.529939299999995
          ],
          [
            -4.1815719666666666,
            58.5299361
          ],
          [
            -4.1795614333333333,
            58.529793766666671
          ],
          [
            -4.1777058999999994,
            58.529616866666657
          ],
          [
            -4.1749288,
            58.529350700000002
          ],
          [
            -4.1720512166666675,
            58.528590266666669
          ],
          [
            -4.1692314166666664,
            58.527660716666666
          ],
          [
            -4.1659501833333339,
            58.527319866666659
          ],
          [
            -4.1634787333333332,
            58.527194383333338
          ],
          [
            -4.160824866990759,
            58.526788210082856
          ],
          [
            -4.1581971148105499,
            58.526958178022817
          ],
          [
            -4.1563731666666666,
            58.527534183333337
          ],
          [
            -4.1542767965898886,
            58.527943291283663
          ],
          [
            -4.1517874030764323,
            58.527554608673256
          ],
          [
            -4.1500472500000001,
            58.52770795
          ],
          [
            -4.1491079018424015,
            58.52902149808326
          ],
          [
            -4.1490672812001606,
            58.530460858745052
          ],
          [
            -4.1481857243459004,
            58.530878307294245
          ],
          [
            -4.1468209860670786,
            58.531250731516245
          ],
          [
            -4.1439127999999998,
            58.531766033333334
          ],
          [
            -4.1405289541271335,
            58.531654326248294
          ],
          [
            -4.1377456498158818,
            58.531863199013813
          ],
          [
            -4.135223250000001,
            58.532157750000003
          ],
          [
            -4.1330933868029147,
            58.532960425388126
          ],
          [
            -4.1305427666666663,
            58.533529866666676
          ],
          [
            -4.1275114333333338,
            58.534281833333338
          ],
          [
            -4.1250407999999998,
            58.535132599999997
          ],
          [
            -4.123682723447776,
            58.536573820848169
          ],
          [
            -4.1226667319324655,
            58.537983330629018
          ],
          [
            -4.1198333666666667,
            58.538811599999995
          ],
          [
            -4.1174172499999999,
            58.539629866666672
          ],
          [
            -4.1145818500000004,
            58.539979599999995
          ],
          [
            -4.1125178364610182,
            58.54067575753745
          ],
          [
            -4.1097844437954461,
            58.540800465584063
          ],
          [
            -4.1065482833333329,
            58.540990233333332
          ],
          [
            -4.1037428333333343,
            58.54202251666667
          ],
          [
            -4.1021777833333335,
            58.543447533333335
          ],
          [
            -4.1016742197817777,
            58.544858998365584
          ],
          [
            -4.0995107333333332,
            58.545716300000002
          ],
          [
            -4.0970958500000005,
            58.545003349999995
          ],
          [
            -4.0954115666666668,
            58.54371008333333
          ],
          [
            -4.0936186000000001,
            58.542506966666664
          ],
          [
            -4.0914251833333326,
            58.541597233333334
          ],
          [
            -4.0890483,
            58.540983300000001
          ],
          [
            -4.087061683816156,
            58.542260440728214
          ],
          [
            -4.086181223889203,
            58.54341379800271
          ],
          [
            -4.0849850999981498,
            58.544380288353693
          ],
          [
            -4.0824638333333336,
            58.544598766666667
          ],
          [
            -4.0803311833333327,
            58.544554600000005
          ],
          [
            -4.0787467864086882,
            58.545929772381115
          ],
          [
            -4.0775819949546275,
            58.546989769510489
          ],
          [
            -4.07429285,
            58.547382716666668
          ],
          [
            -4.0708416181637448,
            58.546813279679135
          ],
          [
            -4.0672743333333328,
            58.546584249999988
          ],
          [
            -4.0645342752063423,
            58.547530616852896
          ],
          [
            -4.0628384655135168,
            58.549398217392508
          ],
          [
            -4.0615148761106736,
            58.55113735268997
          ],
          [
            -4.0589929000000007,
            58.552450766666666
          ],
          [
            -4.0558879666666661,
            58.552944799999992
          ],
          [
            -4.0531432833333341,
            58.553494916666658
          ],
          [
            -4.0500428666666668,
            58.554137283333333
          ],
          [
            -4.0461492910168664,
            58.554936686741613
          ],
          [
            -4.0428318333333326,
            58.555648950000005
          ],
          [
            -4.0392090833333336,
            58.556105016666663
          ],
          [
            -4.0352108833333338,
            58.556163266666665
          ],
          [
            -4.0316843333333328,
            58.55621991666667
          ],
          [
            -4.0284615833333337,
            58.556648600000003
          ],
          [
            -4.0258152043578015,
            58.557778529364349
          ],
          [
            -4.023010283333333,
            58.558601550000006
          ],
          [
            -4.0205327333333329,
            58.559259966666666
          ],
          [
            -4.0183712333333341,
            58.560347966666662
          ],
          [
            -4.0162942666666668,
            58.561310933333331
          ],
          [
            -4.0141551833333331,
            58.561886250000001
          ],
          [
            -4.0125997833333331,
            58.56215026666667
          ],
          [
            -4.0100098333333332,
            58.562175250000003
          ],
          [
            -4.0073709166666669,
            58.561827583333326
          ],
          [
            -4.0054688333333335,
            58.560754216666659
          ],
          [
            -4.0032030833333332,
            58.559583900000007
          ],
          [
            -4.0005431833333338,
            58.558484716666669
          ],
          [
            -3.9977648709212197,
            58.557706821210992
          ],
          [
            -3.9947947500000001,
            58.557498550000005
          ],
          [
            -3.9924794000000001,
            58.557975050000003
          ],
          [
            -3.9910795541937336,
            58.558945585937437
          ],
          [
            -3.9886927833333337,
            58.559792183333336
          ],
          [
            -3.9849659166666669,
            58.559393900000003
          ],
          [
            -3.9814514000000005,
            58.559065383333341
          ],
          [
            -3.9781162000000005,
            58.559148166666667
          ],
          [
            -3.9748237833333331,
            58.559243550000005
          ],
          [
            -3.9717026333333338,
            58.559337099999993
          ],
          [
            -3.968725333333333,
            58.559419833333337
          ],
          [
            -3.9652168666666663,
            58.559705016666669
          ],
          [
            -3.9623514166666665,
            58.560593833333336
          ],
          [
            -3.9601166166666664,
            58.561697433333336
          ],
          [
            -3.957396783333333,
            58.562237866666656
          ],
          [
            -3.9540000333333336,
            58.561717116666664
          ],
          [
            -3.9502119166666669,
            58.5608152
          ],
          [
            -3.9467105500000002,
            58.559977600000003
          ],
          [
            -3.9434032666666665,
            58.559410449999994
          ],
          [
            -3.9403704000000004,
            58.559622366666666
          ],
          [
            -3.9376764999999998,
            58.559851116666671
          ],
          [
            -3.9358734666666666,
            58.55982576666667
          ],
          [
            -3.9339486000000004,
            58.559674016666669
          ],
          [
            -3.9320566166666668,
            58.559060566666659
          ],
          [
            -3.9309896923425369,
            58.558041643371212
          ],
          [
            -3.9242612599465256,
            58.55862522355303
          ],
          [
            -3.9235740817006119,
            58.559264664833407
          ],
          [
            -3.9235740817006119,
            58.559264664833407
          ],
          [
            -3.9235740817006119,
            58.559264664833407
          ],
          [
            -3.9237074578050244,
            58.559263833247321
          ],
          [
            -3.929028149136971,
            58.558148077764585
          ],
          [
            -3.923638053086985,
            58.559338069041125
          ],
          [
            -3.9287933595776292,
            58.558045623647949
          ],
          [
            -3.9236747977129709,
            58.559273880365495
          ],
          [
            -3.9278197662493879,
            58.557729540742763
          ],
          [
            -3.9278197662493879,
            58.557729540742763
          ],
          [
            -3.9236653176467566,
            58.55929672801846
          ],
          [
            -3.9275994187986876,
            58.558083562921794
          ],
          [
            -3.923795319502474,
            58.559293610142724
          ],
          [
            -3.9289663706528564,
            58.558362283658731
          ],
          [
            -3.9236017831728045,
            58.559312541488517
          ]
        ],
        "type" : "LineString"
      },
      "properties" : {
        "source" : "Geory 5.3.2",
        "device" : "B9E47AEB-E54C-4563-96B6-06995DD4BC56 (iPhone 16 Pro)",
        "type" : "route",
        "start" : "2026-09-28T23:00:00Z",
        "end" : "2026-09-29T20:33:56Z"
      },
      "type" : "Feature"
    }
  ]
}