{
  "type" : "FeatureCollection",
  "features" : [
    {
      "geometry" : {
        "type" : "Point",
        "coordinates" : [
          -5.8395175344259691,
          54.345955874694496
        ]
      },
      "type" : "Feature",
      "properties" : {
        "weather" : "Bedeckter Himmel (12,3 °C)",
        "address" : "36–42 Old Park Road, Downpatrick, BT30, Nordirland",
        "device" : "B9E47AEB-E54C-4563-96B6-06995DD4BC56 (iPhone 16 Pro)",
        "arrival" : "2026-05-07T19:32:52Z",
        "duration" : 10629.999661922455,
        "type" : "visit",
        "source" : "Geory 5.3.2",
        "rating" : 0,
        "timestamp" : "2026-05-07T19:32:52Z",
        "departure" : "2026-05-07T22:30:02Z"
      }
    },
    {
      "type" : "Feature",
      "properties" : {
        "weather" : "Bedeckter Himmel (12,4 °C)",
        "device" : "B9E47AEB-E54C-4563-96B6-06995DD4BC56 (iPhone 16 Pro)",
        "departure" : "2026-05-08T18:37:13Z",
        "address" : "Newton Stewart, DG8, Schottland",
        "duration" : 6813.594545841217,
        "rating" : 0,
        "source" : "Geory 5.3.2",
        "timestamp" : "2026-05-08T16:43:40Z",
        "type" : "visit",
        "arrival" : "2026-05-08T16:43:40Z"
      },
      "geometry" : {
        "type" : "Point",
        "coordinates" : [
          -4.5511371599257338,
          55.074550700327222
        ]
      }
    },
    {
      "properties" : {
        "departure" : "2026-05-08T19:14:50Z",
        "device" : "B9E47AEB-E54C-4563-96B6-06995DD4BC56 (iPhone 16 Pro)",
        "timestamp" : "2026-05-08T18:37:16Z",
        "weather" : "Bedeckter Himmel (10,2 °C)",
        "address" : "Newton Stewart, DG8, Schottland",
        "arrival" : "2026-05-08T18:37:16Z",
        "rating" : 0,
        "source" : "Geory 5.3.2",
        "duration" : 2254.6913676261902,
        "type" : "visit"
      },
      "type" : "Feature",
      "geometry" : {
        "coordinates" : [
          -4.5543963077750584,
          55.078322822128186
        ],
        "type" : "Point"
      }
    },
    {
      "type" : "Feature",
      "properties" : {
        "address" : "Newton Stewart, DG8, Schottland",
        "rating" : 0,
        "source" : "Geory 5.3.2",
        "arrival" : "2026-05-08T19:15:03Z",
        "type" : "visit",
        "timestamp" : "2026-05-08T19:15:03Z",
        "device" : "B9E47AEB-E54C-4563-96B6-06995DD4BC56 (iPhone 16 Pro)",
        "weather" : "Bedeckter Himmel (10,3 °C)",
        "duration" : 52698.546325683594,
        "departure" : "2026-05-09T09:53:21Z"
      },
      "geometry" : {
        "type" : "Point",
        "coordinates" : [
          -4.5510635423246644,
          55.074544697436885
        ]
      }
    },
    {
      "geometry" : {
        "type" : "LineString",
        "coordinates" : [
          [
            -4.5510635423246644,
            55.074544697436885
          ],
          [
            -4.5543963077750584,
            55.078322822128186
          ],
          [
            -4.5511371599257338,
            55.074550700327222
          ],
          [
            -4.567197049999999,
            55.073782916666673
          ],
          [
            -4.5689296166666669,
            55.073780416666658
          ],
          [
            -4.5705418062677596,
            55.073208619311224
          ],
          [
            -4.5715280080075757,
            55.072395999409437
          ],
          [
            -4.5731413366523297,
            55.071790405289867
          ],
          [
            -4.5743676000000004,
            55.071034866666672
          ],
          [
            -4.5751463000000001,
            55.069886133333334
          ],
          [
            -4.5763965666666664,
            55.068942499999999
          ],
          [
            -4.576959116666667,
            55.067740433333334
          ],
          [
            -4.5783152166666667,
            55.066903033333332
          ],
          [
            -4.5793427333333332,
            55.06595506666666
          ],
          [
            -4.5796782833333332,
            55.064919366666665
          ],
          [
            -4.5803857666666667,
            55.064083766666663
          ],
          [
            -4.5812479499999998,
            55.063330683333334
          ],
          [
            -4.5826004000000005,
            55.062480266666675
          ],
          [
            -4.5828712999999999,
            55.061330699999992
          ],
          [
            -4.5830725666666661,
            55.060302849999999
          ],
          [
            -4.5836039,
            55.059376883333336
          ],
          [
            -4.5839926666666662,
            55.058487950000007
          ],
          [
            -4.5845631666666655,
            55.057559783333339
          ],
          [
            -4.5851321666666669,
            55.056651200000005
          ],
          [
            -4.5856286833333328,
            55.055739533333323
          ],
          [
            -4.5857579837647027,
            55.054779963917568
          ],
          [
            -4.5855058388912759,
            55.05387881907248
          ],
          [
            -4.5842889659658104,
            55.053215523136686
          ],
          [
            -4.5831368354288866,
            55.052198316732678
          ],
          [
            -4.5819934651043779,
            55.050940990606783
          ],
          [
            -4.580910925772538,
            55.049699621605903
          ],
          [
            -4.5795223333333333,
            55.048372016666654
          ],
          [
            -4.5787073999999999,
            55.04728788333334
          ],
          [
            -4.5781510333333326,
            55.046027433333336
          ],
          [
            -4.5775837761178133,
            55.044619572632911
          ],
          [
            -4.5770095074044148,
            55.043485168565581
          ],
          [
            -4.5765041946476996,
            55.042301014801524
          ],
          [
            -4.5759943736216302,
            55.041064302354947
          ],
          [
            -4.5756671021943909,
            55.039856370991437
          ],
          [
            -4.5747932092451773,
            55.038787358500286
          ],
          [
            -4.5734945853295317,
            55.037708095449027
          ],
          [
            -4.5720046639296994,
            55.036557101178943
          ],
          [
            -4.5711415538719793,
            55.035317813120862
          ],
          [
            -4.5702843789500909,
            55.034077083927215
          ],
          [
            -4.5689731397846964,
            55.03223927447867
          ],
          [
            -4.5679975587457351,
            55.031087781879869
          ],
          [
            -4.566667533193284,
            55.029880151115471
          ],
          [
            -4.5657004030444801,
            55.028223897845635
          ],
          [
            -4.564634136098455,
            55.026743487404914
          ],
          [
            -4.5635762140925555,
            55.025908462226354
          ],
          [
            -4.5629631149666654,
            55.025400825923313
          ],
          [
            -4.5615693402298261,
            55.023889353610713
          ],
          [
            -4.5597201225169348,
            55.022331574421251
          ],
          [
            -4.5578401008169154,
            55.020870834824741
          ],
          [
            -4.5566820499999992,
            55.019077600000003
          ],
          [
            -4.5540057639906131,
            55.017816695316853
          ],
          [
            -4.5516985724016585,
            55.016180917411376
          ],
          [
            -4.5492318735288544,
            55.014996014012659
          ],
          [
            -4.5472491937644097,
            55.013500238239516
          ],
          [
            -4.545018232950512,
            55.012405086241742
          ],
          [
            -4.5429305500438169,
            55.011426800383312
          ],
          [
            -4.5426652166666663,
            55.009743783333334
          ],
          [
            -4.540912470673554,
            55.008394070766485
          ],
          [
            -4.53938463133633,
            55.006785375033097
          ],
          [
            -4.5382664563151582,
            55.005294611969951
          ],
          [
            -4.5371513601825333,
            55.00402820703853
          ],
          [
            -4.5356894061351278,
            55.002524585222247
          ],
          [
            -4.5348687943810138,
            55.000686392067337
          ],
          [
            -4.5335535909755409,
            54.998946467365883
          ],
          [
            -4.5319261629392846,
            54.997446136990405
          ],
          [
            -4.5309862780044297,
            54.995686351724046
          ],
          [
            -4.5303584333333333,
            54.993946533333343
          ],
          [
            -4.5303467666666668,
            54.992370600000001
          ],
          [
            -4.5303843666666666,
            54.990727
          ],
          [
            -4.5300027333333333,
            54.989019016666667
          ],
          [
            -4.5288683499999998,
            54.987543766666676
          ],
          [
            -4.5281803666666667,
            54.985954116666669
          ],
          [
            -4.5281585333333334,
            54.98430943333333
          ],
          [
            -4.5279747500000003,
            54.982833433333319
          ],
          [
            -4.5272731999999998,
            54.981460733333336
          ],
          [
            -4.5262370333333335,
            54.980195333333327
          ],
          [
            -4.5253962999999997,
            54.978958666666657
          ],
          [
            -4.5246657333333333,
            54.977378516666676
          ],
          [
            -4.5238640500000002,
            54.975821333333336
          ],
          [
            -4.5226967810837859,
            54.974088404979462
          ],
          [
            -4.5205616666666666,
            54.973092216666657
          ],
          [
            -4.5178772166666672,
            54.972386666666665
          ],
          [
            -4.5155979666666664,
            54.97173428333334
          ],
          [
            -4.513845166666667,
            54.971097466666663
          ],
          [
            -4.5116639666666662,
            54.970581683333329
          ],
          [
            -4.5091398499999995,
            54.97036378333334
          ],
          [
            -4.5065136333333342,
            54.970495066666672
          ],
          [
            -4.5041206333333328,
            54.970426166666655
          ],
          [
            -4.5016331666666662,
            54.97034816666666
          ],
          [
            -4.4992631833333334,
            54.970247299999997
          ],
          [
            -4.4967240500000001,
            54.9694936
          ],
          [
            -4.4943199666666667,
            54.968671000000001
          ],
          [
            -4.4923282333333336,
            54.967998800000004
          ],
          [
            -4.4909406333333326,
            54.967535666666663
          ],
          [
            -4.4892479666666665,
            54.966969199999994
          ],
          [
            -4.4877526833333334,
            54.96639308333333
          ],
          [
            -4.4869509500000007,
            54.965376566666656
          ],
          [
            -4.4862629333333333,
            54.964430683333333
          ],
          [
            -4.4855815833333326,
            54.963551633333331
          ],
          [
            -4.4848497333333333,
            54.962720383333327
          ],
          [
            -4.4842323333333338,
            54.961809216666666
          ],
          [
            -4.4842323333333338,
            54.961809216666666
          ],
          [
            -4.4838448833333331,
            54.960880966666672
          ],
          [
            -4.4834382499999998,
            54.95993618333334
          ],
          [
            -4.4819464666666669,
            54.958845950000004
          ],
          [
            -4.4811267051680623,
            54.957011950011228
          ],
          [
            -4.4813321816584892,
            54.957699132241473
          ],
          [
            -4.4824701467916324,
            54.958807495642887
          ],
          [
            -4.483204102304458,
            54.959721221190605
          ],
          [
            -4.482873398272603,
            54.958831706828626
          ],
          [
            -4.4826372240842511,
            54.957918121026495
          ],
          [
            -4.4826194414779339,
            54.957016929156829
          ],
          [
            -4.4810601666666665,
            54.956938199999996
          ],
          [
            -4.481117976445705,
            54.957842104636654
          ],
          [
            -4.4818412666666667,
            54.958674183333336
          ],
          [
            -4.4830749166666664,
            54.95931723333333
          ],
          [
            -4.4823625833333338,
            54.960123733333326
          ],
          [
            -4.480920283333333,
            54.960487916666672
          ],
          [
            -4.4794252999999999,
            54.960809566666661
          ],
          [
            -4.4776521333333337,
            54.960782250000001
          ],
          [
            -4.4758966166666658,
            54.960407183333331
          ],
          [
            -4.4738055000000001,
            54.959952616666676
          ],
          [
            -4.4719272833333328,
            54.959438166666658
          ],
          [
            -4.4697930500000007,
            54.958842866666657
          ],
          [
            -4.467362566666667,
            54.958182466666663
          ],
          [
            -4.4649179999999999,
            54.957677700000012
          ],
          [
            -4.46243985,
            54.957659100000001
          ],
          [
            -4.4600878333333336,
            54.957651550000008
          ],
          [
            -4.4581941999999994,
            54.957694716666673
          ],
          [
            -4.4552667333333336,
            54.957344683333332
          ],
          [
            -4.4519469333333328,
            54.956570550000002
          ],
          [
            -4.4493289666666671,
            54.955098733333337
          ],
          [
            -4.446864633333333,
            54.953480466666662
          ],
          [
            -4.4444136833333339,
            54.95186910000001
          ],
          [
            -4.4420918,
            54.950346949999997
          ],
          [
            -4.4397278499999997,
            54.948794016666668
          ],
          [
            -4.4372356333333327,
            54.947410883333333
          ],
          [
            -4.4342452833333335,
            54.946359533333329
          ],
          [
            -4.4308103499999998,
            54.945487249999999
          ],
          [
            -4.4276438666666671,
            54.944662433333328
          ],
          [
            -4.4245594333333331,
            54.943847866666658
          ],
          [
            -4.4214664333333333,
            54.942958266666665
          ],
          [
            -4.4186635166666672,
            54.941916216666677
          ],
          [
            -4.4158943000000006,
            54.940644583333345
          ],
          [
            -4.4132010499999996,
            54.939266716666666
          ],
          [
            -4.4112750833333338,
            54.938394899999999
          ],
          [
            -4.4102011666666669,
            54.937822099999991
          ],
          [
            -4.4080898666666668,
            54.935803850000006
          ],
          [
            -4.4063940166666669,
            54.933472133333339
          ],
          [
            -4.4046673666666667,
            54.931377833333336
          ],
          [
            -4.4029024000000003,
            54.929337050000008
          ],
          [
            -4.40127355,
            54.92729095
          ],
          [
            -4.3995729166666671,
            54.925000066666676
          ],
          [
            -4.3980097166666665,
            54.922898916666668
          ],
          [
            -4.3963801999999994,
            54.920597683333334
          ],
          [
            -4.3954526166666668,
            54.918319916666661
          ],
          [
            -4.3948313499999996,
            54.916082333333335
          ],
          [
            -4.3944745000000003,
            54.913635233333324
          ],
          [
            -4.3942748833333338,
            54.911089449999992
          ],
          [
            -4.3934936166666665,
            54.908815783333331
          ],
          [
            -4.3916825499999996,
            54.906537183333334
          ],
          [
            -4.3896942333333344,
            54.904295683333338
          ],
          [
            -4.3879135666666667,
            54.902294083333324
          ],
          [
            -4.3862583833333328,
            54.90033806666667
          ],
          [
            -4.3851805833333337,
            54.8983749
          ],
          [
            -4.384681333333333,
            54.896411133333338
          ],
          [
            -4.3845397999999998,
            54.894208183333326
          ],
          [
            -4.3842799000000001,
            54.892204550000002
          ],
          [
            -4.3832344166666664,
            54.890103249999989
          ],
          [
            -4.3817709039404331,
            54.888277737442884
          ],
          [
            -4.3812073999999992,
            54.88625643333333
          ],
          [
            -4.3813666230081099,
            54.884201619509106
          ],
          [
            -4.3794525271797768,
            54.882545656398463
          ],
          [
            -4.3768627313314594,
            54.881375380517902
          ],
          [
            -4.3749249668852555,
            54.879876199683991
          ],
          [
            -4.3744165782128528,
            54.879396280676154
          ],
          [
            -4.3732211449516809,
            54.878160019299614
          ],
          [
            -4.3721492276201364,
            54.876932925538561
          ],
          [
            -4.3709932438727765,
            54.876274093697688
          ],
          [
            -4.3702541869092499,
            54.875463491788018
          ],
          [
            -4.3697495487092857,
            54.874600983341651
          ],
          [
            -4.3698959527252779,
            54.875556050703025
          ],
          [
            -4.3705480166666675,
            54.875996699999995
          ],
          [
            -4.3722798833333334,
            54.877198633333336
          ],
          [
            -4.3735110666666666,
            54.87859288333334
          ],
          [
            -4.3752953999999997,
            54.880279950000009
          ],
          [
            -4.3776697000000002,
            54.881855333333334
          ],
          [
            -4.3801264166666671,
            54.882952699999997
          ],
          [
            -4.381405916666667,
            54.88489641666667
          ],
          [
            -4.3811475833333331,
            54.886956949999998
          ],
          [
            -4.382136,
            54.888907133333333
          ],
          [
            -4.3835000833333329,
            54.890626199999993
          ],
          [
            -4.3842576166666669,
            54.892378916666665
          ],
          [
            -4.3844514000000006,
            54.89435790000001
          ],
          [
            -4.3846168333333333,
            54.896472933333342
          ],
          [
            -4.3851592666666663,
            54.898541083333335
          ],
          [
            -4.3861922333333334,
            54.900414349999998
          ],
          [
            -4.3878262333333327,
            54.90237053333334
          ],
          [
            -4.3893818333333332,
            54.904129116666674
          ],
          [
            -4.3908755833333339,
            54.905817350000007
          ],
          [
            -4.3925136333333334,
            54.907660516666667
          ],
          [
            -4.3938053333333329,
            54.909728216666657
          ],
          [
            -4.3942030999999995,
            54.91159163333333
          ],
          [
            -4.3943542666666664,
            54.913639466666673
          ],
          [
            -4.3946308666666667,
            54.915665350000005
          ],
          [
            -4.3951470833333328,
            54.917700549999999
          ],
          [
            -4.3958330833333328,
            54.919599749999996
          ],
          [
            -4.3967522666666667,
            54.921374500000006
          ],
          [
            -4.3981475833333326,
            54.923279050000005
          ],
          [
            -4.399680833333333,
            54.925351266666667
          ],
          [
            -4.4012802166666667,
            54.927494766666662
          ],
          [
            -4.4028899166666671,
            54.92950716666666
          ],
          [
            -4.4044989166666664,
            54.931374866666665
          ],
          [
            -4.4061223833333338,
            54.933346749999991
          ],
          [
            -4.407641616666667,
            54.935380416666675
          ],
          [
            -4.409158866666667,
            54.937199116666669
          ],
          [
            -4.4116650166666673,
            54.938684566666673
          ],
          [
            -4.4146011833333336,
            54.940020249999996
          ],
          [
            -4.417003283333333,
            54.941361083333341
          ],
          [
            -4.4180917500000003,
            54.9418018
          ],
          [
            -4.4199393666666671,
            54.942515399999998
          ],
          [
            -4.4230716166666664,
            54.943567783333336
          ],
          [
            -4.426155266666667,
            54.944363716666672
          ],
          [
            -4.4293847999999993,
            54.945199233333341
          ],
          [
            -4.4323116666666662,
            54.945946883333335
          ],
          [
            -4.4355594666666667,
            54.946833183333332
          ],
          [
            -4.4384245666666668,
            54.948098866666669
          ],
          [
            -4.4408323833333334,
            54.949657683333328
          ],
          [
            -4.4429699166666667,
            54.951031066666665
          ],
          [
            -4.4453279999999999,
            54.952567349999995
          ],
          [
            -4.4477502666666666,
            54.954172433333326
          ],
          [
            -4.4500006833333332,
            54.955658683333333
          ],
          [
            -4.4526908666666669,
            54.956922399999996
          ],
          [
            -4.4556222833333337,
            54.957456866666675
          ],
          [
            -4.4583193000000003,
            54.957412899999987
          ],
          [
            -4.4607565166666667,
            54.956931683333337
          ],
          [
            -4.463060333333333,
            54.955963033333333
          ],
          [
            -4.4651095666666665,
            54.954935416666665
          ],
          [
            -4.4674581166666663,
            54.953929349999996
          ],
          [
            -4.4703495499999999,
            54.952879550000006
          ],
          [
            -4.4734706833333329,
            54.951963599999999
          ],
          [
            -4.4767291333333334,
            54.951088466666675
          ],
          [
            -4.478855583333333,
            54.950502383333337
          ],
          [
            -4.4804357166666664,
            54.950249833333331
          ],
          [
            -4.4836840333333337,
            54.950762683333338
          ],
          [
            -4.4871516333333341,
            54.95137283333333
          ],
          [
            -4.4903847666666667,
            54.951805366666669
          ],
          [
            -4.4939782166666662,
            54.951685550000001
          ],
          [
            -4.4961447333333338,
            54.951516933333338
          ],
          [
            -4.4992345166666663,
            54.950537216666667
          ],
          [
            -4.5016611166666669,
            54.949170199999998
          ],
          [
            -4.5045972833333332,
            54.947868916666664
          ],
          [
            -4.5081298500000004,
            54.947121583333335
          ],
          [
            -4.5118656166666664,
            54.946935016666671
          ],
          [
            -4.5152126666666668,
            54.946758733333333
          ],
          [
            -4.5190294166666671,
            54.947385100000005
          ],
          [
            -4.5220629500000005,
            54.948337233333326
          ],
          [
            -4.5253865333333332,
            54.948362016666671
          ],
          [
            -4.5286314166666672,
            54.94759333333333
          ],
          [
            -4.5317615499999997,
            54.946573549999997
          ],
          [
            -4.5348398000000003,
            54.94522966666667
          ],
          [
            -4.5373583333333327,
            54.94383105
          ],
          [
            -4.5398861333333329,
            54.942581199999992
          ],
          [
            -4.5427558833333332,
            54.941307166666668
          ],
          [
            -4.5457350833333336,
            54.939884200000009
          ],
          [
            -4.5485552333333334,
            54.938572750000006
          ],
          [
            -4.5514845999999993,
            54.937373399999998
          ],
          [
            -4.554379916666667,
            54.936599166666667
          ],
          [
            -4.5572878333333335,
            54.935951366666664
          ],
          [
            -4.5605542333333338,
            54.935946100000002
          ],
          [
            -4.5636764999999997,
            54.936159850000003
          ],
          [
            -4.566079366666667,
            54.936432200000006
          ],
          [
            -4.5685823833333332,
            54.936899866666671
          ],
          [
            -4.5717770833333331,
            54.937209850000002
          ],
          [
            -4.575074166666667,
            54.936796733333331
          ],
          [
            -4.5789477833333336,
            54.936101966666669
          ],
          [
            -4.5818365833333328,
            54.93558376666666
          ],
          [
            -4.58540495,
            54.934779899999995
          ],
          [
            -4.588555566666666,
            54.933812633333339
          ],
          [
            -4.5922563333333324,
            54.932888749999996
          ],
          [
            -4.5963643833333325,
            54.932715000000009
          ],
          [
            -4.6005588666666659,
            54.932716066666671
          ],
          [
            -4.6047209499999999,
            54.932691616666673
          ],
          [
            -4.6085220833333329,
            54.932692066666675
          ],
          [
            -4.6120452833333339,
            54.932704700000009
          ],
          [
            -4.6147207333333338,
            54.932685599999999
          ],
          [
            -4.6171292166666671,
            54.931549899999993
          ],
          [
            -4.6201678499999996,
            54.930590899999999
          ],
          [
            -4.6233094499999998,
            54.929571799999998
          ],
          [
            -4.6264818000000005,
            54.928555833333334
          ],
          [
            -4.6293876666666671,
            54.927588266666667
          ],
          [
            -4.6318073666666661,
            54.926395249999992
          ],
          [
            -4.6347709500000001,
            54.925639066666662
          ],
          [
            -4.6368814666666669,
            54.924726433333333
          ],
          [
            -4.639128116666666,
            54.923586566666671
          ],
          [
            -4.6412283333333333,
            54.921878450000001
          ],
          [
            -4.6435847833333339,
            54.920647866666663
          ],
          [
            -4.6464249500000001,
            54.920277366666674
          ],
          [
            -4.6487903666666668,
            54.919893299999998
          ],
          [
            -4.6500570166666666,
            54.918733883333331
          ],
          [
            -4.6530435000000008,
            54.918164350000005
          ],
          [
            -4.6560669666666659,
            54.918168683333334
          ],
          [
            -4.6586872999999995,
            54.917407883333333
          ],
          [
            -4.661178116666667,
            54.916327966666657
          ],
          [
            -4.6631706999999993,
            54.915951449999994
          ],
          [
            -4.6643719000000008,
            54.915753049999992
          ],
          [
            -4.6672762666666667,
            54.914492199999998
          ],
          [
            -4.6696252500000002,
            54.913100416666673
          ],
          [
            -4.6722383833333332,
            54.912075599999994
          ],
          [
            -4.6751694166666669,
            54.910983766666668
          ],
          [
            -4.6777257999999993,
            54.909851633333332
          ],
          [
            -4.6803521833333335,
            54.909228349999999
          ],
          [
            -4.6832695166666669,
            54.909234366666666
          ],
          [
            -4.6862338833333332,
            54.90879291666667
          ],
          [
            -4.6890806166666668,
            54.908092783333331
          ],
          [
            -4.692290016666667,
            54.906832799999997
          ],
          [
            -4.6955306666666656,
            54.905711133333341
          ],
          [
            -4.6994901999999996,
            54.905003199999989
          ],
          [
            -4.7035683833333337,
            54.904467016666672
          ],
          [
            -4.7070387,
            54.903582000000007
          ],
          [
            -4.7107920166666668,
            54.902508783333332
          ],
          [
            -4.714539199999999,
            54.901481433333331
          ],
          [
            -4.7184092166666671,
            54.900553850000001
          ],
          [
            -4.7214417499999994,
            54.899278199999998
          ],
          [
            -4.7244115166666667,
            54.89790643333334
          ],
          [
            -4.7277782333333338,
            54.897121666666671
          ],
          [
            -4.7311739666666668,
            54.896850499999999
          ],
          [
            -4.7346878000000006,
            54.896573233333328
          ],
          [
            -4.7373998666666672,
            54.895666183333333
          ],
          [
            -4.7402625499999997,
            54.894461833333324
          ],
          [
            -4.7432775833333327,
            54.893750399999995
          ],
          [
            -4.746635433333334,
            54.893225066666666
          ],
          [
            -4.7497519500000003,
            54.892243099999995
          ],
          [
            -4.7533269499999999,
            54.892093383333332
          ],
          [
            -4.7533269499999999,
            54.892093383333332
          ],
          [
            -4.7573154166666658,
            54.89188635
          ],
          [
            -4.7611248333333336,
            54.891156450000004
          ],
          [
            -4.7643751999999999,
            54.889977283333337
          ],
          [
            -4.7674075333333326,
            54.888650899999995
          ],
          [
            -4.770754366666667,
            54.887182833333327
          ],
          [
            -4.7741401166666666,
            54.885703966666675
          ],
          [
            -4.7774849999999995,
            54.884235683333323
          ],
          [
            -4.7805234500000005,
            54.8829043
          ],
          [
            -4.7839514666666663,
            54.881499033333327
          ],
          [
            -4.7874189500000002,
            54.880617183333328
          ],
          [
            -4.7913885333333335,
            54.87974985000001
          ],
          [
            -4.7950491166666671,
            54.878921733333328
          ],
          [
            -4.7990436833333323,
            54.878023800000001
          ],
          [
            -4.8024773833333327,
            54.877263399999997
          ],
          [
            -4.8060946333333332,
            54.876499749999994
          ],
          [
            -4.8097505666666667,
            54.875739283333331
          ],
          [
            -4.8131261333333342,
            54.875036050000006
          ],
          [
            -4.8164593333333334,
            54.87434605
          ],
          [
            -4.8201461999999999,
            54.873553166666674
          ],
          [
            -4.824102083333333,
            54.872803016666666
          ],
          [
            -4.8283663666666667,
            54.872248733333329
          ],
          [
            -4.8327386000000008,
            54.872444600000001
          ],
          [
            -4.8371637499999993,
            54.872716899999993
          ],
          [
            -4.8415548333333334,
            54.872950083333336
          ],
          [
            -4.8459381999999991,
            54.873188116666675
          ],
          [
            -4.8498815333333329,
            54.873389783333337
          ],
          [
            -4.854164083333333,
            54.873632866666668
          ],
          [
            -4.8591676333333336,
            54.873907516666669
          ],
          [
            -4.8629827666666676,
            54.874060566666664
          ],
          [
            -4.8672014500000005,
            54.874217250000008
          ],
          [
            -4.8707500166666664,
            54.874254516666667
          ],
          [
            -4.8741370833333333,
            54.874223950000001
          ],
          [
            -4.8777971833333336,
            54.874159416666664
          ],
          [
            -4.8815111,
            54.874095716666666
          ],
          [
            -4.8853536333333327,
            54.87450663333334
          ],
          [
            -4.8887457833333334,
            54.875669466666672
          ],
          [
            -4.891383966666667,
            54.877295883333332
          ],
          [
            -4.8941183833333337,
            54.878838466666672
          ],
          [
            -4.8971310666666668,
            54.879708016666669
          ],
          [
            -4.9007532166666667,
            54.880115966666665
          ],
          [
            -4.9040455166666659,
            54.880748833333335
          ],
          [
            -4.9073433999999994,
            54.881647133333338
          ],
          [
            -4.9108142666666676,
            54.882417100000005
          ],
          [
            -4.9142610166666669,
            54.88319804999999
          ],
          [
            -4.9173637833333332,
            54.883881933333342
          ],
          [
            -4.921173099999999,
            54.884535000000007
          ],
          [
            -4.9250397899570402,
            54.885637617011454
          ],
          [
            -4.9280809033644219,
            54.886775226718548
          ],
          [
            -4.9306830112839348,
            54.888098752057999
          ],
          [
            -4.9330125260703346,
            54.889596535910265
          ],
          [
            -4.9352698477636192,
            54.891026006920036
          ],
          [
            -4.9382057052366815,
            54.892155242981389
          ],
          [
            -4.9411427041713516,
            54.893260651466399
          ],
          [
            -4.9439410652147435,
            54.894313256902095
          ],
          [
            -4.9467662861625827,
            54.895382459593961
          ],
          [
            -4.949205645250931,
            54.896305589649508
          ],
          [
            -4.9503959832326094,
            54.896754586971774
          ],
          [
            -4.9517141314706201,
            54.897253009611028
          ],
          [
            -4.954443375143887,
            54.898276515616736
          ],
          [
            -4.9570461166666666,
            54.899261566666667
          ],
          [
            -4.9597157565343055,
            54.90027926426658
          ],
          [
            -4.9625280418465323,
            54.901319691443099
          ],
          [
            -4.9655557833333335,
            54.902149183333329
          ],
          [
            -4.968311383333333,
            54.902847133333339
          ],
          [
            -4.9708401666666671,
            54.903481466666669
          ],
          [
            -4.9732334666666658,
            54.904055416666672
          ],
          [
            -4.9750035166666668,
            54.904478066666655
          ],
          [
            -4.9762725333333329,
            54.905031133333324
          ],
          [
            -4.9764061333333336,
            54.90638946666666
          ],
          [
            -4.9764310666666676,
            54.906886183333334
          ],
          [
            -4.9763844500000012,
            54.907802466666666
          ],
          [
            -4.9763412833333334,
            54.908711533333324
          ],
          [
            -4.9762587333333332,
            54.910180933333336
          ],
          [
            -4.9761278666666664,
            54.912285166666663
          ],
          [
            -4.9760158499999996,
            54.914534033333332
          ],
          [
            -4.9763654000000006,
            54.916761733333331
          ],
          [
            -4.978090466666667,
            54.918504683333339
          ],
          [
            -4.9802740833333328,
            54.920305933333339
          ],
          [
            -4.982132683333333,
            54.921953050000006
          ],
          [
            -4.9828782333333335,
            54.923685566666663
          ],
          [
            -4.9837679166666664,
            54.925148266666675
          ],
          [
            -4.9847991999999994,
            54.926282383333337
          ],
          [
            -4.9858016333333337,
            54.9273138
          ],
          [
            -4.9870579666666668,
            54.928288583333341
          ],
          [
            -4.9881038999999996,
            54.930206699999999
          ],
          [
            -4.989729566666667,
            54.931886500000005
          ],
          [
            -4.9913262333333339,
            54.933494999999994
          ],
          [
            -4.9930919166666667,
            54.935271166666674
          ],
          [
            -4.9949820999999996,
            54.937179749999999
          ],
          [
            -4.9969919666666671,
            54.93919283333333
          ],
          [
            -4.9988467166666668,
            54.941060249999992
          ],
          [
            -5.0006070500000011,
            54.942903933333341
          ],
          [
            -5.0020294666666665,
            54.945037400000004
          ],
          [
            -5.0033683666666668,
            54.947122116666669
          ],
          [
            -5.0044582499999999,
            54.949128950000002
          ],
          [
            -5.0049325333333332,
            54.951300333333329
          ],
          [
            -5.0052504166666667,
            54.953215016666668
          ],
          [
            -5.0064184166666665,
            54.954880333333328
          ],
          [
            -5.0080663833333334,
            54.956455416666657
          ],
          [
            -5.0093166,
            54.958019966666676
          ],
          [
            -5.0101791833333333,
            54.959413283333333
          ],
          [
            -5.0108961166666672,
            54.960652533333324
          ],
          [
            -5.0115599499999997,
            54.961795283333338
          ],
          [
            -5.0119639666666664,
            54.962974933333335
          ],
          [
            -5.0124749666666668,
            54.963853016666654
          ],
          [
            -5.0132797833333331,
            54.964668333333336
          ],
          [
            -5.0140016333333337,
            54.965514450000001
          ],
          [
            -5.0146203666666667,
            54.966382850000009
          ],
          [
            -5.0156033833333327,
            54.967344283333325
          ],
          [
            -5.0167119500000004,
            54.968306200000008
          ],
          [
            -5.0175676333333339,
            54.969290000000008
          ],
          [
            -5.0184095666666666,
            54.970257199999999
          ],
          [
            -5.0196277833333331,
            54.971073383333334
          ],
          [
            -5.0209438666666673,
            54.971727133333324
          ],
          [
            -5.0220694166666666,
            54.972389499999991
          ],
          [
            -5.0232394999999999,
            54.973031683333325
          ],
          [
            -5.024512566666667,
            54.973641500000006
          ],
          [
            -5.0261478499999992,
            54.974037299999992
          ],
          [
            -5.0282033666666663,
            54.974620183333343
          ],
          [
            -5.0293108333333336,
            54.976234599999998
          ],
          [
            -5.0293270333333338,
            54.977181050000006
          ],
          [
            -5.0293423500000003,
            54.978498299999998
          ],
          [
            -5.0295341166666656,
            54.979713633333326
          ],
          [
            -5.0302418833333329,
            54.980673583333328
          ],
          [
            -5.0312577833333334,
            54.981407183333339
          ],
          [
            -5.0327873235181757,
            54.981592501357824
          ],
          [
            -5.033852577677802,
            54.982296167321877
          ],
          [
            -5.0348634840399313,
            54.983002171559065
          ],
          [
            -5.0356330905959359,
            54.983794663597081
          ],
          [
            -5.0371675666666667,
            54.983608633333333
          ],
          [
            -5.0361017256579084,
            54.984360335063663
          ],
          [
            -5.0371031764132965,
            54.985060839312411
          ],
          [
            -5.8824622166666662,
            54.635233783333319
          ],
          [
            -5.8835279302192944,
            54.635909393164859
          ],
          [
            -5.8824584166666662,
            54.636572350000002
          ],
          [
            -5.8820177166666667,
            54.637439383333337
          ],
          [
            -5.8831305384935115,
            54.636585088867307
          ],
          [
            -5.8842612582996763,
            54.63568817690421
          ],
          [
            -5.8856373666666668,
            54.634680633333332
          ],
          [
            -5.8871397666666665,
            54.633508433333326
          ],
          [
            -5.8884431000000008,
            54.632763250000004
          ],
          [
            -5.8897482666666674,
            54.632150416666676
          ],
          [
            -5.8914461833333327,
            54.631359833333335
          ],
          [
            -5.8932142333333326,
            54.630533866666674
          ],
          [
            -5.8949116833333335,
            54.629732950000005
          ],
          [
            -5.8962747910875573,
            54.629125051414228
          ],
          [
            -5.8977205473389596,
            54.629672256794542
          ],
          [
            -5.899237216940568,
            54.629854932987371
          ],
          [
            -5.9014568199873976,
            54.629841574638569
          ],
          [
            -5.9038504333333339,
            54.629830566666669
          ],
          [
            -5.9059247833333339,
            54.629812216666672
          ],
          [
            -5.9083557166666667,
            54.629803633333324
          ],
          [
            -5.9107876666666659,
            54.62978651666667
          ],
          [
            -5.9131134166666666,
            54.629768433333325
          ],
          [
            -5.9151951463063037,
            54.629759201212231
          ],
          [
            -5.916914457857505,
            54.629754775294749
          ],
          [
            -5.9183195666666659,
            54.630180383333332
          ],
          [
            -5.9199149402108073,
            54.630178110957061
          ],
          [
            -5.9202952500000006,
            54.629294850000001
          ],
          [
            -5.9198756439399611,
            54.62831370965052
          ],
          [
            -5.9198955833333322,
            54.626672666666678
          ],
          [
            -5.9199671098054596,
            54.624746396432847
          ],
          [
            -5.9202916666666665,
            54.622806233333328
          ],
          [
            -5.9206195166666671,
            54.620619900000001
          ],
          [
            -5.9209188500000005,
            54.618601949999992
          ],
          [
            -5.9212085500000002,
            54.616633749999998
          ],
          [
            -5.9214031833333332,
            54.615057950000001
          ],
          [
            -5.9214494666666662,
            54.614460216666671
          ],
          [
            -5.9215560666666667,
            54.612512950000003
          ],
          [
            -5.9216873000000003,
            54.610742433333336
          ],
          [
            -5.9224873000000002,
            54.609285716666669
          ],
          [
            -5.9236294031213532,
            54.608261527027821
          ],
          [
            -5.9249997966569179,
            54.607500306919007
          ],
          [
            -5.9266630166666667,
            54.607322383333333
          ],
          [
            -5.9283292849934695,
            54.607316167232227
          ],
          [
            -5.9303255574828393,
            54.607526749759167
          ],
          [
            -5.9328283437644815,
            54.607441818494543
          ],
          [
            -5.9350777495406399,
            54.606664439953477
          ],
          [
            -5.9367079333333335,
            54.605615500000006
          ],
          [
            -5.9377119499999997,
            54.60451410000001
          ],
          [
            -5.9381925000000004,
            54.603388516666676
          ],
          [
            -5.9385751666666673,
            54.602439183333338
          ],
          [
            -5.9390195000000006,
            54.601312099999994
          ],
          [
            -5.9394390000000001,
            54.600332866666669
          ],
          [
            -5.9399223999999995,
            54.599372466666665
          ],
          [
            -5.9409393000000001,
            54.597774933333326
          ],
          [
            -5.9421139333333333,
            54.596044183333333
          ],
          [
            -5.9432919333333345,
            54.594340933333328
          ],
          [
            -5.9445628499999996,
            54.592686233333339
          ],
          [
            -5.947423783333333,
            54.591940516666668
          ],
          [
            -5.9509488499999996,
            54.592082349999998
          ],
          [
            -5.9539585500000003,
            54.591585699999996
          ],
          [
            -5.9561382333333333,
            54.590414866666663
          ],
          [
            -5.9589106166666665,
            54.588619616666669
          ],
          [
            -5.960518116666667,
            54.587151616666667
          ],
          [
            -5.9625665000000003,
            54.585336116666667
          ],
          [
            -5.9644361333333329,
            54.583693716666659
          ],
          [
            -5.966338266666666,
            54.582029200000001
          ],
          [
            -5.9682792333333339,
            54.580331700000002
          ],
          [
            -5.9702215833333341,
            54.578630716666673
          ],
          [
            -5.9721704000000004,
            54.576913250000004
          ],
          [
            -5.9745028500000013,
            54.575034700000003
          ],
          [
            -5.9770240999999995,
            54.573608516666667
          ],
          [
            -5.9804578666666659,
            54.572329916666668
          ],
          [
            -5.9841695166666664,
            54.57113305
          ],
          [
            -5.9877690500000016,
            54.569824183333338
          ],
          [
            -5.9904699666666659,
            54.568187633333338
          ],
          [
            -5.9924697166666663,
            54.565996533333326
          ],
          [
            -5.9934056666666669,
            54.563801833333336
          ],
          [
            -5.9941613833333331,
            54.561579583333334
          ],
          [
            -5.9950170666666658,
            54.559139766666668
          ],
          [
            -5.9958008833333336,
            54.556926216666675
          ],
          [
            -5.9966607666666674,
            54.554521350000002
          ],
          [
            -5.9970025833333329,
            54.552049833333328
          ],
          [
            -5.9963340833333332,
            54.549816433333341
          ],
          [
            -5.9952336833333337,
            54.547418016666676
          ],
          [
            -5.9941817333333329,
            54.545018899999995
          ],
          [
            -5.9938342333333328,
            54.542548883333332
          ],
          [
            -5.9944206000000007,
            54.540098583333332
          ],
          [
            -5.9958047333333333,
            54.537759916666666
          ],
          [
            -5.9972868500000001,
            54.535444866666666
          ],
          [
            -5.9988004000000013,
            54.533092066666654
          ],
          [
            -5.9996240333333333,
            54.531810883333343
          ],
          [
            -6.0001579166666659,
            54.530984833333335
          ],
          [
            -6.0015454999999989,
            54.528815749999993
          ],
          [
            -6.0028708833333324,
            54.526750733333337
          ],
          [
            -6.0043120166666668,
            54.524509999999992
          ],
          [
            -6.0055956166666666,
            54.52250686666666
          ],
          [
            -6.0068834500000001,
            54.520505966666661
          ],
          [
            -6.0081397500000007,
            54.51854518333333
          ],
          [
            -6.0095632999999999,
            54.516486600000007
          ],
          [
            -6.0115074666666652,
            54.514722349999992
          ],
          [
            -6.0143761833333338,
            54.513108366666664
          ],
          [
            -6.0174511166666669,
            54.51191038333333
          ],
          [
            -6.0204680499999998,
            54.510757366666667
          ],
          [
            -6.0234611166666667,
            54.509420949999999
          ],
          [
            -6.0256638333333346,
            54.508139733333344
          ],
          [
            -6.0273128833333338,
            54.507160716666668
          ],
          [
            -6.028321833333333,
            54.506453766666667
          ],
          [
            -6.0292797119234933,
            54.505707749207808
          ],
          [
            -6.0278898500000002,
            54.505236916666675
          ],
          [
            -6.027006366666666,
            54.504024833333339
          ],
          [
            -6.0260385833333334,
            54.502718233333319
          ],
          [
            -6.0250439166666681,
            54.501281783333326
          ],
          [
            -6.023999466666667,
            54.49977943333333
          ],
          [
            -6.0229173833333336,
            54.498384933333334
          ],
          [
            -6.0218412166666671,
            54.497221666666675
          ],
          [
            -6.0195085930745007,
            54.496674608930242
          ],
          [
            -6.0171934333333326,
            54.495850950000005
          ],
          [
            -6.0147244999999998,
            54.494762366666656
          ],
          [
            -6.0121500631030997,
            54.494000661419733
          ],
          [
            -6.0096921136065893,
            54.493309336756859
          ],
          [
            -6.0065949099558313,
            54.492892725981925
          ],
          [
            -6.0033356727890084,
            54.492572550475515
          ],
          [
            -6.0006600666666685,
            54.49130091666666
          ],
          [
            -5.9986836666666665,
            54.48991745
          ],
          [
            -5.9968255666666668,
            54.48857670000001
          ],
          [
            -5.9948791666666672,
            54.487152399999999
          ],
          [
            -5.9928626333333339,
            54.485817700000013
          ],
          [
            -5.9904747166666672,
            54.484455449999999
          ],
          [
            -5.9884171333333338,
            54.483362700000001
          ],
          [
            -5.9862704166666676,
            54.482131633333331
          ],
          [
            -5.9845212500000002,
            54.480865849999994
          ],
          [
            -5.9828110333333333,
            54.479608166666665
          ],
          [
            -5.981143283333334,
            54.478206383333323
          ],
          [
            -5.9797323000000002,
            54.477030766666665
          ],
          [
            -5.9782646666666661,
            54.475727783333333
          ],
          [
            -5.9767899,
            54.474503516666665
          ],
          [
            -5.9751821833333336,
            54.473509583333332
          ],
          [
            -5.9740045833333344,
            54.47279855
          ],
          [
            -5.9729040499999995,
            54.472146283333323
          ],
          [
            -5.9712090666666668,
            54.471163516666671
          ],
          [
            -5.9692169166666664,
            54.470203250000004
          ],
          [
            -5.9671904333333341,
            54.469396216666674
          ],
          [
            -5.9661656333333326,
            54.468283333333325
          ],
          [
            -5.9653505166666667,
            54.466768583333341
          ],
          [
            -5.964000566666666,
            54.465328916666671
          ],
          [
            -5.9626393833333342,
            54.463841783333329
          ],
          [
            -5.9613673500000006,
            54.462489766666671
          ],
          [
            -5.9603619500000002,
            54.4613862
          ],
          [
            -5.9602808999999999,
            54.4600358
          ],
          [
            -5.9597874333333341,
            54.458668516666663
          ],
          [
            -5.958602616666667,
            54.457154733333333
          ],
          [
            -5.9575917166666672,
            54.455700416666666
          ],
          [
            -5.9565216666666663,
            54.45421223333333
          ],
          [
            -5.9555885333333336,
            54.45282228333334
          ],
          [
            -5.9543538999999992,
            54.45137188333333
          ],
          [
            -5.9524352500000006,
            54.449567266666662
          ],
          [
            -5.9505083333333326,
            54.447906216666659
          ],
          [
            -5.9486198666666672,
            54.446320450000002
          ],
          [
            -5.9468247666666665,
            54.444781383333336
          ],
          [
            -5.9450727666666676,
            54.443247283333328
          ],
          [
            -5.9430065333333326,
            54.441646633333328
          ],
          [
            -5.9406663833333324,
            54.43990791666667
          ],
          [
            -5.9390275499999996,
            54.438621900000001
          ],
          [
            -5.937189366666666,
            54.437106916666671
          ],
          [
            -5.9352029166666664,
            54.435470416666675
          ],
          [
            -5.9334520666666668,
            54.433968216666663
          ],
          [
            -5.9318145333333332,
            54.432446933333331
          ],
          [
            -5.9303374333333334,
            54.430962549999997
          ],
          [
            -5.9286000333333329,
            54.429602466666665
          ],
          [
            -5.9266432333333343,
            54.428417066666661
          ],
          [
            -5.9248355500000001,
            54.426881083333335
          ],
          [
            -5.9230278999999992,
            54.425472416666665
          ],
          [
            -5.9211203499999989,
            54.423928733333327
          ],
          [
            -5.9191112333333331,
            54.422646916666658
          ],
          [
            -5.9169640499999998,
            54.421308966666658
          ],
          [
            -5.9150300166666661,
            54.42009933333334
          ],
          [
            -5.9128786166666663,
            54.418970716666671
          ],
          [
            -5.9109185500000008,
            54.417805250000015
          ],
          [
            -5.9089591666666665,
            54.416693050000006
          ],
          [
            -5.9070258500000001,
            54.415607600000001
          ],
          [
            -5.9053810666666662,
            54.414390566666668
          ],
          [
            -5.9041478500000002,
            54.413039349999998
          ],
          [
            -5.9040089666666669,
            54.411666616666658
          ],
          [
            -5.9043856333333338,
            54.410315616666672
          ],
          [
            -5.9047680921042112,
            54.409092748961285
          ],
          [
            -5.905088665867809,
            54.408081311528477
          ],
          [
            -5.9053890166666667,
            54.407185233333337
          ],
          [
            -5.9035989166666658,
            54.40641358333334
          ],
          [
            -5.9017379000000005,
            54.40552146666667
          ],
          [
            -5.9001237666666668,
            54.4046223
          ],
          [
            -5.8994549007729606,
            54.404142785786291
          ],
          [
            -5.898640133333334,
            54.403558166666663
          ],
          [
            -5.8977305999999992,
            54.402821133333326
          ],
          [
            -5.8975471921660905,
            54.401911920395285
          ],
          [
            -5.8975451666666663,
            54.401003949999996
          ],
          [
            -5.8972452363311545,
            54.40010996072882
          ],
          [
            -5.8967798551547679,
            54.39924322904541
          ],
          [
            -5.8955221168663714,
            54.398404988854374
          ],
          [
            -5.8936338814281832,
            54.397833519407783
          ],
          [
            -5.891568044020608,
            54.397192728015298
          ],
          [
            -5.8898292863913007,
            54.395843821873939
          ],
          [
            -5.8884328762323488,
            54.395267693210336
          ],
          [
            -5.8870228916333529,
            54.394751066929174
          ],
          [
            -5.8852775177455481,
            54.394078261598985
          ],
          [
            -5.8841694721684323,
            54.392944821811788
          ],
          [
            -5.8834503330295549,
            54.391248483162002
          ],
          [
            -5.8833012825593798,
            54.389608676334305
          ],
          [
            -5.8819090372452729,
            54.388176151567542
          ],
          [
            -5.8806121898797725,
            54.386716249757733
          ],
          [
            -5.8796118072187333,
            54.38528487295094
          ],
          [
            -5.8788880147718965,
            54.383698217632102
          ],
          [
            -5.8775097420598472,
            54.382887819799855
          ],
          [
            -5.8759786488398067,
            54.382206345006345
          ],
          [
            -5.8730757999999996,
            54.380942233333329
          ],
          [
            -5.8705901833333334,
            54.379537733333336
          ],
          [
            -5.869021899999999,
            54.377977250000001
          ],
          [
            -5.8678138833333335,
            54.376253449999993
          ],
          [
            -5.8664091000000012,
            54.374924600000007
          ],
          [
            -5.8642806833333339,
            54.373997133333326
          ],
          [
            -5.8618540166666664,
            54.373392066666668
          ],
          [
            -5.8602193499999995,
            54.37278491666666
          ],
          [
            -5.8587807200063651,
            54.372424692320642
          ],
          [
            -5.8571239360598142,
            54.371982337354488
          ],
          [
            -5.855372533333334,
            54.371170550000002
          ],
          [
            -5.8548736166666666,
            54.370624050000004
          ],
          [
            -5.8540149174609368,
            54.369847291644973
          ],
          [
            -5.8532242118693363,
            54.369059585632868
          ],
          [
            -5.852406796360289,
            54.368220676644874
          ],
          [
            -5.8514180638026874,
            54.367446770174965
          ],
          [
            -5.8507257701568349,
            54.366617087186533
          ],
          [
            -5.8500892045600166,
            54.365760499128655
          ],
          [
            -5.8494154026146443,
            54.364816139151415
          ],
          [
            -5.8489857193140553,
            54.36369296197261
          ],
          [
            -5.8485894777078267,
            54.362667122801128
          ],
          [
            -5.848045815044669,
            54.361684665760201
          ],
          [
            -5.8474688403266253,
            54.360830356617257
          ],
          [
            -5.8466789657306979,
            54.35969632788089
          ],
          [
            -5.846063369975365,
            54.358591541363353
          ],
          [
            -5.8456134454636102,
            54.357675604123131
          ],
          [
            -5.8448092523740431,
            54.356577289199947
          ],
          [
            -5.8440435280675125,
            54.355489591756594
          ],
          [
            -5.8434549575239467,
            54.354548600166346
          ],
          [
            -5.8428689171955561,
            54.353607502062481
          ],
          [
            -5.8423267839544675,
            54.352681696665456
          ],
          [
            -5.8417250488617922,
            54.351686775924108
          ],
          [
            -5.841252575218876,
            54.350812738127765
          ],
          [
            -5.8406546538024289,
            54.349982328457756
          ],
          [
            -5.8400306252853138,
            54.34871915901936
          ],
          [
            -5.839213141472313,
            54.346830601762562
          ],
          [
            -5.8395175344259691,
            54.345955874694496
          ]
        ]
      },
      "type" : "Feature",
      "properties" : {
        "device" : "B9E47AEB-E54C-4563-96B6-06995DD4BC56 (iPhone 16 Pro)",
        "source" : "Geory 5.3.2",
        "end" : "2026-05-08T21:59:59Z",
        "start" : "2026-05-07T22:00:00Z",
        "type" : "route"
      }
    }
  ]
}