{
  "features" : [
    {
      "type" : "Feature",
      "geometry" : {
        "type" : "Point",
        "coordinates" : [
          -3.0815598343325141,
          58.423954644774916
        ]
      },
      "properties" : {
        "duration" : 62642.695876836777,
        "weather" : "Überwiegend bewölkt (12,0 °C)",
        "type" : "visit",
        "address" : "March Road, Oldwick, Wick, KW1, Schottland",
        "device" : "B9E47AEB-E54C-4563-96B6-06995DD4BC56 (iPhone 16 Pro)",
        "rating" : 0,
        "departure" : "2026-09-21T10:26:02Z",
        "source" : "Geory 5.3.2",
        "timestamp" : "2026-09-20T17:02:00Z",
        "arrival" : "2026-09-20T17:02:00Z"
      }
    },
    {
      "type" : "Feature",
      "properties" : {
        "duration" : 1413.0004148483276,
        "device" : "B9E47AEB-E54C-4563-96B6-06995DD4BC56 (iPhone 16 Pro)",
        "source" : "Geory 5.3.2",
        "departure" : "2026-09-21T10:58:10Z",
        "timestamp" : "2026-09-21T10:34:37Z",
        "rating" : 0,
        "type" : "visit",
        "arrival" : "2026-09-21T10:34:37Z",
        "weather" : "Bedeckter Himmel (11,2 °C)",
        "address" : "Saint Fergus Road, Wick, KW1, Schottland"
      },
      "geometry" : {
        "coordinates" : [
          -3.0955590349232112,
          58.443173693033479
        ],
        "type" : "Point"
      }
    },
    {
      "properties" : {
        "weather" : "Bedeckter Himmel (14,1 °C)",
        "duration" : 1917.4832990169525,
        "arrival" : "2026-09-21T15:07:51Z",
        "source" : "Geory 5.3.2",
        "type" : "visit",
        "address" : "Geo Road, Deerness, Orkney, KW17, Schottland",
        "rating" : 0,
        "timestamp" : "2026-09-21T15:07:51Z",
        "departure" : "2026-09-21T15:39:48Z",
        "device" : "B9E47AEB-E54C-4563-96B6-06995DD4BC56 (iPhone 16 Pro)"
      },
      "geometry" : {
        "type" : "Point",
        "coordinates" : [
          -2.7529025238164611,
          58.922404757614352
        ]
      },
      "type" : "Feature"
    },
    {
      "type" : "Feature",
      "geometry" : {
        "type" : "Point",
        "coordinates" : [
          -2.7439562053526165,
          58.923604252646882
        ]
      },
      "properties" : {
        "device" : "B9E47AEB-E54C-4563-96B6-06995DD4BC56 (iPhone 16 Pro)",
        "address" : "Newark Beach, Orkney, KW17, Schottland",
        "duration" : 1350.9392793178558,
        "timestamp" : "2026-09-21T15:40:41Z",
        "type" : "visit",
        "arrival" : "2026-09-21T15:40:41Z",
        "departure" : "2026-09-21T16:03:12Z",
        "weather" : "Bedeckter Himmel (14,1 °C)",
        "source" : "Geory 5.3.2",
        "rating" : 0
      }
    },
    {
      "geometry" : {
        "coordinates" : [
          -2.7527060855869783,
          58.92252820116596
        ],
        "type" : "Point"
      },
      "type" : "Feature",
      "properties" : {
        "weather" : "Bedeckter Himmel (15,0 °C)",
        "device" : "B9E47AEB-E54C-4563-96B6-06995DD4BC56 (iPhone 16 Pro)",
        "departure" : "2026-09-21T18:44:35Z",
        "timestamp" : "2026-09-21T16:04:14Z",
        "rating" : 0,
        "type" : "visit",
        "source" : "Geory 5.3.2",
        "arrival" : "2026-09-21T16:04:14Z",
        "address" : "Geo Road, Deerness, Orkney, KW17, Schottland",
        "duration" : 9620.47634100914
      }
    },
    {
      "geometry" : {
        "coordinates" : [
          -2.7528747487262124,
          58.922361094820751
        ],
        "type" : "Point"
      },
      "properties" : {
        "address" : "Geo Road, Deerness, Orkney, KW17, Schottland",
        "duration" : 49923.367962598801,
        "rating" : 0,
        "source" : "Geory 5.3.2",
        "timestamp" : "2026-09-21T18:49:55Z",
        "weather" : "Aufgelockert bewölkt (15,1 °C)",
        "arrival" : "2026-09-21T18:49:55Z",
        "device" : "B9E47AEB-E54C-4563-96B6-06995DD4BC56 (iPhone 16 Pro)",
        "type" : "visit",
        "departure" : "2026-09-22T08:41:58Z"
      },
      "type" : "Feature"
    },
    {
      "type" : "Feature",
      "properties" : {
        "source" : "Geory 5.3.2",
        "type" : "route",
        "start" : "2026-09-20T23:00:00Z",
        "end" : "2026-09-21T22:59:59Z",
        "device" : "B9E47AEB-E54C-4563-96B6-06995DD4BC56 (iPhone 16 Pro)"
      },
      "geometry" : {
        "type" : "LineString",
        "coordinates" : [
          [
            -2.7528747487262124,
            58.922361094820751
          ],
          [
            -2.7527060855869783,
            58.92252820116596
          ],
          [
            -2.7439562053526165,
            58.923604252646882
          ],
          [
            -2.7529025238164611,
            58.922404757614352
          ],
          [
            -2.7536844333333335,
            58.922128733333324
          ],
          [
            -2.7554713000000004,
            58.92218603333334
          ],
          [
            -2.7572813333333333,
            58.922241766666673
          ],
          [
            -2.7591106666666665,
            58.922296800000005
          ],
          [
            -2.7608901166666668,
            58.92235243333333
          ],
          [
            -2.7626936833333331,
            58.922410800000009
          ],
          [
            -2.7645151666666665,
            58.922472383333329
          ],
          [
            -2.7662982999999999,
            58.922542300000003
          ],
          [
            -2.7684519999999999,
            58.922251933333335
          ],
          [
            -2.7709678333333336,
            58.92180676666667
          ],
          [
            -2.7736449999999997,
            58.921584766666669
          ],
          [
            -2.7762204000000001,
            58.921218133333333
          ],
          [
            -2.7784211666666669,
            58.920618783333339
          ],
          [
            -2.7802829500000001,
            58.919391949999998
          ],
          [
            -2.7814055999999998,
            58.91802661666668
          ],
          [
            -2.7820996,
            58.916689300000009
          ],
          [
            -2.7842094166666667,
            58.915733666666661
          ],
          [
            -2.7865587999999999,
            58.915353599999996
          ],
          [
            -2.7891945666666667,
            58.91582953333333
          ],
          [
            -2.7914626333333334,
            58.91660541666667
          ],
          [
            -2.7938882999999999,
            58.917112783333337
          ],
          [
            -2.79608905,
            58.917101299999992
          ],
          [
            -2.7986427666666667,
            58.917403683333333
          ],
          [
            -2.8009393,
            58.917787833333328
          ],
          [
            -2.8031214333333336,
            58.918201166666663
          ],
          [
            -2.8052322999999997,
            58.918761416666669
          ],
          [
            -2.8075941166666669,
            58.919220399999993
          ],
          [
            -2.81006175,
            58.919070949999998
          ],
          [
            -2.8125186166666669,
            58.918803433333338
          ],
          [
            -2.8147467333333336,
            58.918600666666663
          ],
          [
            -2.8173446833333333,
            58.918823883333332
          ],
          [
            -2.8197088333333333,
            58.919032183333336
          ],
          [
            -2.8218082833333331,
            58.919261933333338
          ],
          [
            -2.8241078333333336,
            58.919890833333334
          ],
          [
            -2.8264054500000002,
            58.920672933333329
          ],
          [
            -2.8282955000000003,
            58.921456299999996
          ],
          [
            -2.830058567421903,
            58.922142783493051
          ],
          [
            -2.8317709508988727,
            58.922843227442186
          ],
          [
            -2.8334825994443422,
            58.92341085078764
          ],
          [
            -2.8351931921852951,
            58.923602972957944
          ],
          [
            -2.835699227505613,
            58.922679035072534
          ],
          [
            -2.8367003633831622,
            58.920969001649418
          ],
          [
            -2.8375986168929015,
            58.919288618322618
          ],
          [
            -2.838478799479986,
            58.917655627217002
          ],
          [
            -2.8391988833333333,
            58.916281133333328
          ],
          [
            -2.8399032333333332,
            58.914857716666667
          ],
          [
            -2.8405889704277061,
            58.913557425509403
          ],
          [
            -2.84096498758529,
            58.912861161322851
          ],
          [
            -2.8412610212754843,
            58.912306370691809
          ],
          [
            -2.8418772734408591,
            58.911289431264407
          ],
          [
            -2.8439342999999999,
            58.9104679
          ],
          [
            -2.8461520166666672,
            58.909642200000008
          ],
          [
            -2.8484050666666665,
            58.908803933333338
          ],
          [
            -2.8503384500000002,
            58.908088233333338
          ],
          [
            -2.8520328833333335,
            58.907460000000007
          ],
          [
            -2.8535312500000001,
            58.906906599999999
          ],
          [
            -2.8549770166666666,
            58.906377116666668
          ],
          [
            -2.85663095,
            58.905768450000011
          ],
          [
            -2.8583599999999998,
            58.905141116666663
          ],
          [
            -2.8600482,
            58.904540200000007
          ],
          [
            -2.8615052855297938,
            58.903997303808303
          ],
          [
            -2.8623173666666668,
            58.902822683333333
          ],
          [
            -2.8633540500000003,
            58.901770366666668
          ],
          [
            -2.8642915333333332,
            58.900955966666672
          ],
          [
            -2.8653637333333331,
            58.900224266666662
          ],
          [
            -2.8666086333333336,
            58.899482500000005
          ],
          [
            -2.8687006833333331,
            58.899674116666667
          ],
          [
            -2.8707642500000001,
            58.900451083333337
          ],
          [
            -2.8725172833333334,
            58.901103366666668
          ],
          [
            -2.8741935333333335,
            58.901727066666666
          ],
          [
            -2.875425616666667,
            58.902503366666664
          ],
          [
            -2.876773,
            58.903262466666668
          ],
          [
            -2.8791928500000004,
            58.903938799999999
          ],
          [
            -2.8800437588776466,
            58.904121417186659
          ],
          [
            -2.8812274500000004,
            58.903245466666668
          ],
          [
            -2.8820960474728929,
            58.902386602537781
          ],
          [
            -2.8831460166666667,
            58.901494849999999
          ],
          [
            -2.8853395833333333,
            58.90102421666667
          ],
          [
            -2.8871218333333331,
            58.900415416666661
          ],
          [
            -2.8891661833333333,
            58.899756449999991
          ],
          [
            -2.8906916333333332,
            58.898864033333332
          ],
          [
            -2.8915366333333337,
            58.897785066666671
          ],
          [
            -2.8929488000000001,
            58.897071599999997
          ],
          [
            -2.8946072666666662,
            58.896564683333331
          ],
          [
            -2.8962975419691848,
            58.896129352302047
          ],
          [
            -2.897182083333333,
            58.895231416666668
          ],
          [
            -2.8967733,
            58.893929616666668
          ],
          [
            -2.8963459499999997,
            58.892584050000004
          ],
          [
            -2.8959256833333331,
            58.891295966666668
          ],
          [
            -2.8955880999999999,
            58.890261899999992
          ],
          [
            -2.8953947000000002,
            58.889032766666666
          ],
          [
            -2.8952778499999998,
            58.888080633333324
          ],
          [
            -2.8958058558099125,
            58.886965046918327
          ],
          [
            -2.8975191451756399,
            58.88611275505756
          ],
          [
            -2.8991146715628195,
            58.885261391516728
          ],
          [
            -2.8996924849699131,
            58.88424511829146
          ],
          [
            -2.9010193942417,
            58.883321615847812
          ],
          [
            -2.9023829349512438,
            58.882384738380317
          ],
          [
            -2.9036870731730868,
            58.881488533537102
          ],
          [
            -2.9048978912662613,
            58.880657468210153
          ],
          [
            -2.9060394360157797,
            58.879872768490394
          ],
          [
            -2.9072825279670322,
            58.878905160155838
          ],
          [
            -2.9086239252735213,
            58.877865223223097
          ],
          [
            -2.9100555650788085,
            58.876788849244114
          ],
          [
            -2.9111263833333334,
            58.875710133333328
          ],
          [
            -2.9120143500000006,
            58.874602450000005
          ],
          [
            -2.9134357333333329,
            58.873694700000001
          ],
          [
            -2.9150688499999999,
            58.873108283333345
          ],
          [
            -2.9155958833333333,
            58.872205433333328
          ],
          [
            -2.9149478000000002,
            58.871358949999994
          ],
          [
            -2.9142636999999998,
            58.870477183333335
          ],
          [
            -2.9135528666666666,
            58.869553449999998
          ],
          [
            -2.9127746166666668,
            58.868541433333334
          ],
          [
            -2.9118989000000002,
            58.867587633333336
          ],
          [
            -2.9106070333333336,
            58.866789916666661
          ],
          [
            -2.9085562182465576,
            58.866581279309607
          ],
          [
            -2.9074312290550925,
            58.865583644196825
          ],
          [
            -2.9069280920100273,
            58.864688917414256
          ],
          [
            -2.9071438805079333,
            58.863776134901407
          ],
          [
            -2.9084398034284873,
            58.863143842330061
          ],
          [
            -2.9101833499999996,
            58.862293100000002
          ],
          [
            -2.9117644333333335,
            58.861470116666673
          ],
          [
            -2.911683833333333,
            58.860206716666667
          ],
          [
            -2.9113145333333335,
            58.859051766666674
          ],
          [
            -2.9114223666666668,
            58.857836949999999
          ],
          [
            -2.9125496166666665,
            58.856493800000003
          ],
          [
            -2.9141464500000001,
            58.855405833333329
          ],
          [
            -2.9159871166666669,
            58.854715716666668
          ],
          [
            -2.9164460333333335,
            58.85355473333334
          ],
          [
            -2.9155890666666666,
            58.852205383333335
          ],
          [
            -2.9147690833333333,
            58.850917183333337
          ],
          [
            -2.9144449378981667,
            58.849401791415076
          ],
          [
            -2.9144242833333331,
            58.847966033333329
          ],
          [
            -2.9143863666666667,
            58.846916166666674
          ],
          [
            -2.9119701833333336,
            58.84678146666667
          ],
          [
            -2.9102363499999999,
            58.847069783333339
          ],
          [
            -2.9082361999999997,
            58.847406833333331
          ],
          [
            -2.9060722499999998,
            58.847029933333332
          ],
          [
            -2.9050554499999999,
            58.845966233333336
          ],
          [
            -2.9041529333333336,
            58.844778600000005
          ],
          [
            -2.9029802191482519,
            58.842634198669742
          ],
          [
            -2.9045176194629705,
            58.841387784083821
          ],
          [
            -2.9059157326986376,
            58.840255554120795
          ],
          [
            -2.9071440303785456,
            58.83925845580012
          ],
          [
            -2.9082731864584934,
            58.838373864751127
          ],
          [
            -2.9105678220451292,
            58.837711158302625
          ],
          [
            -2.9134093854350036,
            58.837453476078394
          ],
          [
            -2.9161609766179613,
            58.83698580029435
          ],
          [
            -2.9189173666666668,
            58.836814883333332
          ],
          [
            -2.9217701243554104,
            58.836267497027499
          ],
          [
            -2.924418013334404,
            58.835672547269013
          ],
          [
            -2.9273119266537622,
            58.835062296863889
          ],
          [
            -2.9302108737417041,
            58.834472263434236
          ],
          [
            -2.9330100751163113,
            58.833880501679431
          ],
          [
            -2.9356894647468081,
            58.833337825958061
          ],
          [
            -2.9382741210345444,
            58.83288369939811
          ],
          [
            -2.9410604203177049,
            58.832968092443991
          ],
          [
            -2.9439093619740113,
            58.832831603751728
          ],
          [
            -2.9464215923876291,
            58.831951531989048
          ],
          [
            -2.9487763,
            58.831098116666666
          ],
          [
            -2.9499382000000001,
            58.829979116666664
          ],
          [
            -2.9505743500000001,
            58.828663383333335
          ],
          [
            -2.9512931166666667,
            58.827203866666665
          ],
          [
            -2.9520523499999993,
            58.825803349999994
          ],
          [
            -2.9526871666666663,
            58.824629916666666
          ],
          [
            -2.9533911666666666,
            58.823688966666666
          ],
          [
            -2.9552567166666668,
            58.82317840000001
          ],
          [
            -2.9572234999999996,
            58.82369271666667
          ],
          [
            -2.9590532500000002,
            58.824173699999996
          ],
          [
            -2.9609034333333328,
            58.824356299999998
          ],
          [
            -2.9612621662853456,
            58.82524749373728
          ],
          [
            -2.9616576166666664,
            58.826189549999995
          ],
          [
            -2.9625111333333334,
            58.827372366666673
          ],
          [
            -2.9622461333333332,
            58.828073633333332
          ],
          [
            -2.9620369813689851,
            58.828986412154258
          ],
          [
            -2.9628852361643547,
            58.830828939521183
          ],
          [
            -2.9605500376851404,
            58.831989785275219
          ],
          [
            -2.9596331977848238,
            58.832454608514666
          ],
          [
            -2.9578979675829733,
            58.832502981195752
          ],
          [
            -2.9564525659227074,
            58.833628849448075
          ],
          [
            -2.9561400198107837,
            58.835819377568683
          ],
          [
            -2.9564384744948251,
            58.836955983150418
          ],
          [
            -2.9566745282375924,
            58.837458623218318
          ],
          [
            -2.9572381394094429,
            58.838331959589105
          ],
          [
            -2.9584994318729554,
            58.839681259249353
          ],
          [
            -2.9595282574908226,
            58.840280546689122
          ],
          [
            -2.9607069442963985,
            58.841002190380834
          ],
          [
            -2.9653084408196961,
            58.840787089475029
          ],
          [
            -2.9706241636486723,
            58.840567329527289
          ],
          [
            -2.9724586077096458,
            58.840513223947646
          ],
          [
            -2.9828307687107092,
            58.840244804499633
          ],
          [
            -2.9846261374881213,
            58.840205285171329
          ],
          [
            -2.9864394337620217,
            58.840161530570199
          ],
          [
            -2.9882505500616756,
            58.840113842769071
          ],
          [
            -2.9900960686299722,
            58.840061155403824
          ],
          [
            -2.9918499038561173,
            58.840056154113356
          ],
          [
            -3.0001151497384067,
            58.839807221587598
          ],
          [
            -3.0056377001234043,
            58.839689204152243
          ],
          [
            -3.0110316738370759,
            58.83954817824813
          ],
          [
            -3.0156898802052212,
            58.839160932176
          ],
          [
            -3.0156898802052212,
            58.839160932176
          ],
          [
            -3.0205805161567532,
            58.837779945990079
          ],
          [
            -3.025438908543062,
            58.836528689565782
          ],
          [
            -3.0301857755229347,
            58.835223371846482
          ],
          [
            -3.0341026521876606,
            58.833300160149008
          ],
          [
            -3.0377959046772536,
            58.830932389426607
          ],
          [
            -3.0407049909292279,
            58.829141383729905
          ],
          [
            -3.0444048468376042,
            58.826942744759393
          ],
          [
            -3.0473766886328617,
            58.823939152294038
          ],
          [
            -3.0478953281094947,
            58.823426008181983
          ],
          [
            -3.0496931441876209,
            58.821131115577487
          ],
          [
            -3.0502349845179868,
            58.820478959901322
          ],
          [
            -3.0509128411680866,
            58.819591589132926
          ],
          [
            -3.0520308452758882,
            58.818433469694931
          ],
          [
            -3.0541651868081021,
            58.816083810111053
          ],
          [
            -3.0549786674128208,
            58.815128079083067
          ],
          [
            -3.0556957510081886,
            58.814308584336089
          ],
          [
            -3.0564548149219051,
            58.813427816716782
          ],
          [
            -3.0571691319680445,
            58.812598315810895
          ],
          [
            -3.0578873832388145,
            58.811768299157158
          ],
          [
            -3.0586212498144034,
            58.81088366273481
          ],
          [
            -3.0595374364489856,
            58.809676265613781
          ],
          [
            -3.059973542978796,
            58.808782603608748
          ],
          [
            -3.0619144726574983,
            58.806625004467087
          ],
          [
            -3.0622872309616103,
            58.806132656011684
          ],
          [
            -3.067646818024099,
            58.799870088283278
          ],
          [
            -3.0717837608250393,
            58.794185348900271
          ],
          [
            -3.0738830790002574,
            58.790925965538641
          ],
          [
            -3.0754894392789409,
            58.789210676625913
          ],
          [
            -3.0776590089555724,
            58.785877152398363
          ],
          [
            -3.0791110511583266,
            58.783323994038234
          ],
          [
            -3.0791110511583266,
            58.783323994038234
          ],
          [
            -3.0813567699322206,
            58.780663982007347
          ],
          [
            -3.0827615946881419,
            58.779301833889761
          ],
          [
            -3.0840597989465106,
            58.776368391071166
          ],
          [
            -3.0844558118852476,
            58.775859251973451
          ],
          [
            -3.0850967783895569,
            58.774956849023816
          ],
          [
            -3.0871443490720973,
            58.77217445447301
          ],
          [
            -3.087804348628123,
            58.771319505923579
          ],
          [
            -3.0897457772576375,
            58.769208249898377
          ],
          [
            -3.0930964523687918,
            58.765498993210812
          ],
          [
            -3.1042080446948397,
            58.752623750116989
          ],
          [
            -3.1481906575799443,
            58.69754111265739
          ],
          [
            -3.1536802070674592,
            58.690949348409241
          ],
          [
            -3.1573185550950891,
            58.685867477835089
          ],
          [
            -3.1589083337615174,
            58.683960932505606
          ],
          [
            -3.1589083337615174,
            58.683960932505606
          ],
          [
            -3.1609216886862295,
            58.675863696252975
          ],
          [
            -3.1602688272642192,
            58.672284531012906
          ],
          [
            -3.1619593898034686,
            58.638590254776176
          ],
          [
            -3.1615493500419838,
            58.637913800759719
          ],
          [
            -3.1611081833333334,
            58.636899533333327
          ],
          [
            -3.1619167166666666,
            58.636091883333329
          ],
          [
            -3.1595300999999996,
            58.636350166666674
          ],
          [
            -3.15703545,
            58.636661383333333
          ],
          [
            -3.1545919499999995,
            58.636588799999991
          ],
          [
            -3.1518548333333336,
            58.636628700000003
          ],
          [
            -3.1489618333333329,
            58.636955750000006
          ],
          [
            -3.1461864166666667,
            58.637107499999999
          ],
          [
            -3.1427899666666668,
            58.637455416666668
          ],
          [
            -3.1408944500000002,
            58.637823566666668
          ],
          [
            -3.1376697166666667,
            58.637781333333329
          ],
          [
            -3.1345695499999997,
            58.637826916666675
          ],
          [
            -3.1319888666666666,
            58.638353850000009
          ],
          [
            -3.1289159666666668,
            58.638533199999998
          ],
          [
            -3.1259717166666672,
            58.638634199999991
          ],
          [
            -3.1225866333333325,
            58.638550000000002
          ],
          [
            -3.1190350333333341,
            58.638444183333334
          ],
          [
            -3.1158373999999998,
            58.638759416666666
          ],
          [
            -3.1134548000000004,
            58.640095533333337
          ],
          [
            -3.1113289333333332,
            58.641339550000005
          ],
          [
            -3.10945005,
            58.642464933333329
          ],
          [
            -3.1078836166666668,
            58.643171083333328
          ],
          [
            -3.1054129333333331,
            58.642680416666657
          ],
          [
            -3.1029227333333331,
            58.641945516666667
          ],
          [
            -3.1002586000000001,
            58.641459550000008
          ],
          [
            -3.0971942500000003,
            58.641688583333341
          ],
          [
            -3.0938932499999998,
            58.641938299999993
          ],
          [
            -3.0907236166666667,
            58.642176683333339
          ],
          [
            -3.0878529166666673,
            58.642401283333328
          ],
          [
            -3.0852550333333331,
            58.642847683333336
          ],
          [
            -3.0826514666666669,
            58.642638366666674
          ],
          [
            -3.0797716666666668,
            58.641760516666665
          ],
          [
            -3.0770653500000003,
            58.640939933333321
          ],
          [
            -3.0745758000000003,
            58.640189366666668
          ],
          [
            -3.0722971333333331,
            58.639516299999997
          ],
          [
            -3.0705858475237702,
            58.638998984516341
          ],
          [
            -3.0689572666666662,
            58.638293583333336
          ],
          [
            -3.0689868666666662,
            58.637590766666669
          ],
          [
            -3.0690421666666672,
            58.636146966666672
          ],
          [
            -3.0691022000000006,
            58.634579716666664
          ],
          [
            -3.0691429499999998,
            58.633187033333328
          ],
          [
            -3.0696036333333332,
            58.631803883333333
          ],
          [
            -3.0704368833333331,
            58.630618599999991
          ],
          [
            -3.073329666666667,
            58.630148083333339
          ],
          [
            -3.0761247833333334,
            58.629544500000009
          ],
          [
            -3.0786446621809733,
            58.628710579453255
          ],
          [
            -3.0816234298799126,
            58.627713793452195
          ],
          [
            -3.084141031518981,
            58.626816857275195
          ],
          [
            -3.0858044666666662,
            58.625684199999995
          ],
          [
            -3.0862861166666669,
            58.624282350000009
          ],
          [
            -3.0856439666666668,
            58.622600033333342
          ],
          [
            -3.084782133333333,
            58.620842416666662
          ],
          [
            -3.0839383333333332,
            58.619074266666665
          ],
          [
            -3.0830381666666664,
            58.617505366666663
          ],
          [
            -3.0816612000000001,
            58.616111266666671
          ],
          [
            -3.080283356169101,
            58.614706232157396
          ],
          [
            -3.0790132255635552,
            58.613257460812314
          ],
          [
            -3.0783163291493447,
            58.611563416200447
          ],
          [
            -3.0785355833333332,
            58.60990176666666
          ],
          [
            -3.0807043666666667,
            58.608538850000002
          ],
          [
            -3.0831081833333331,
            58.607503700000009
          ],
          [
            -3.0860513666666662,
            58.606625799999996
          ],
          [
            -3.0882426000000001,
            58.605483500000005
          ],
          [
            -3.0884909999999999,
            58.603798133333335
          ],
          [
            -3.0881207666666666,
            58.601899749999994
          ],
          [
            -3.0880087833333336,
            58.599935299999999
          ],
          [
            -3.0879017500000003,
            58.598204233333341
          ],
          [
            -3.087473133333333,
            58.596304350000004
          ],
          [
            -3.0868858000000001,
            58.594598833333343
          ],
          [
            -3.0866436666666668,
            58.592763100000006
          ],
          [
            -3.0862053833333336,
            58.590985716666665
          ],
          [
            -3.0849778666666672,
            58.589159699999996
          ],
          [
            -3.0839337833333329,
            58.587502300000004
          ],
          [
            -3.0831489166666675,
            58.585854783333325
          ],
          [
            -3.0819872333333338,
            58.584192433333328
          ],
          [
            -3.079731433333333,
            58.582823899999994
          ],
          [
            -3.0773572499999999,
            58.581457933333326
          ],
          [
            -3.0756320833333328,
            58.579857583333329
          ],
          [
            -3.0742075166666667,
            58.578324900000005
          ],
          [
            -3.0729391666666666,
            58.57684411666667
          ],
          [
            -3.0724110833333338,
            58.575117249999991
          ],
          [
            -3.0723851,
            58.573617033333328
          ],
          [
            -3.0743028499999996,
            58.572290733333332
          ],
          [
            -3.0764209500000002,
            58.570894516666677
          ],
          [
            -3.0778543333333337,
            58.569283866666666
          ],
          [
            -3.079415,
            58.567522300000007
          ],
          [
            -3.0810386000000003,
            58.565649783333342
          ],
          [
            -3.0825281833333329,
            58.563931233333342
          ],
          [
            -3.0839711333333333,
            58.562265099999998
          ],
          [
            -3.0853424999999994,
            58.560698366666671
          ],
          [
            -3.086315583333334,
            58.559195083333336
          ],
          [
            -3.086523066666667,
            58.557795849999998
          ],
          [
            -3.0873796166666665,
            58.556281099999993
          ],
          [
            -3.0878443500000001,
            58.555590699999996
          ],
          [
            -3.0883427000000006,
            58.554775233333338
          ],
          [
            -3.0893760833333337,
            58.553068349999997
          ],
          [
            -3.0904258333333332,
            58.551526333333335
          ],
          [
            -3.0914590500000001,
            58.55001455
          ],
          [
            -3.0918586833333337,
            58.548510083333333
          ],
          [
            -3.0919573000000007,
            58.547192200000005
          ],
          [
            -3.0934688152992003,
            58.546245306977234
          ],
          [
            -3.0957632154889252,
            58.545347254041289
          ],
          [
            -3.0982307622762506,
            58.54451468388752
          ],
          [
            -3.1012163285491567,
            58.543928646566926
          ],
          [
            -3.1042100938971626,
            58.543418743564729
          ],
          [
            -3.1069853575569235,
            58.542889424655577
          ],
          [
            -3.1095587001344556,
            58.541707445196465
          ],
          [
            -3.1118950002304318,
            58.54046921374286
          ],
          [
            -3.1142143958050639,
            58.539257185717304
          ],
          [
            -3.1164249621143796,
            58.538091612534686
          ],
          [
            -3.1184335969179804,
            58.537039998941829
          ],
          [
            -3.1204277833333331,
            58.53598903333333
          ],
          [
            -3.1218714500000004,
            58.535242783333331
          ],
          [
            -3.1231163833333331,
            58.534584466666672
          ],
          [
            -3.1243653562721438,
            58.533915974420559
          ],
          [
            -3.1256777005574787,
            58.533223172492363
          ],
          [
            -3.1276288597335187,
            58.532202376100223
          ],
          [
            -3.1294146277616921,
            58.531263527767067
          ],
          [
            -3.1311092047508309,
            58.530368318364935
          ],
          [
            -3.1331530187784495,
            58.529293971424273
          ],
          [
            -3.1351627833333331,
            58.528214683333331
          ],
          [
            -3.1370012503251301,
            58.527024787375453
          ],
          [
            -3.1382064484506405,
            58.525693717179649
          ],
          [
            -3.1395462488332524,
            58.524130050580062
          ],
          [
            -3.1406306166666669,
            58.522294416666668
          ],
          [
            -3.1416298333333335,
            58.520561583333325
          ],
          [
            -3.1426009666666666,
            58.518909666666666
          ],
          [
            -3.1435251558217443,
            58.517445693348343
          ],
          [
            -3.1443988999999997,
            58.516091766666655
          ],
          [
            -3.1455395166666666,
            58.514589350000008
          ],
          [
            -3.1464980407343242,
            58.513424884120617
          ],
          [
            -3.1477026000000001,
            58.511923300000007
          ],
          [
            -3.1499845500000001,
            58.510655333333332
          ],
          [
            -3.1522547500000004,
            58.509157166666668
          ],
          [
            -3.1529480833333339,
            58.507186783333324
          ],
          [
            -3.1522241833333329,
            58.505446066666678
          ],
          [
            -3.1513907499999996,
            58.503734850000008
          ],
          [
            -3.1504954333333335,
            58.501898783333338
          ],
          [
            -3.1495849333333332,
            58.500036366666677
          ],
          [
            -3.1486577166666665,
            58.498145833333339
          ],
          [
            -3.1477578666666668,
            58.496300166666664
          ],
          [
            -3.1468734666666669,
            58.494518233333338
          ],
          [
            -3.1460118500000003,
            58.492770699999994
          ],
          [
            -3.1450611666666668,
            58.490856899999997
          ],
          [
            -3.1442017666666668,
            58.489129466666661
          ],
          [
            -3.1433066333333328,
            58.48730186666667
          ],
          [
            -3.1425292333333337,
            58.485719500000002
          ],
          [
            -3.1417257333333328,
            58.484095250000003
          ],
          [
            -3.1408938833333337,
            58.482398700000012
          ],
          [
            -3.1409585666666664,
            58.480729900000007
          ],
          [
            -3.1421704333333338,
            58.479189266666658
          ],
          [
            -3.1430209166666665,
            58.478240033333336
          ],
          [
            -3.1438019666666661,
            58.477095716666661
          ],
          [
            -3.1431800166666668,
            58.4755027
          ],
          [
            -3.1405547999999999,
            58.474489283333334
          ],
          [
            -3.1379675333333332,
            58.473497583333334
          ],
          [
            -3.1353750999999996,
            58.472505849999997
          ],
          [
            -3.1327282666666676,
            58.47149018333333
          ],
          [
            -3.1301860833333337,
            58.470513033333326
          ],
          [
            -3.1278243666666672,
            58.469566716666669
          ],
          [
            -3.1257354666666668,
            58.468245366666665
          ],
          [
            -3.1234442000000002,
            58.466722166666656
          ],
          [
            -3.1210859666666662,
            58.465148766666665
          ],
          [
            -3.1190071999999995,
            58.463760616666661
          ],
          [
            -3.1169517000000004,
            58.462390500000005
          ],
          [
            -3.1149479500000004,
            58.461061950000001
          ],
          [
            -3.1131304499999999,
            58.459850000000003
          ],
          [
            -3.1110614333333331,
            58.458461633333336
          ],
          [
            -3.1091444500000005,
            58.457181416666664
          ],
          [
            -3.1072042,
            58.455989399999993
          ],
          [
            -3.1053536666666663,
            58.454862249999998
          ],
          [
            -3.1034470000000001,
            58.45370173333334
          ],
          [
            -3.1017321999999998,
            58.452662733333341
          ],
          [
            -3.1000673333333331,
            58.451647733333324
          ],
          [
            -3.0985092333333331,
            58.450693066666659
          ],
          [
            -3.0970997499999999,
            58.449835633333336
          ],
          [
            -3.0955590349232112,
            58.443173693033479
          ],
          [
            -3.0937122666666665,
            58.435222249999995
          ],
          [
            -3.0940476333333331,
            58.434299300000006
          ],
          [
            -3.0944964166666664,
            58.433405733333331
          ],
          [
            -3.0950005833333338,
            58.432383600000009
          ],
          [
            -3.0955672500000002,
            58.431262000000004
          ],
          [
            -3.0957803000000004,
            58.43005329999999
          ],
          [
            -3.0961297000000001,
            58.42891685
          ],
          [
            -3.0965151530535167,
            58.428028993044805
          ],
          [
            -3.0948517430353255,
            58.427766898151013
          ],
          [
            -3.0930921929749218,
            58.427977897508576
          ],
          [
            -3.0914909567230162,
            58.427546869209081
          ],
          [
            -3.0899608240151264,
            58.427139076707334
          ],
          [
            -3.0884238917072508,
            58.426717010932528
          ],
          [
            -3.0868533880445557,
            58.426310848132466
          ],
          [
            -3.0853056756446864,
            58.425918255731631
          ],
          [
            -3.083790266666667,
            58.425479349999989
          ],
          [
            -3.0815598343325141,
            58.423954644774916
          ]
        ]
      }
    }
  ],
  "type" : "FeatureCollection"
}