{
  "type" : "FeatureCollection",
  "features" : [
    {
      "type" : "Feature",
      "geometry" : {
        "type" : "Point",
        "coordinates" : [
          -6.245674520034,
          56.289878201449639
        ]
      },
      "properties" : {
        "timestamp" : "2026-05-20T20:39:34Z",
        "departure" : "2026-05-21T10:31:31Z",
        "type" : "visit",
        "source" : "Geory 5.3.2",
        "rating" : 0,
        "device" : "B9E47AEB-E54C-4563-96B6-06995DD4BC56 (iPhone 16 Pro)",
        "weather" : "Klarer Himmel (11,0 °C)",
        "address" : "Isle Of Mull, PA67, Schottland",
        "duration" : 49917.296480178833,
        "arrival" : "2026-05-20T20:39:34Z"
      }
    },
    {
      "geometry" : {
        "type" : "Point",
        "coordinates" : [
          -6.3655816039595656,
          56.306673121485922
        ]
      },
      "properties" : {
        "arrival" : "2026-05-21T11:03:04Z",
        "weather" : "Bedeckter Himmel (14,2 °C)",
        "address" : "Isle Of Mull, PA66, Schottland",
        "rating" : 0,
        "departure" : "2026-05-21T12:39:24Z",
        "device" : "B9E47AEB-E54C-4563-96B6-06995DD4BC56 (iPhone 16 Pro)",
        "source" : "Geory 5.3.2",
        "duration" : 5780.6985039710999,
        "timestamp" : "2026-05-21T11:03:04Z",
        "type" : "visit"
      },
      "type" : "Feature"
    },
    {
      "type" : "Feature",
      "properties" : {
        "device" : "B9E47AEB-E54C-4563-96B6-06995DD4BC56 (iPhone 16 Pro)",
        "timestamp" : "2026-05-21T13:51:50Z",
        "address" : "Isle Of Mull, PA66, Schottland",
        "type" : "visit",
        "duration" : 2308.7748651504517,
        "weather" : "Bedeckter Himmel (15,2 °C)",
        "arrival" : "2026-05-21T13:51:50Z",
        "rating" : 0,
        "departure" : "2026-05-21T14:30:19Z",
        "source" : "Geory 5.3.2"
      },
      "geometry" : {
        "type" : "Point",
        "coordinates" : [
          -6.369140271893138,
          56.3253117247842
        ]
      }
    },
    {
      "geometry" : {
        "coordinates" : [
          -6.3661079537214667,
          56.306370479252379
        ],
        "type" : "Point"
      },
      "type" : "Feature",
      "properties" : {
        "departure" : "2026-05-22T10:31:52Z",
        "address" : "Isle Of Mull, PA66, Schottland",
        "type" : "visit",
        "device" : "B9E47AEB-E54C-4563-96B6-06995DD4BC56 (iPhone 16 Pro)",
        "arrival" : "2026-05-21T15:20:49Z",
        "source" : "Geory 5.3.2",
        "timestamp" : "2026-05-21T15:20:49Z",
        "weather" : "Bedeckter Himmel (13,8 °C)",
        "duration" : 69063.000069618225,
        "rating" : 0
      }
    },
    {
      "geometry" : {
        "coordinates" : [
          [
            -6.3661079537214667,
            56.306370479252379
          ],
          [
            -6.3673394821377478,
            56.305411654542489
          ],
          [
            -6.3679671298813965,
            56.305142583274275
          ],
          [
            -6.365321540751717,
            56.306536830885129
          ],
          [
            -6.3642386566013931,
            56.307236438130538
          ],
          [
            -6.3632840854177379,
            56.307999476090806
          ],
          [
            -6.3637304200070997,
            56.308867034683438
          ],
          [
            -6.3645073440562516,
            56.309693348535987
          ],
          [
            -6.3645859279793306,
            56.310624584672837
          ],
          [
            -6.3644033951373764,
            56.311555523338292
          ],
          [
            -6.3648097820067857,
            56.312468299378246
          ],
          [
            -6.3646468487758918,
            56.313392632398703
          ],
          [
            -6.3643078071144261,
            56.314301896628059
          ],
          [
            -6.3651650837326823,
            56.315106993580734
          ],
          [
            -6.3660756242826126,
            56.315882900064331
          ],
          [
            -6.3668095069870141,
            56.316709523417927
          ],
          [
            -6.3675424681662651,
            56.317548853806855
          ],
          [
            -6.3680041455403229,
            56.318456779269233
          ],
          [
            -6.3684729649358793,
            56.319333761456178
          ],
          [
            -6.368732771257787,
            56.320226231652271
          ],
          [
            -6.3680176717551111,
            56.321074575775938
          ],
          [
            -6.3669583472588211,
            56.322393370309328
          ],
          [
            -6.3660838422250619,
            56.325151595005828
          ],
          [
            -6.369140271893138,
            56.3253117247842
          ],
          [
            -6.3653623910822024,
            56.324996574659117
          ],
          [
            -6.3637553403301679,
            56.324861848858184
          ],
          [
            -6.3621329147286998,
            56.324712992071667
          ],
          [
            -6.3606623595847891,
            56.324266807140141
          ],
          [
            -6.3591564885224834,
            56.323921315511548
          ],
          [
            -6.35753425551178,
            56.323730046516019
          ],
          [
            -6.3559139628482768,
            56.323779805815519
          ],
          [
            -6.3542145758052078,
            56.323819852602348
          ],
          [
            -6.3525671161016684,
            56.323640052692632
          ],
          [
            -6.350554921625176,
            56.323525948013
          ],
          [
            -6.3494652230834028,
            56.323939818907306
          ],
          [
            -6.3492092178820414,
            56.324837936952363
          ],
          [
            -6.3475969261720051,
            56.325011800522184
          ],
          [
            -6.345921373922689,
            56.325022392835649
          ],
          [
            -6.3442810949744617,
            56.324921976382385
          ],
          [
            -6.3426463959732367,
            56.324934415804321
          ],
          [
            -6.342644028340592,
            56.324934434773326
          ],
          [
            -6.341773433369581,
            56.32493417921556
          ],
          [
            -6.3406788263230913,
            56.324937657553399
          ],
          [
            -6.3396224925841524,
            56.325649012985473
          ],
          [
            -6.3396108076395414,
            56.326559105788377
          ],
          [
            -6.3396954698480119,
            56.327479250148308
          ],
          [
            -6.3406259736832737,
            56.328227218862949
          ],
          [
            -6.3418337787660635,
            56.328827022129481
          ],
          [
            -6.3430829532351902,
            56.329415163103725
          ],
          [
            -6.3443766691194572,
            56.329964865454258
          ],
          [
            -6.3456928940975521,
            56.33049596306536
          ],
          [
            -6.3468391655537664,
            56.331195570179716
          ],
          [
            -6.3478679291528453,
            56.331894437126032
          ],
          [
            -6.3486650162386251,
            56.332720365207336
          ],
          [
            -6.3493308624926907,
            56.333585906668453
          ],
          [
            -6.3499880029573434,
            56.334441911716844
          ],
          [
            -6.3506145484620484,
            56.335273371339767
          ],
          [
            -6.3513850502968214,
            56.336109785816127
          ],
          [
            -6.3526578137117182,
            56.336735566936206
          ],
          [
            -6.353809320127267,
            56.337399315695549
          ],
          [
            -6.3547933714793583,
            56.338126091158763
          ],
          [
            -6.3557593037947271,
            56.338872023071303
          ],
          [
            -6.3545571887384229,
            56.339628955800507
          ],
          [
            -6.3534193857934502,
            56.339514296010961
          ],
          [
            -6.3517844185248951,
            56.339503951968389
          ],
          [
            -6.3504017244791751,
            56.339983563959066
          ],
          [
            -6.3496489343910349,
            56.340797571305629
          ],
          [
            -6.3492642688772198,
            56.342234913267319
          ],
          [
            -6.3485536281550115,
            56.343679719878878
          ],
          [
            -6.3489926892476056,
            56.342801074353766
          ],
          [
            -6.3493397672174776,
            56.341914046638642
          ],
          [
            -6.3496403340140048,
            56.341017639495163
          ],
          [
            -6.3499432214884015,
            56.340087817072316
          ],
          [
            -6.3513980471567457,
            56.339625299552708
          ],
          [
            -6.3530220947818341,
            56.339500676227871
          ],
          [
            -6.3546590691317908,
            56.339636816222317
          ],
          [
            -6.3562944903848599,
            56.33967322907769
          ],
          [
            -6.3556902806953239,
            56.338824840354718
          ],
          [
            -6.3547464589251854,
            56.338067581215356
          ],
          [
            -6.3537294499456944,
            56.337344136698455
          ],
          [
            -6.3525771906752055,
            56.33668129735954
          ],
          [
            -6.3513240242620803,
            56.336082195874468
          ],
          [
            -6.3505822461232171,
            56.335268688152759
          ],
          [
            -6.3499394160196623,
            56.334403665420851
          ],
          [
            -6.349302068993623,
            56.333563752530395
          ],
          [
            -6.3486622573310241,
            56.332737928616382
          ],
          [
            -6.3478615589640874,
            56.331902196109617
          ],
          [
            -6.3468178854684414,
            56.331181838737081
          ],
          [
            -6.3457184698514277,
            56.330517020707951
          ],
          [
            -6.3444045748981548,
            56.329969240606289
          ],
          [
            -6.3431203747959977,
            56.329384887323961
          ],
          [
            -6.3418477080090332,
            56.32878218481995
          ],
          [
            -6.3402104194150146,
            56.328785083637477
          ],
          [
            -6.3400415118444631,
            56.32788170645064
          ],
          [
            -6.3400415118444631,
            56.32788170645064
          ],
          [
            -6.3396274914782325,
            56.327007388940665
          ],
          [
            -6.3396257197123598,
            56.326090663000549
          ],
          [
            -6.339270218326563,
            56.325194264093028
          ],
          [
            -6.3402961297213292,
            56.324477042595731
          ],
          [
            -6.3419190834571015,
            56.324689626597269
          ],
          [
            -6.344690243091784,
            56.324909178645541
          ],
          [
            -6.3460868074425498,
            56.325007594354993
          ],
          [
            -6.3470734731345582,
            56.325000922926982
          ],
          [
            -6.3484955459420167,
            56.324523016082274
          ],
          [
            -6.3495463061284827,
            56.323823948520435
          ],
          [
            -6.3510729343057912,
            56.323523171399309
          ],
          [
            -6.3526713097128535,
            56.323665938587531
          ],
          [
            -6.3543557369846013,
            56.323812503328796
          ],
          [
            -6.3559981732258057,
            56.323779869344392
          ],
          [
            -6.3576926993930307,
            56.323706520513227
          ],
          [
            -6.3592966782384872,
            56.323905189868739
          ],
          [
            -6.3606681108597067,
            56.324400071310286
          ],
          [
            -6.3621955349898318,
            56.324730001629639
          ],
          [
            -6.3638505915275285,
            56.324868333265755
          ],
          [
            -6.3655017655283679,
            56.324189663073305
          ],
          [
            -6.365888052008545,
            56.323612123247237
          ],
          [
            -6.3665837133319965,
            56.322791854383858
          ],
          [
            -6.367338863171196,
            56.321979403129475
          ],
          [
            -6.3680294968761819,
            56.321134293615138
          ],
          [
            -6.3687513479308908,
            56.320327474725808
          ],
          [
            -6.3685009291700805,
            56.319400476780089
          ],
          [
            -6.368080743840201,
            56.318524610451142
          ],
          [
            -6.367589340367334,
            56.317634138980097
          ],
          [
            -6.3668970717129856,
            56.316816804395501
          ],
          [
            -6.3661644098347425,
            56.315990327199998
          ],
          [
            -6.3654081057770728,
            56.315192771430091
          ],
          [
            -6.3642682666347454,
            56.314542097555936
          ],
          [
            -6.3645831924274674,
            56.313651601219064
          ],
          [
            -6.3649569270919777,
            56.312735912236093
          ],
          [
            -6.3645569860913396,
            56.311865560792313
          ],
          [
            -6.3642364403942571,
            56.310936816150615
          ],
          [
            -6.3644106793392083,
            56.309572077070754
          ],
          [
            -6.3655816039595656,
            56.306673121485922
          ],
          [
            -6.3633918666666656,
            56.308619016666668
          ],
          [
            -6.3642734499999998,
            56.309458899999996
          ],
          [
            -6.3646997000000001,
            56.310274233333331
          ],
          [
            -6.364150200000001,
            56.311126416666667
          ],
          [
            -6.3645507666666674,
            56.312042566666669
          ],
          [
            -6.3649314000000006,
            56.312929116666659
          ],
          [
            -6.3643519500000005,
            56.313828399999991
          ],
          [
            -6.3642942500000004,
            56.314790766666661
          ],
          [
            -6.3656961666666669,
            56.315600250000003
          ],
          [
            -6.3666216166666665,
            56.316632416666664
          ],
          [
            -6.3675049166666664,
            56.317647116666663
          ],
          [
            -6.368111933333334,
            56.318749949999997
          ],
          [
            -6.3685320833333341,
            56.319641249999997
          ],
          [
            -6.3685231333333334,
            56.320558100000007
          ],
          [
            -6.3676695499999996,
            56.321423533333338
          ],
          [
            -6.3668944666666683,
            56.32236601666667
          ],
          [
            -6.3659770697329314,
            56.323197397803519
          ],
          [
            -6.3654998942194387,
            56.324104955113732
          ],
          [
            -6.3646467333333323,
            56.324877566666657
          ],
          [
            -6.3629817000000006,
            56.324775933333328
          ],
          [
            -6.3613761333333319,
            56.324514800000003
          ],
          [
            -6.3597108500000017,
            56.324107633333341
          ],
          [
            -6.3577114333333329,
            56.323814633333328
          ],
          [
            -6.3555680666666658,
            56.32384793333334
          ],
          [
            -6.3537943333333331,
            56.324116833333328
          ],
          [
            -6.352144,
            56.324430283333335
          ],
          [
            -6.3505039166666659,
            56.324751200000001
          ],
          [
            -6.3487718409829652,
            56.324980989826344
          ],
          [
            -6.346916837051551,
            56.325116394341322
          ],
          [
            -6.3447374993010772,
            56.32501226608143
          ],
          [
            -6.3423453333333324,
            56.325042733333341
          ],
          [
            -6.3400123941302997,
            56.325036676924846
          ],
          [
            -6.3379181999999998,
            56.325023850000001
          ],
          [
            -6.3356849132477349,
            56.32482633048204
          ],
          [
            -6.3332930166666666,
            56.324703749999998
          ],
          [
            -6.3309746999999996,
            56.324423300000007
          ],
          [
            -6.3289921166666661,
            56.324166849999997
          ],
          [
            -6.3272585666666661,
            56.324021733333332
          ],
          [
            -6.3252348209235585,
            56.324463453332335
          ],
          [
            -6.3231671666666669,
            56.324772166666662
          ],
          [
            -6.320887683333333,
            56.324747683333335
          ],
          [
            -6.3190606166666665,
            56.324711233333332
          ],
          [
            -6.3173483333333325,
            56.324679416666669
          ],
          [
            -6.3148335333333323,
            56.324633399999996
          ],
          [
            -6.3123393833333337,
            56.324582216666677
          ],
          [
            -6.3103288833333337,
            56.324545900000004
          ],
          [
            -6.3085617159269338,
            56.324603395608754
          ],
          [
            -6.3067415194205445,
            56.324718335081251
          ],
          [
            -6.3046656248236106,
            56.324772387388911
          ],
          [
            -6.3030508227714144,
            56.324639428812972
          ],
          [
            -6.301027785993087,
            56.324406354384358
          ],
          [
            -6.298616450491787,
            56.324125369960129
          ],
          [
            -6.297058166666667,
            56.323970783333337
          ],
          [
            -6.2949827833333334,
            56.323559883333338
          ],
          [
            -6.292927763432516,
            56.322976810451948
          ],
          [
            -6.2906923354741044,
            56.32231790394232
          ],
          [
            -6.2887260333333348,
            56.321556666666659
          ],
          [
            -6.2868176219827756,
            56.320784079199505
          ],
          [
            -6.2848183311425529,
            56.320387650573572
          ],
          [
            -6.2827563330779865,
            56.319951141504426
          ],
          [
            -6.2809057529211385,
            56.319491918702937
          ],
          [
            -6.2785812445463156,
            56.319056265935224
          ],
          [
            -6.2765057523121914,
            56.318648423449162
          ],
          [
            -6.2747837666666673,
            56.318233700000008
          ],
          [
            -6.2729849,
            56.317666950000003
          ],
          [
            -6.2710430333333322,
            56.317169733333337
          ],
          [
            -6.2689383589472474,
            56.317039982839802
          ],
          [
            -6.2669361749194783,
            56.317157770947091
          ],
          [
            -6.2649253502774149,
            56.31727202372921
          ],
          [
            -6.263078779938045,
            56.317268108818801
          ],
          [
            -6.261428620910773,
            56.316977855893072
          ],
          [
            -6.2593830830930077,
            56.316598666676676
          ],
          [
            -6.2574372593678582,
            56.316129985586279
          ],
          [
            -6.2560550166666662,
            56.315285416666669
          ],
          [
            -6.2550222499999997,
            56.314392349999999
          ],
          [
            -6.253563834011592,
            56.313941763383362
          ],
          [
            -6.2518751000000004,
            56.313695866666663
          ],
          [
            -6.2501285926866936,
            56.313639373563049
          ],
          [
            -6.2485187266587445,
            56.313405652131927
          ],
          [
            -6.2470758680483609,
            56.312838319395993
          ],
          [
            -6.2455209666666676,
            56.312354583333338
          ],
          [
            -6.2457233333333324,
            56.311395949999998
          ],
          [
            -6.2456684671947835,
            56.310442653968714
          ],
          [
            -6.2456022500000001,
            56.30953516666667
          ],
          [
            -6.2455466368132209,
            56.308632470598326
          ],
          [
            -6.245269920116419,
            56.307702864051215
          ],
          [
            -6.245766189212369,
            56.306786437572413
          ],
          [
            -6.2470394307779964,
            56.306155758649254
          ],
          [
            -6.2474963666666667,
            56.305205633333323
          ],
          [
            -6.2479401333333326,
            56.304252966666674
          ],
          [
            -6.2475782985625266,
            56.303223203139652
          ],
          [
            -6.2469312778546531,
            56.302256463760067
          ],
          [
            -6.2463546666666669,
            56.301417233333325
          ],
          [
            -6.2458632000000005,
            56.300528966666661
          ],
          [
            -6.2445135475203637,
            56.299692857819693
          ],
          [
            -6.2432473555464822,
            56.298987545019685
          ],
          [
            -6.2420501316321992,
            56.298324485728756
          ],
          [
            -6.2408963991973163,
            56.297695098703116
          ],
          [
            -6.2406821816480198,
            56.296749761714153
          ],
          [
            -6.2419769471671582,
            56.296122325163424
          ],
          [
            -6.243313804925668,
            56.295472311120378
          ],
          [
            -6.243313804925668,
            56.295472311120378
          ],
          [
            -6.2445618262088152,
            56.294860210226915
          ],
          [
            -6.2458003533593258,
            56.294273959396627
          ],
          [
            -6.2470723885457007,
            56.293662806835421
          ],
          [
            -6.2486200499999995,
            56.293394383333329
          ],
          [
            -6.2489014666666662,
            56.292470616666662
          ],
          [
            -6.2478215999999991,
            56.291238549999996
          ],
          [
            -6.245674520034,
            56.289878201449639
          ]
        ],
        "type" : "LineString"
      },
      "properties" : {
        "start" : "2026-05-20T22:00:00Z",
        "device" : "B9E47AEB-E54C-4563-96B6-06995DD4BC56 (iPhone 16 Pro)",
        "type" : "route",
        "end" : "2026-05-21T21:59:59Z",
        "source" : "Geory 5.3.2"
      },
      "type" : "Feature"
    }
  ]
}