{
  "type" : "FeatureCollection",
  "features" : [
    {
      "properties" : {
        "arrival" : "2026-05-02T19:02:07Z",
        "address" : "Kill, County Donegal, Irland",
        "type" : "visit",
        "rating" : 0,
        "departure" : "2026-05-03T08:41:16Z",
        "source" : "Geory 5.3.2",
        "duration" : 49148.475476980209,
        "device" : "B9E47AEB-E54C-4563-96B6-06995DD4BC56 (iPhone 16 Pro)",
        "weather" : "Bedeckter Himmel (11,0 °C)",
        "timestamp" : "2026-05-02T19:02:07Z"
      },
      "type" : "Feature",
      "geometry" : {
        "type" : "Point",
        "coordinates" : [
          -7.956365436812816,
          55.186243337080342
        ]
      }
    },
    {
      "type" : "Feature",
      "properties" : {
        "weather" : "Bedeckter Himmel (10,9 °C)",
        "timestamp" : "2026-05-03T08:42:59Z",
        "duration" : 10438.690769672394,
        "rating" : 0,
        "device" : "B9E47AEB-E54C-4563-96B6-06995DD4BC56 (iPhone 16 Pro)",
        "source" : "Geory 5.3.2",
        "address" : "Kill, Dunfanaghy, County Donegal, F92 V3H6, Irland",
        "arrival" : "2026-05-03T08:42:59Z",
        "type" : "visit",
        "departure" : "2026-05-03T11:36:58Z"
      },
      "geometry" : {
        "coordinates" : [
          -7.9654484666236565,
          55.182515279304177
        ],
        "type" : "Point"
      }
    },
    {
      "properties" : {
        "type" : "visit",
        "departure" : "2026-05-03T13:14:10Z",
        "timestamp" : "2026-05-03T12:41:27Z",
        "duration" : 1963.3851957321167,
        "weather" : "Bedeckter Himmel (13,0 °C)",
        "source" : "Geory 5.3.2",
        "arrival" : "2026-05-03T12:41:27Z",
        "address" : "Kill, Dunfanaghy, County Donegal, F92 K8H4, Irland",
        "rating" : 0,
        "device" : "B9E47AEB-E54C-4563-96B6-06995DD4BC56 (iPhone 16 Pro)"
      },
      "type" : "Feature",
      "geometry" : {
        "coordinates" : [
          -7.9663404424284012,
          55.183003907892129
        ],
        "type" : "Point"
      }
    },
    {
      "type" : "Feature",
      "properties" : {
        "type" : "visit",
        "duration" : 6822.6550140380859,
        "arrival" : "2026-05-03T13:14:11Z",
        "timestamp" : "2026-05-03T13:14:11Z",
        "weather" : "Bedeckter Himmel (12,9 °C)",
        "rating" : 0,
        "source" : "Geory 5.3.2",
        "address" : "Market House, Market Sq, Main Street, Dunfanaghy, County Donegal, F92 RK59, Irland",
        "departure" : "2026-05-03T15:07:54Z",
        "device" : "B9E47AEB-E54C-4563-96B6-06995DD4BC56 (iPhone 16 Pro)"
      },
      "geometry" : {
        "type" : "Point",
        "coordinates" : [
          -7.9718225532540083,
          55.183339022872545
        ]
      }
    },
    {
      "geometry" : {
        "type" : "Point",
        "coordinates" : [
          -7.9659277619099846,
          55.182407377415792
        ]
      },
      "properties" : {
        "arrival" : "2026-05-03T15:07:55Z",
        "duration" : 10068.581867218018,
        "type" : "visit",
        "device" : "B9E47AEB-E54C-4563-96B6-06995DD4BC56 (iPhone 16 Pro)",
        "weather" : "Überwiegend bewölkt (13,9 °C)",
        "departure" : "2026-05-03T17:55:44Z",
        "timestamp" : "2026-05-03T15:07:55Z",
        "source" : "Geory 5.3.2",
        "address" : "Kill, Dunfanaghy, County Donegal, F92 PT1W, Irland",
        "rating" : 0
      },
      "type" : "Feature"
    },
    {
      "type" : "Feature",
      "properties" : {
        "device" : "B9E47AEB-E54C-4563-96B6-06995DD4BC56 (iPhone 16 Pro)",
        "type" : "visit",
        "departure" : "2026-05-03T18:32:06Z",
        "timestamp" : "2026-05-03T18:08:22Z",
        "address" : "3 Kill, Dunfanaghy, County Donegal, F92 DD82, Irland",
        "arrival" : "2026-05-03T18:08:22Z",
        "weather" : "Überwiegend bewölkt (10,9 °C)",
        "rating" : 0,
        "duration" : 1423.9997518062592,
        "source" : "Geory 5.3.2"
      },
      "geometry" : {
        "coordinates" : [
          -7.9657427390863385,
          55.183227666390856
        ],
        "type" : "Point"
      }
    },
    {
      "properties" : {
        "address" : "Main Street, Dunfanaghy, County Donegal, F92 AK7V, Irland",
        "weather" : "Bedeckter Himmel (10,9 °C)",
        "rating" : 0,
        "timestamp" : "2026-05-03T18:32:07Z",
        "duration" : 4781.0008568763733,
        "arrival" : "2026-05-03T18:32:07Z",
        "departure" : "2026-05-03T19:51:48Z",
        "source" : "Geory 5.3.2",
        "type" : "visit",
        "device" : "B9E47AEB-E54C-4563-96B6-06995DD4BC56 (iPhone 16 Pro)"
      },
      "geometry" : {
        "type" : "Point",
        "coordinates" : [
          -7.9726688573984781,
          55.183304601631164
        ]
      },
      "type" : "Feature"
    },
    {
      "properties" : {
        "departure" : "2026-05-04T16:07:50Z",
        "rating" : 0,
        "type" : "visit",
        "arrival" : "2026-05-03T19:55:43Z",
        "timestamp" : "2026-05-03T19:55:43Z",
        "device" : "B9E47AEB-E54C-4563-96B6-06995DD4BC56 (iPhone 16 Pro)",
        "source" : "Geory 5.3.2",
        "address" : "Kill, Dunfanaghy, County Donegal, F92 PT1W, Irland",
        "duration" : 72727.00039434433,
        "weather" : "Bedeckter Himmel (9,5 °C)"
      },
      "type" : "Feature",
      "geometry" : {
        "coordinates" : [
          -7.9659426784655807,
          55.182304679353216
        ],
        "type" : "Point"
      }
    },
    {
      "geometry" : {
        "coordinates" : [
          -7.9660037674833166,
          55.182318153119148
        ],
        "type" : "Point"
      },
      "type" : "Feature",
      "properties" : {
        "weather" : "Bedeckter Himmel (11,3 °C)",
        "device" : "B9E47AEB-E54C-4563-96B6-06995DD4BC56 (iPhone 16 Pro)",
        "departure" : "2026-05-04T18:15:41Z",
        "address" : "Kill, Dunfanaghy, County Donegal, F92 PT1W, Irland",
        "duration" : 3930.0000586509705,
        "rating" : 0,
        "source" : "Geory 5.3.2",
        "timestamp" : "2026-05-04T17:10:11Z",
        "type" : "visit",
        "arrival" : "2026-05-04T17:10:11Z"
      }
    },
    {
      "geometry" : {
        "type" : "Point",
        "coordinates" : [
          -7.9659555597447618,
          55.182316581964272
        ]
      },
      "type" : "Feature",
      "properties" : {
        "departure" : "2026-05-05T09:44:35Z",
        "arrival" : "2026-05-04T18:24:49Z",
        "duration" : 55186.000154256821,
        "timestamp" : "2026-05-04T18:24:49Z",
        "rating" : 0,
        "address" : "Kill, Dunfanaghy, County Donegal, F92 PT1W, Irland",
        "device" : "B9E47AEB-E54C-4563-96B6-06995DD4BC56 (iPhone 16 Pro)",
        "weather" : "Bedeckter Himmel (9,9 °C)",
        "type" : "visit",
        "source" : "Geory 5.3.2"
      }
    },
    {
      "geometry" : {
        "type" : "LineString",
        "coordinates" : [
          [
            -7.9659555597447618,
            55.182316581964272
          ],
          [
            -7.9675789939098642,
            55.182994814952394
          ],
          [
            -7.9699013216742252,
            55.183393691391331
          ],
          [
            -7.9723833323672633,
            55.183536515120096
          ],
          [
            -7.9697242625028917,
            55.183525637045022
          ],
          [
            -7.9660037674833166,
            55.182318153119148
          ],
          [
            -7.9652307057486711,
            55.183065348073207
          ],
          [
            -7.965105932724863,
            55.183967635549926
          ],
          [
            -7.9642415529666355,
            55.184725933355985
          ],
          [
            -7.9629230504127699,
            55.185221973685984
          ],
          [
            -7.9615774330334768,
            55.185700135936337
          ],
          [
            -7.9604421510923844,
            55.186325275225123
          ],
          [
            -7.9593409792871084,
            55.186965680568669
          ],
          [
            -7.9568346621487729,
            55.188056507082443
          ],
          [
            -7.9543171889776767,
            55.187574330016652
          ],
          [
            -7.9534535707325924,
            55.186815882679134
          ],
          [
            -7.9526662490041247,
            55.186029108186347
          ],
          [
            -7.9517326770470218,
            55.185301068875553
          ],
          [
            -7.9508193711358288,
            55.18456291958698
          ],
          [
            -7.9498279526782989,
            55.183865451783625
          ],
          [
            -7.948791006534127,
            55.18318670706828
          ],
          [
            -7.9477363536734869,
            55.182518014419053
          ],
          [
            -7.9465749113066346,
            55.181911557076162
          ],
          [
            -7.9453003891475031,
            55.181364486455813
          ],
          [
            -7.9440151830088475,
            55.180846291348416
          ],
          [
            -7.945452561584367,
            55.181227825724655
          ],
          [
            -7.946731858844327,
            55.181749412039849
          ],
          [
            -7.9479091205280836,
            55.182344815722516
          ],
          [
            -7.9489413573728669,
            55.183041585408816
          ],
          [
            -7.9499069567620655,
            55.18375135655581
          ],
          [
            -7.9508302058376223,
            55.184496048395197
          ],
          [
            -7.951710069734256,
            55.185244422337213
          ],
          [
            -7.9525514686523291,
            55.18601373352454
          ],
          [
            -7.9533427548578146,
            55.186800393452202
          ],
          [
            -7.9542451399852503,
            55.187537894220448
          ],
          [
            -7.9555249685343661,
            55.188069640835806
          ],
          [
            -7.9571095743595537,
            55.188065986842936
          ],
          [
            -7.9585049233614535,
            55.187627874685887
          ],
          [
            -7.9597003268499895,
            55.18703000133155
          ],
          [
            -7.9608661893972394,
            55.186420118158452
          ],
          [
            -7.9620053298458622,
            55.185800101254713
          ],
          [
            -7.9631539947586667,
            55.185183238637151
          ],
          [
            -7.964430015373793,
            55.184656777722061
          ],
          [
            -7.9652818321797394,
            55.183901587066387
          ],
          [
            -7.9668116489473393,
            55.184114569023507
          ],
          [
            -7.9687036270492602,
            55.183308217775846
          ],
          [
            -7.9659426784655807,
            55.182304679353216
          ],
          [
            -7.9661467894600246,
            55.182680721577754
          ],
          [
            -7.9676609878019073,
            55.182997443759938
          ],
          [
            -7.9726688573984781,
            55.183304601631164
          ],
          [
            -7.9657427390863385,
            55.183227666390856
          ],
          [
            -7.9607320152879222,
            55.186340209007859
          ],
          [
            -7.959623647829086,
            55.186977268698783
          ],
          [
            -7.9585410600724833,
            55.18763583628354
          ],
          [
            -7.9596399220226868,
            55.186977818726895
          ],
          [
            -7.9607026591245509,
            55.186311149132443
          ],
          [
            -7.9618102474608641,
            55.185673446620783
          ],
          [
            -7.9631195969778616,
            55.185159350172952
          ],
          [
            -7.9659277619099846,
            55.182407377415792
          ],
          [
            -7.9718225532540083,
            55.183339022872545
          ],
          [
            -7.9663404424284012,
            55.183003907892129
          ],
          [
            -7.96443389941461,
            55.184660478017371
          ],
          [
            -7.9631023925076798,
            55.185431815523614
          ],
          [
            -7.9619641828525625,
            55.186017563022084
          ],
          [
            -7.9604522035366649,
            55.186589724293157
          ],
          [
            -7.9553925270193382,
            55.187739692355372
          ],
          [
            -7.9555138914448298,
            55.186711418785521
          ],
          [
            -7.9525806504579046,
            55.186254051521665
          ],
          [
            -7.9517799118987957,
            55.185509782391826
          ],
          [
            -7.9511283148270362,
            55.184620292560908
          ],
          [
            -7.948958393307116,
            55.183334838453405
          ],
          [
            -7.9474839633523873,
            55.182415965117492
          ],
          [
            -7.9468367038336201,
            55.182048937813676
          ],
          [
            -7.9427018313943334,
            55.181674511559159
          ],
          [
            -7.9436231436206555,
            55.181720022283152
          ],
          [
            -7.9443374965531133,
            55.181840636299142
          ],
          [
            -7.9464490179152039,
            55.182582941225249
          ],
          [
            -7.948075487716693,
            55.183491791999266
          ],
          [
            -7.9515418090116707,
            55.186876531525201
          ],
          [
            -7.9521266013744398,
            55.187435431822806
          ],
          [
            -7.9533032233588505,
            55.188103479830311
          ],
          [
            -7.9557997116658115,
            55.188287124640262
          ],
          [
            -7.9574735402966192,
            55.188359206894084
          ],
          [
            -7.9654484666236565,
            55.182515279304177
          ],
          [
            -7.9603107666666668,
            55.183361699999992
          ],
          [
            -7.9594541666666654,
            55.184129183333333
          ],
          [
            -7.9572414666666669,
            55.18554111666667
          ],
          [
            -7.956365436812816,
            55.186243337080342
          ]
        ]
      },
      "type" : "Feature",
      "properties" : {
        "start" : "2026-05-02T22:00:00Z",
        "end" : "2026-05-04T21:59:59Z",
        "device" : "B9E47AEB-E54C-4563-96B6-06995DD4BC56 (iPhone 16 Pro)",
        "type" : "route",
        "source" : "Geory 5.3.2"
      }
    }
  ]
}