{
  "features" : [
    {
      "properties" : {
        "rating" : 0,
        "type" : "visit",
        "source" : "Geory 5.3.2",
        "weather" : "Bedeckter Himmel (11,8 °C)",
        "timestamp" : "2026-05-23T20:27:17Z",
        "arrival" : "2026-05-23T20:27:17Z",
        "duration" : 50308.319937229156,
        "device" : "B9E47AEB-E54C-4563-96B6-06995DD4BC56 (iPhone 16 Pro)",
        "departure" : "2026-05-24T10:25:46Z",
        "address" : "Isle Of Mull, PA66, Schottland"
      },
      "type" : "Feature",
      "geometry" : {
        "coordinates" : [
          -6.3660741105890617,
          56.306364562103255
        ],
        "type" : "Point"
      }
    },
    {
      "properties" : {
        "timestamp" : "2026-05-24T11:18:03Z",
        "type" : "visit",
        "departure" : "2026-05-24T11:57:57Z",
        "source" : "Geory 5.3.2",
        "rating" : 0,
        "device" : "B9E47AEB-E54C-4563-96B6-06995DD4BC56 (iPhone 16 Pro)",
        "duration" : 2394.1696248054504,
        "address" : "Iona, Argyll and Bute, Schottland",
        "arrival" : "2026-05-24T11:18:03Z"
      },
      "geometry" : {
        "coordinates" : [
          -6.4207834786600575,
          56.328557563223448
        ],
        "type" : "Point"
      },
      "type" : "Feature"
    },
    {
      "type" : "Feature",
      "geometry" : {
        "type" : "Point",
        "coordinates" : [
          -6.4222758902976684,
          56.317718461076964
        ]
      },
      "properties" : {
        "arrival" : "2026-05-24T12:51:40Z",
        "rating" : 0,
        "address" : "Iona, Argyll and Bute, Schottland",
        "device" : "B9E47AEB-E54C-4563-96B6-06995DD4BC56 (iPhone 16 Pro)",
        "departure" : "2026-05-24T13:07:21Z",
        "source" : "Geory 5.3.2",
        "duration" : 941.28544545173645,
        "timestamp" : "2026-05-24T12:51:40Z",
        "type" : "visit"
      }
    },
    {
      "geometry" : {
        "type" : "Point",
        "coordinates" : [
          -6.3926651572429902,
          56.330557694976505
        ]
      },
      "properties" : {
        "device" : "B9E47AEB-E54C-4563-96B6-06995DD4BC56 (iPhone 16 Pro)",
        "timestamp" : "2026-05-24T13:31:07Z",
        "type" : "visit",
        "address" : "Iona, Argyll and Bute, Schottland",
        "duration" : 2577.0001208782196,
        "weather" : "Bedeckter Himmel (16,5 °C)",
        "arrival" : "2026-05-24T13:31:07Z",
        "rating" : 0,
        "departure" : "2026-05-24T14:14:04Z",
        "source" : "Geory 5.3.2"
      },
      "type" : "Feature"
    },
    {
      "properties" : {
        "type" : "visit",
        "timestamp" : "2026-05-24T14:14:05Z",
        "weather" : "Bedeckter Himmel (16,8 °C)",
        "address" : "Iona, Argyll and Bute, Schottland",
        "arrival" : "2026-05-24T14:14:05Z",
        "device" : "B9E47AEB-E54C-4563-96B6-06995DD4BC56 (iPhone 16 Pro)",
        "source" : "Geory 5.3.2",
        "departure" : "2026-05-24T15:38:42Z",
        "duration" : 5076.444703578949,
        "rating" : 0
      },
      "geometry" : {
        "type" : "Point",
        "coordinates" : [
          -6.3936264841789088,
          56.333440354892424
        ]
      },
      "type" : "Feature"
    },
    {
      "geometry" : {
        "type" : "Point",
        "coordinates" : [
          -6.3931556886276608,
          56.335043779689308
        ]
      },
      "properties" : {
        "device" : "B9E47AEB-E54C-4563-96B6-06995DD4BC56 (iPhone 16 Pro)",
        "type" : "visit",
        "departure" : "2026-05-24T15:58:06Z",
        "weather" : "Bedeckter Himmel (17,1 °C)",
        "source" : "Geory 5.3.2",
        "duration" : 1152.1085157394409,
        "address" : "Iona Abbey, Isle Of Iona, PA76 6SW, Schottland",
        "timestamp" : "2026-05-24T15:38:54Z",
        "arrival" : "2026-05-24T15:38:54Z",
        "rating" : 0
      },
      "type" : "Feature"
    },
    {
      "type" : "Feature",
      "geometry" : {
        "type" : "Point",
        "coordinates" : [
          -6.3919731497968808,
          56.330506825428948
        ]
      },
      "properties" : {
        "weather" : "Bedeckter Himmel (17,1 °C)",
        "device" : "B9E47AEB-E54C-4563-96B6-06995DD4BC56 (iPhone 16 Pro)",
        "departure" : "2026-05-24T16:19:59Z",
        "timestamp" : "2026-05-24T15:58:07Z",
        "source" : "Geory 5.3.2",
        "duration" : 1311.999347448349,
        "arrival" : "2026-05-24T15:58:07Z",
        "address" : "Iona, Argyll and Bute, Schottland",
        "rating" : 0,
        "type" : "visit"
      }
    },
    {
      "type" : "Feature",
      "properties" : {
        "timestamp" : "2026-05-24T16:38:22Z",
        "departure" : "2026-05-25T11:31:05Z",
        "duration" : 67962.000690460205,
        "type" : "visit",
        "address" : "Isle Of Mull, PA66, Schottland",
        "arrival" : "2026-05-24T16:38:22Z",
        "rating" : 0,
        "device" : "B9E47AEB-E54C-4563-96B6-06995DD4BC56 (iPhone 16 Pro)",
        "source" : "Geory 5.3.2",
        "weather" : "Bedeckter Himmel (13,5 °C)"
      },
      "geometry" : {
        "type" : "Point",
        "coordinates" : [
          -6.3660721065847987,
          56.306386215041471
        ]
      }
    },
    {
      "type" : "Feature",
      "geometry" : {
        "type" : "LineString",
        "coordinates" : [
          [
            -6.3660721065847987,
            56.306386215041471
          ],
          [
            -6.3643164982611253,
            56.307042560388872
          ],
          [
            -6.3634000523934109,
            56.308193282297992
          ],
          [
            -6.3635699168898672,
            56.308670224967287
          ],
          [
            -6.3643577992609668,
            56.309472854631892
          ],
          [
            -6.364713879330437,
            56.310394329167657
          ],
          [
            -6.3642845301633626,
            56.31130202490268
          ],
          [
            -6.3646799348956691,
            56.312174483617227
          ],
          [
            -6.3649334257449306,
            56.313091696666859
          ],
          [
            -6.3644465948455311,
            56.313955671901688
          ],
          [
            -6.3645875422091889,
            56.31486965855531
          ],
          [
            -6.3657482569772856,
            56.315535946549943
          ],
          [
            -6.3664942923419536,
            56.31636903931264
          ],
          [
            -6.36723757266188,
            56.317217233878885
          ],
          [
            -6.367846847535847,
            56.318101028911123
          ],
          [
            -6.3682930807868683,
            56.318996562816388
          ],
          [
            -6.3686257503216712,
            56.31990696451215
          ],
          [
            -6.368341582642616,
            56.320813371195257
          ],
          [
            -6.3675811470679875,
            56.321606013277702
          ],
          [
            -6.3668641987598509,
            56.322457766424272
          ],
          [
            -6.3656360068524505,
            56.325066423957828
          ],
          [
            -6.3673829084682723,
            56.325296282040362
          ],
          [
            -6.3690007890524933,
            56.325306711465934
          ],
          [
            -6.3707376979387185,
            56.326188421541538
          ],
          [
            -6.3715258269924622,
            56.326434761839025
          ],
          [
            -6.373170069686978,
            56.326375959854822
          ],
          [
            -6.3747768764700794,
            56.326231240707678
          ],
          [
            -6.376432489695218,
            56.32635490263938
          ],
          [
            -6.3780400104494293,
            56.32651874991155
          ],
          [
            -6.3796292273245534,
            56.326686016079471
          ],
          [
            -6.3812221399510216,
            56.326905071431419
          ],
          [
            -6.3827935687832538,
            56.327160507772881
          ],
          [
            -6.3842183337466656,
            56.327598752311076
          ],
          [
            -6.3855499182182331,
            56.328155961306535
          ],
          [
            -6.3855499182182331,
            56.328155961306535
          ],
          [
            -6.3867537488427963,
            56.328778038275154
          ],
          [
            -6.3888222271842139,
            56.330045221070115
          ],
          [
            -6.3919731497968808,
            56.330506825428948
          ],
          [
            -6.3931556886276608,
            56.335043779689308
          ],
          [
            -6.3936264841789088,
            56.333440354892424
          ],
          [
            -6.3926651572429902,
            56.330557694976505
          ],
          [
            -6.3943754161432311,
            56.328965756095322
          ],
          [
            -6.394402971691485,
            56.328057057125591
          ],
          [
            -6.3952333217488171,
            56.327277758308483
          ],
          [
            -6.3958416093168866,
            56.32642405971999
          ],
          [
            -6.3969385067474178,
            56.325750805157398
          ],
          [
            -6.3981430541977709,
            56.325142907230529
          ],
          [
            -6.3997086969336898,
            56.324916019237875
          ],
          [
            -6.4011582233970596,
            56.325356584562847
          ],
          [
            -6.4026907324790514,
            56.325814017770291
          ],
          [
            -6.4041378969709308,
            56.326257856458938
          ],
          [
            -6.4056867224048615,
            56.326542214351207
          ],
          [
            -6.4073176512753367,
            56.326719410091997
          ],
          [
            -6.4089116843492295,
            56.32688760956362
          ],
          [
            -6.4105542349115749,
            56.327025433161538
          ],
          [
            -6.4128327275652257,
            56.32714603885956
          ],
          [
            -6.4149903203848098,
            56.327251805828965
          ],
          [
            -6.4160797446291147,
            56.327473304784199
          ],
          [
            -6.4163707200507529,
            56.326907118391652
          ],
          [
            -6.4197469105478833,
            56.324618094586924
          ],
          [
            -6.4204974724046995,
            56.323944211246541
          ],
          [
            -6.4222758902976684,
            56.317718461076964
          ],
          [
            -6.4220993945376605,
            56.316532547122932
          ],
          [
            -6.4224331560104906,
            56.317442432804768
          ],
          [
            -6.4225587596403724,
            56.31824148066741
          ],
          [
            -6.4241050465582594,
            56.321057008535313
          ],
          [
            -6.4241050465582594,
            56.321057008535313
          ],
          [
            -6.4240741973631392,
            56.322050044266838
          ],
          [
            -6.423561388891768,
            56.323429339829083
          ],
          [
            -6.4224152919708013,
            56.324510206998241
          ],
          [
            -6.4207834786600575,
            56.328557563223448
          ],
          [
            -6.4166228117588968,
            56.330188677419592
          ],
          [
            -6.4097491341163604,
            56.327502430200532
          ],
          [
            -6.4168221021306291,
            56.329040631677763
          ],
          [
            -6.4167078659642405,
            56.328007223220474
          ],
          [
            -6.4158174934505796,
            56.327294482845033
          ],
          [
            -6.4141567521203973,
            56.327202574994146
          ],
          [
            -6.4125263051766312,
            56.327125702986663
          ],
          [
            -6.4108868138786796,
            56.327037681314735
          ],
          [
            -6.4092601927102022,
            56.326916805555506
          ],
          [
            -6.4076666403225735,
            56.326746502136281
          ],
          [
            -6.4060737673787775,
            56.326582463875205
          ],
          [
            -6.4044459740573814,
            56.326351542594331
          ],
          [
            -6.4029970274675749,
            56.325912818067536
          ],
          [
            -6.4008304333865915,
            56.325265114154917
          ],
          [
            -6.4000495426043189,
            56.325029568298817
          ],
          [
            -6.3984491870072393,
            56.32479342850754
          ],
          [
            -6.3972955226334189,
            56.325449245088663
          ],
          [
            -6.396251706109128,
            56.326159477809057
          ],
          [
            -6.3953674858971086,
            56.326926632921833
          ],
          [
            -6.3947611686143269,
            56.327777496842835
          ],
          [
            -6.3944507112468738,
            56.328661364624807
          ],
          [
            -6.3936947547835086,
            56.329482671978418
          ],
          [
            -6.392492269993209,
            56.330124366693283
          ],
          [
            -6.3909328425347089,
            56.330431277286571
          ],
          [
            -6.3890928404829568,
            56.330564779993004
          ],
          [
            -6.3875017844981716,
            56.330742618296689
          ],
          [
            -6.3858909816347174,
            56.330819465367341
          ],
          [
            -6.384249604501794,
            56.330877863328702
          ],
          [
            -6.3826171950025961,
            56.330840757926637
          ],
          [
            -6.3809834135813031,
            56.330702253709021
          ],
          [
            -6.3794079047493675,
            56.330448784626142
          ],
          [
            -6.3779472983195316,
            56.330044944960243
          ],
          [
            -6.3766063503156047,
            56.329502939203806
          ],
          [
            -6.3753561688415834,
            56.328903144003789
          ],
          [
            -6.3742021649644336,
            56.328273133952955
          ],
          [
            -6.3730968206955492,
            56.327520474008836
          ],
          [
            -6.3713896713100402,
            56.326506151499004
          ],
          [
            -6.3704454067620357,
            56.326074221068012
          ],
          [
            -6.3697463311033093,
            56.325504998599733
          ],
          [
            -6.3681735560983439,
            56.325293277045233
          ],
          [
            -6.3665035245545196,
            56.325175957886039
          ],
          [
            -6.3651928079272437,
            56.324631574314722
          ],
          [
            -6.3657472696111475,
            56.323776508213882
          ],
          [
            -6.3664062615902708,
            56.322902307928864
          ],
          [
            -6.3672387952382685,
            56.322107616022627
          ],
          [
            -6.3678523609788913,
            56.321269706259727
          ],
          [
            -6.3687226277648294,
            56.320468885300031
          ],
          [
            -6.3685445813546941,
            56.319535886847575
          ],
          [
            -6.3681203036410219,
            56.318638931814739
          ],
          [
            -6.3676603904359803,
            56.317733807234141
          ],
          [
            -6.36695745030688,
            56.316884168190455
          ],
          [
            -6.3662430149898839,
            56.316073796625268
          ],
          [
            -6.365457485961981,
            56.315219329576308
          ],
          [
            -6.3642468708492643,
            56.314540463529262
          ],
          [
            -6.3645653789940582,
            56.313628940634445
          ],
          [
            -6.3649476471351809,
            56.312754809303549
          ],
          [
            -6.364555377151218,
            56.311869085435305
          ],
          [
            -6.3643885383290888,
            56.310774672447323
          ],
          [
            -6.3648056989901054,
            56.310110822329705
          ],
          [
            -6.3642103940445356,
            56.309241979882117
          ],
          [
            -6.363508959999109,
            56.308420541234696
          ],
          [
            -6.3638874428702383,
            56.307532022171131
          ],
          [
            -6.3660741105890617,
            56.306364562103255
          ]
        ]
      },
      "properties" : {
        "end" : "2026-05-24T21:59:59Z",
        "start" : "2026-05-23T22:00:00Z",
        "type" : "route",
        "source" : "Geory 5.3.2",
        "device" : "B9E47AEB-E54C-4563-96B6-06995DD4BC56 (iPhone 16 Pro)"
      }
    }
  ],
  "type" : "FeatureCollection"
}