{
  "type" : "FeatureCollection",
  "features" : [
    {
      "geometry" : {
        "type" : "Point",
        "coordinates" : [
          -4.5511823539072216,
          55.074646320068418
        ]
      },
      "type" : "Feature",
      "properties" : {
        "arrival" : "2026-05-09T14:30:35Z",
        "type" : "visit",
        "duration" : 70229.522278308868,
        "weather" : "Bedeckter Himmel (10,3 °C)",
        "departure" : "2026-05-10T10:01:05Z",
        "timestamp" : "2026-05-09T14:30:35Z",
        "rating" : 0,
        "source" : "Geory 5.3.2",
        "address" : "Newton Stewart, DG8, Schottland",
        "device" : "B9E47AEB-E54C-4563-96B6-06995DD4BC56 (iPhone 16 Pro)"
      }
    },
    {
      "type" : "Feature",
      "geometry" : {
        "coordinates" : [
          -4.5698663028450142,
          55.073239558592888
        ],
        "type" : "Point"
      },
      "properties" : {
        "departure" : "2026-05-10T10:51:41Z",
        "device" : "B9E47AEB-E54C-4563-96B6-06995DD4BC56 (iPhone 16 Pro)",
        "timestamp" : "2026-05-10T10:11:27Z",
        "weather" : "Aufgelockert bewölkt (10,4 °C)",
        "address" : "Newton Stewart, DG8, Schottland",
        "arrival" : "2026-05-10T10:11:27Z",
        "rating" : 0,
        "source" : "Geory 5.3.2",
        "duration" : 2413.9746487140656,
        "type" : "visit"
      }
    },
    {
      "geometry" : {
        "type" : "Point",
        "coordinates" : [
          -4.5475779316161242,
          55.071288938530259
        ]
      },
      "type" : "Feature",
      "properties" : {
        "departure" : "2026-05-10T12:22:34Z",
        "rating" : 0,
        "source" : "Geory 5.3.2",
        "type" : "visit",
        "arrival" : "2026-05-10T11:10:42Z",
        "timestamp" : "2026-05-10T11:10:42Z",
        "device" : "B9E47AEB-E54C-4563-96B6-06995DD4BC56 (iPhone 16 Pro)",
        "weather" : "Aufgelockert bewölkt (11,8 °C)",
        "duration" : 4311.707439661026,
        "address" : "Newton Stewart, DG8, Schottland"
      }
    },
    {
      "type" : "Feature",
      "geometry" : {
        "type" : "Point",
        "coordinates" : [
          -4.5808689517715342,
          55.064295034406314
        ]
      },
      "properties" : {
        "type" : "visit",
        "device" : "B9E47AEB-E54C-4563-96B6-06995DD4BC56 (iPhone 16 Pro)",
        "timestamp" : "2026-05-10T13:15:33Z",
        "duration" : 1629.0045530796051,
        "departure" : "2026-05-10T13:42:42Z",
        "rating" : 0,
        "source" : "Geory 5.3.2",
        "address" : "Newton Stewart, DG8, Schottland",
        "arrival" : "2026-05-10T13:15:33Z",
        "weather" : "Klarer Himmel (12,5 °C)"
      }
    },
    {
      "properties" : {
        "departure" : "2026-05-10T16:28:46Z",
        "arrival" : "2026-05-10T14:20:16Z",
        "duration" : 7709.9982919692993,
        "timestamp" : "2026-05-10T14:20:16Z",
        "rating" : 0,
        "address" : "A77, Girvan, KA26, Schottland",
        "device" : "B9E47AEB-E54C-4563-96B6-06995DD4BC56 (iPhone 16 Pro)",
        "weather" : "Leicht bewölkt (11,1 °C)",
        "type" : "visit",
        "source" : "Geory 5.3.2"
      },
      "type" : "Feature",
      "geometry" : {
        "type" : "Point",
        "coordinates" : [
          -4.8597603177017659,
          55.227221486427055
        ]
      }
    },
    {
      "geometry" : {
        "type" : "Point",
        "coordinates" : [
          -4.6178251981207277,
          55.345704818570937
        ]
      },
      "properties" : {
        "address" : "9 Straiton Road, Kirkmichael, Maybole, KA19 7PH, Schottland",
        "type" : "visit",
        "departure" : "2026-05-10T18:46:00Z",
        "source" : "Geory 5.3.2",
        "device" : "B9E47AEB-E54C-4563-96B6-06995DD4BC56 (iPhone 16 Pro)",
        "timestamp" : "2026-05-10T17:00:25Z",
        "duration" : 6335.6998591423035,
        "weather" : "Leicht bewölkt (11,5 °C)",
        "arrival" : "2026-05-10T17:00:25Z",
        "rating" : 0
      },
      "type" : "Feature"
    },
    {
      "properties" : {
        "weather" : "Überwiegend bewölkt (9,8 °C)",
        "address" : "Maybole, KA19, Schottland",
        "device" : "B9E47AEB-E54C-4563-96B6-06995DD4BC56 (iPhone 16 Pro)",
        "arrival" : "2026-05-10T19:04:47Z",
        "duration" : 1621.2725546360016,
        "type" : "visit",
        "source" : "Geory 5.3.2",
        "rating" : 0,
        "timestamp" : "2026-05-10T19:04:47Z",
        "departure" : "2026-05-10T19:31:48Z"
      },
      "type" : "Feature",
      "geometry" : {
        "type" : "Point",
        "coordinates" : [
          -4.7676227599078764,
          55.376265000647329
        ]
      }
    },
    {
      "geometry" : {
        "coordinates" : [
          -4.7676310433594429,
          55.376314342935203
        ],
        "type" : "Point"
      },
      "properties" : {
        "type" : "visit",
        "departure" : "2026-05-10T20:36:52Z",
        "device" : "B9E47AEB-E54C-4563-96B6-06995DD4BC56 (iPhone 16 Pro)",
        "rating" : 0,
        "source" : "Geory 5.3.2",
        "arrival" : "2026-05-10T19:57:14Z",
        "duration" : 2378.0975437164307,
        "address" : "Maybole, KA19, Schottland",
        "timestamp" : "2026-05-10T19:57:14Z",
        "weather" : "Überwiegend bewölkt (10,0 °C)"
      },
      "type" : "Feature"
    },
    {
      "properties" : {
        "arrival" : "2026-05-10T20:38:55Z",
        "device" : "B9E47AEB-E54C-4563-96B6-06995DD4BC56 (iPhone 16 Pro)",
        "address" : "Maybole, KA19, Schottland",
        "departure" : "2026-05-10T21:01:26Z",
        "type" : "visit",
        "duration" : 1350.7540884017944,
        "timestamp" : "2026-05-10T20:38:55Z",
        "rating" : 0,
        "weather" : "Überwiegend bewölkt (9,8 °C)",
        "source" : "Geory 5.3.2"
      },
      "type" : "Feature",
      "geometry" : {
        "type" : "Point",
        "coordinates" : [
          -4.7676475073407492,
          55.376317627464367
        ]
      }
    },
    {
      "geometry" : {
        "coordinates" : [
          -4.7675631742030218,
          55.376303976869721
        ],
        "type" : "Point"
      },
      "properties" : {
        "type" : "visit",
        "duration" : 1856.0934629440308,
        "address" : "Maybole, KA19, Schottland",
        "arrival" : "2026-05-10T21:43:03Z",
        "timestamp" : "2026-05-10T21:43:03Z",
        "departure" : "2026-05-10T22:13:59Z",
        "rating" : 0,
        "source" : "Geory 5.3.2",
        "weather" : "Überwiegend bewölkt (9,8 °C)",
        "device" : "B9E47AEB-E54C-4563-96B6-06995DD4BC56 (iPhone 16 Pro)"
      },
      "type" : "Feature"
    },
    {
      "type" : "Feature",
      "properties" : {
        "start" : "2026-05-09T22:00:00Z",
        "device" : "B9E47AEB-E54C-4563-96B6-06995DD4BC56 (iPhone 16 Pro)",
        "type" : "route",
        "source" : "Geory 5.3.2",
        "end" : "2026-05-10T21:59:59Z"
      },
      "geometry" : {
        "coordinates" : [
          [
            -4.7675631742030218,
            55.376303976869721
          ],
          [
            -4.7676629138232416,
            55.376344070610095
          ],
          [
            -4.767713566002648,
            55.376290149639807
          ],
          [
            -4.7675772023230616,
            55.376329487976086
          ],
          [
            -4.757642854606269,
            55.376925746043874
          ],
          [
            -4.7676040694362083,
            55.376201820528877
          ],
          [
            -4.7576480987998853,
            55.377236374151998
          ],
          [
            -4.7676916857705169,
            55.376321673962728
          ],
          [
            -4.7576824781985261,
            55.37728207808447
          ],
          [
            -4.7677122119869573,
            55.376312853820785
          ],
          [
            -4.7579960282784555,
            55.377406914176461
          ],
          [
            -4.7579960282784555,
            55.377406914176461
          ],
          [
            -4.7675915255817936,
            55.376346246319876
          ],
          [
            -4.7676475073407492,
            55.376317627464367
          ],
          [
            -4.767677436875486,
            55.376348308883024
          ],
          [
            -4.7676310433594429,
            55.376314342935203
          ],
          [
            -4.7675949553811847,
            55.376309359556359
          ],
          [
            -4.7677138955495693,
            55.376340826951903
          ],
          [
            -4.7675536491753689,
            55.376338202738083
          ],
          [
            -4.7676714533556801,
            55.376299826620084
          ],
          [
            -4.7676703518695156,
            55.376257674426419
          ],
          [
            -4.7677023508168377,
            55.376300178074978
          ],
          [
            -4.7676869960417738,
            55.376309827928324
          ],
          [
            -4.7677088977421436,
            55.37632093261265
          ],
          [
            -4.7580014366898045,
            55.377596988643475
          ],
          [
            -4.7677502491283867,
            55.376283679607504
          ],
          [
            -4.7585573995074402,
            55.377518031500173
          ],
          [
            -4.7585573995074402,
            55.377518031500173
          ],
          [
            -4.7676368712331598,
            55.37629954918409
          ],
          [
            -4.7591751647423051,
            55.3771798665421
          ],
          [
            -4.7675965078212323,
            55.376320013854077
          ],
          [
            -4.7592643268127839,
            55.377112140905147
          ],
          [
            -4.7592643268127839,
            55.377112140905147
          ],
          [
            -4.767704047053531,
            55.37624834703454
          ],
          [
            -4.7585343410997361,
            55.377712968914793
          ],
          [
            -4.7585343416517363,
            55.377712968779996
          ],
          [
            -4.7676227599078764,
            55.376265000647329
          ],
          [
            -4.7670800499999997,
            55.376171683333332
          ],
          [
            -4.7654752490818018,
            55.376194866005427
          ],
          [
            -4.763934332973081,
            55.376000331205596
          ],
          [
            -4.7623478367341834,
            55.37596375013019
          ],
          [
            -4.7607977641284691,
            55.376155935236071
          ],
          [
            -4.7592777499999999,
            55.376520116666676
          ],
          [
            -4.7578216251802932,
            55.376910294336469
          ],
          [
            -4.7562741333333332,
            55.377087366666665
          ],
          [
            -4.7545719356170508,
            55.376278653447585
          ],
          [
            -4.7548531833333332,
            55.375145300000007
          ],
          [
            -4.7543487666666664,
            55.374158883333337
          ],
          [
            -4.7536523500000003,
            55.373309283333342
          ],
          [
            -4.7525911000000001,
            55.37241843333333
          ],
          [
            -4.7523565166666666,
            55.371225516666662
          ],
          [
            -4.7520528666666673,
            55.370576700000015
          ],
          [
            -4.7512996333333328,
            55.370198450000004
          ],
          [
            -4.7490522166666667,
            55.36986404999999
          ],
          [
            -4.7465211833333329,
            55.369612899999993
          ],
          [
            -4.7441069999999996,
            55.369375533333333
          ],
          [
            -4.7414885333333334,
            55.368934016666664
          ],
          [
            -4.7389467666666665,
            55.36832471666667
          ],
          [
            -4.7367014666666671,
            55.367689533333341
          ],
          [
            -4.7346380333333329,
            55.367006750000002
          ],
          [
            -4.7330624333333331,
            55.366280933333336
          ],
          [
            -4.7327261666666667,
            55.364980783333337
          ],
          [
            -4.7324886333333334,
            55.363893633333333
          ],
          [
            -4.7320719000000002,
            55.362619733333332
          ],
          [
            -4.73210525,
            55.361631299999999
          ],
          [
            -4.730725716666667,
            55.360795616666671
          ],
          [
            -4.7277464,
            55.360575749999995
          ],
          [
            -4.7248970833333344,
            55.36033521666667
          ],
          [
            -4.7227515666666671,
            55.360091516666671
          ],
          [
            -4.7211013333333325,
            55.358988133333334
          ],
          [
            -4.7196351666666665,
            55.35790338333333
          ],
          [
            -4.7172518697658861,
            55.357618082629052
          ],
          [
            -4.7147521472154708,
            55.357421401127567
          ],
          [
            -4.7124789615111906,
            55.357233617925637
          ],
          [
            -4.7100507561534988,
            55.357127024708717
          ],
          [
            -4.7077560333333341,
            55.356914766666662
          ],
          [
            -4.7056439166666664,
            55.356378733333329
          ],
          [
            -4.7030762666666668,
            55.355995566666664
          ],
          [
            -4.7005999166666665,
            55.355766700000004
          ],
          [
            -4.698733016666667,
            55.355228066666662
          ],
          [
            -4.6991361000000005,
            55.354584666666675
          ],
          [
            -4.7000678000000002,
            55.353178516666667
          ],
          [
            -4.7007371833333336,
            55.351733399999993
          ],
          [
            -4.7012664499999994,
            55.350539216666654
          ],
          [
            -4.7014338666666662,
            55.349601049999997
          ],
          [
            -4.6994623666666664,
            55.349894049999996
          ],
          [
            -4.6971862166666671,
            55.350155799999996
          ],
          [
            -4.6951712833333339,
            55.350369266666668
          ],
          [
            -4.6935497000000002,
            55.350430116666665
          ],
          [
            -4.6920341383368624,
            55.350721814793353
          ],
          [
            -4.6905369638906258,
            55.351110630247504
          ],
          [
            -4.6892358416039617,
            55.351728067264588
          ],
          [
            -4.6875474468325988,
            55.35167124142324
          ],
          [
            -4.6860855396761494,
            55.352050755088698
          ],
          [
            -4.6847770455357312,
            55.352551834906329
          ],
          [
            -4.6835355473440243,
            55.353195411939382
          ],
          [
            -4.6822416638196982,
            55.353749515479173
          ],
          [
            -4.6810870666666666,
            55.354395133333341
          ],
          [
            -4.679979192908335,
            55.355051120648753
          ],
          [
            -4.6788528833333336,
            55.355735449999997
          ],
          [
            -4.677574533333333,
            55.356392666666672
          ],
          [
            -4.6762143260960434,
            55.357096840651771
          ],
          [
            -4.6749227493982604,
            55.357763708153662
          ],
          [
            -4.6732715600105834,
            55.357980459323706
          ],
          [
            -4.6717906521936348,
            55.357655408605851
          ],
          [
            -4.6701808833333338,
            55.357279083333331
          ],
          [
            -4.6685704333333335,
            55.357043283333333
          ],
          [
            -4.6670220666666662,
            55.356736000000005
          ],
          [
            -4.6654497678005473,
            55.356448107514389
          ],
          [
            -4.6638913146014733,
            55.356246985995917
          ],
          [
            -4.6618725480069818,
            55.356363832991349
          ],
          [
            -4.6595794561824588,
            55.356444263159595
          ],
          [
            -4.6574944758594734,
            55.3565886679865
          ],
          [
            -4.655425663977991,
            55.356485928777147
          ],
          [
            -4.6534059263668297,
            55.356491461912896
          ],
          [
            -4.6514839388218325,
            55.356639289328612
          ],
          [
            -4.6498682815975307,
            55.356689410372795
          ],
          [
            -4.6482503673325759,
            55.356335202248964
          ],
          [
            -4.6464993562777508,
            55.355057567512098
          ],
          [
            -4.6458213410513096,
            55.354008346526548
          ],
          [
            -4.6443053387067703,
            55.352893543674284
          ],
          [
            -4.6424131197597598,
            55.351705046538697
          ],
          [
            -4.6396905666666672,
            55.349941633333337
          ],
          [
            -4.6386157833333339,
            55.349260350000002
          ],
          [
            -4.6369331666666662,
            55.348781600000002
          ],
          [
            -4.6355525999999996,
            55.347712083333334
          ],
          [
            -4.6339654166666664,
            55.346679916666666
          ],
          [
            -4.6321528333333326,
            55.345773199999996
          ],
          [
            -4.6303175427842671,
            55.345225572238441
          ],
          [
            -4.6288309470886926,
            55.344772594734955
          ],
          [
            -4.6274014017088874,
            55.34420961155238
          ],
          [
            -4.6255247535165349,
            55.344538423456186
          ],
          [
            -4.6178251981207277,
            55.345704818570937
          ],
          [
            -4.613359233333334,
            55.341791066666666
          ],
          [
            -4.6125376666666664,
            55.340951849999996
          ],
          [
            -4.6110168718817945,
            55.340140135921352
          ],
          [
            -4.6099130341371053,
            55.339459889828206
          ],
          [
            -4.6112471166666671,
            55.338674599999997
          ],
          [
            -4.6120370499999996,
            55.337873133333339
          ],
          [
            -4.6124585580395818,
            55.336997363895044
          ],
          [
            -4.6135582069200307,
            55.33615398746565
          ],
          [
            -4.614424826790481,
            55.335110227367629
          ],
          [
            -4.6152011470620691,
            55.334197320973914
          ],
          [
            -4.6165512333333334,
            55.333610116666662
          ],
          [
            -4.6179397166666671,
            55.333023116666666
          ],
          [
            -4.6190993666666671,
            55.332383233333339
          ],
          [
            -4.6198146666666666,
            55.331548199999993
          ],
          [
            -4.6206646166666667,
            55.330431733333342
          ],
          [
            -4.6217314333333332,
            55.329464899999998
          ],
          [
            -4.6222505333333332,
            55.328552050000006
          ],
          [
            -4.6218055500000004,
            55.327689783333334
          ],
          [
            -4.6216979999999994,
            55.326759616666671
          ],
          [
            -4.6214824666666665,
            55.325785016666664
          ],
          [
            -4.6208703666666668,
            55.324945183333327
          ],
          [
            -4.6210847130289299,
            55.324029567722448
          ],
          [
            -4.6216546666666662,
            55.323173166666656
          ],
          [
            -4.6218827833333336,
            55.322207049999996
          ],
          [
            -4.6221229500000005,
            55.321128133333332
          ],
          [
            -4.6221329755270029,
            55.320088399999996
          ],
          [
            -4.6218204079425371,
            55.319074331033718
          ],
          [
            -4.6215005296617688,
            55.318105108115844
          ],
          [
            -4.6216422107411415,
            55.317207566610918
          ],
          [
            -4.6219742666666672,
            55.316284700000011
          ],
          [
            -4.6221995220835677,
            55.315351592569257
          ],
          [
            -4.6244858333333339,
            55.314947766666663
          ],
          [
            -4.6268491999999997,
            55.314832433333336
          ],
          [
            -4.6286215999999998,
            55.314662500000004
          ],
          [
            -4.6304397499999999,
            55.31460933333333
          ],
          [
            -4.6326963499999998,
            55.314065216666663
          ],
          [
            -4.6353065666666673,
            55.314076899999989
          ],
          [
            -4.6378479666666657,
            55.314259533333342
          ],
          [
            -4.6402426666666665,
            55.314124533333342
          ],
          [
            -4.6424317000000004,
            55.313868233333345
          ],
          [
            -4.6446329952495899,
            55.31431345153532
          ],
          [
            -4.6467358000000001,
            55.314812366666665
          ],
          [
            -4.6490666666666662,
            55.314161449999993
          ],
          [
            -4.6514498294048749,
            55.313989149217917
          ],
          [
            -4.6528874706949663,
            55.314014723093621
          ],
          [
            -4.6540797347787244,
            55.313994684792057
          ],
          [
            -4.6559502155065964,
            55.31391890034368
          ],
          [
            -4.6575103333333336,
            55.3137963
          ],
          [
            -4.6585746841985758,
            55.312885613212799
          ],
          [
            -4.6601577333333335,
            55.311910533333332
          ],
          [
            -4.6618975166666656,
            55.311110283333328
          ],
          [
            -4.663661499999999,
            55.310628133333324
          ],
          [
            -4.6653322333333342,
            55.310194100000011
          ],
          [
            -4.6664327166666668,
            55.309004566666665
          ],
          [
            -4.667525583333334,
            55.307876016666654
          ],
          [
            -4.6685755499999999,
            55.306859666666668
          ],
          [
            -4.6699262166666671,
            55.305927249999996
          ],
          [
            -4.6714771833333328,
            55.304674049999996
          ],
          [
            -4.6732224166666665,
            55.303603400000007
          ],
          [
            -4.6749358999999995,
            55.302586333333331
          ],
          [
            -4.6769581833333325,
            55.301756183333332
          ],
          [
            -4.6781607166666666,
            55.300481966666673
          ],
          [
            -4.6799255166666667,
            55.299688633333339
          ],
          [
            -4.6823059999999996,
            55.299359599999995
          ],
          [
            -4.6847825666666658,
            55.299202433333335
          ],
          [
            -4.6871284000000006,
            55.299131500000001
          ],
          [
            -4.6883443833333329,
            55.298114900000002
          ],
          [
            -4.6877516166666666,
            55.29702163333333
          ],
          [
            -4.6882733833333328,
            55.295605999999992
          ],
          [
            -4.6897717833333337,
            55.294774416666662
          ],
          [
            -4.6899425166666671,
            55.293337800000003
          ],
          [
            -4.6906225166666671,
            55.29203183333334
          ],
          [
            -4.6919689333333343,
            55.290612916666667
          ],
          [
            -4.6935220666666666,
            55.289908366666666
          ],
          [
            -4.6950853500000003,
            55.288777583333335
          ],
          [
            -4.6956072833333344,
            55.287572500000003
          ],
          [
            -4.6973674499999998,
            55.286514549999993
          ],
          [
            -4.6997035166666663,
            55.285655266666659
          ],
          [
            -4.7016790500000001,
            55.284932349999991
          ],
          [
            -4.7042256166666672,
            55.284718033333341
          ],
          [
            -4.7066735833333331,
            55.284555600000004
          ],
          [
            -4.7088014500000011,
            55.283698783333328
          ],
          [
            -4.7107936000000006,
            55.28268593333334
          ],
          [
            -4.7121963000000004,
            55.281884116666667
          ],
          [
            -4.7133907666666666,
            55.280728549999999
          ],
          [
            -4.7151786333333332,
            55.279629000000007
          ],
          [
            -4.7171691166666658,
            55.278772566666674
          ],
          [
            -4.7189696333333329,
            55.277967533333332
          ],
          [
            -4.7202269999999995,
            55.276923066666662
          ],
          [
            -4.7209830166666666,
            55.275711866666668
          ],
          [
            -4.7221565166666659,
            55.274872933333334
          ],
          [
            -4.7238538573478888,
            55.274538913221505
          ],
          [
            -4.7256235999999996,
            55.27413323333333
          ],
          [
            -4.7276894333333326,
            55.273351249999997
          ],
          [
            -4.7289688500000002,
            55.272060583333328
          ],
          [
            -4.7310071666666671,
            55.270910333333326
          ],
          [
            -4.7334750848231621,
            55.269977635183437
          ],
          [
            -4.7355494100020392,
            55.268943602871623
          ],
          [
            -4.7368596166666661,
            55.267612283333335
          ],
          [
            -4.7380422969358955,
            55.266125831349143
          ],
          [
            -4.7405746999921865,
            55.265741735639601
          ],
          [
            -4.7425996000000001,
            55.264700049999995
          ],
          [
            -4.7439084999999999,
            55.2635121
          ],
          [
            -4.7464290833333331,
            55.262692349999995
          ],
          [
            -4.7492631666666663,
            55.26234075
          ],
          [
            -4.752573766666667,
            55.261961733333322
          ],
          [
            -4.7560767229605618,
            55.261661489238755
          ],
          [
            -4.7591527749747327,
            55.261336190236378
          ],
          [
            -4.762062269169216,
            55.260512952887353
          ],
          [
            -4.7647244869287118,
            55.259758000277969
          ],
          [
            -4.7676593598536856,
            55.259234191059946
          ],
          [
            -4.7708158403308341,
            55.259606725980014
          ],
          [
            -4.77355304231149,
            55.260008785272696
          ],
          [
            -4.7761166177794099,
            55.259440514628174
          ],
          [
            -4.7782071166666666,
            55.25816558333333
          ],
          [
            -4.7799289666666667,
            55.256879183333332
          ],
          [
            -4.7823505500000003,
            55.255986716666669
          ],
          [
            -4.7854947166666664,
            55.256166866666675
          ],
          [
            -4.7883782333333329,
            55.256330216666662
          ],
          [
            -4.7910584499999995,
            55.256221999999994
          ],
          [
            -4.7929790166666661,
            55.256092050000007
          ],
          [
            -4.7943941833333339,
            55.255276083333335
          ],
          [
            -4.7972003833333332,
            55.255174666666669
          ],
          [
            -4.7999608666666669,
            55.254736766666674
          ],
          [
            -4.8026729000000001,
            55.254274733333325
          ],
          [
            -4.80525585,
            55.253833166666666
          ],
          [
            -4.8077440333333339,
            55.253424266666663
          ],
          [
            -4.8100467666666669,
            55.252593166666671
          ],
          [
            -4.8118521999999997,
            55.251820849999994
          ],
          [
            -4.8128381999999998,
            55.25073463333333
          ],
          [
            -4.8147437166666665,
            55.250160833333332
          ],
          [
            -4.8171625333333328,
            55.249957933333327
          ],
          [
            -4.8195392166666666,
            55.249886400000001
          ],
          [
            -4.8220427166666671,
            55.249752433333335
          ],
          [
            -4.8244232166666663,
            55.249633883333338
          ],
          [
            -4.8266935891684035,
            55.249505484524697
          ],
          [
            -4.8288652833333332,
            55.248593016666668
          ],
          [
            -4.8302946166666665,
            55.247299866666658
          ],
          [
            -4.8315978000000008,
            55.245868683333342
          ],
          [
            -4.8329159666666675,
            55.244469049999992
          ],
          [
            -4.8342988,
            55.243000133333332
          ],
          [
            -4.8355019333333331,
            55.241824866666668
          ],
          [
            -4.8378715000000003,
            55.240785400000007
          ],
          [
            -4.8397304500000002,
            55.239969733333332
          ],
          [
            -4.8419121666666669,
            55.239473833333342
          ],
          [
            -4.8437348500000006,
            55.238819900000003
          ],
          [
            -4.8447204839741707,
            55.23772609564147
          ],
          [
            -4.8455336307835486,
            55.23671586995286
          ],
          [
            -4.8464178361174799,
            55.235601659729539
          ],
          [
            -4.847252338214985,
            55.234566951231528
          ],
          [
            -4.8480419678482418,
            55.233692082272569
          ],
          [
            -4.8493562657440368,
            55.232848451394595
          ],
          [
            -4.850505221999601,
            55.231986184385285
          ],
          [
            -4.8512550928565341,
            55.231174860854516
          ],
          [
            -4.8522813701802612,
            55.229970580376119
          ],
          [
            -4.8533085666666667,
            55.229100799999998
          ],
          [
            -4.8548856000000002,
            55.228828499999992
          ],
          [
            -4.8572647166666663,
            55.228111883333334
          ],
          [
            -4.8597603177017659,
            55.227221486427055
          ],
          [
            -4.8511512833333335,
            55.221997250000001
          ],
          [
            -4.8497449499999998,
            55.220662899999994
          ],
          [
            -4.847642549701737,
            55.219968994948033
          ],
          [
            -4.846040283333334,
            55.218908416666665
          ],
          [
            -4.8461585999999999,
            55.21770251666667
          ],
          [
            -4.8476807499999994,
            55.216541233333331
          ],
          [
            -4.8474103962986375,
            55.215410829443861
          ],
          [
            -4.8487679333333338,
            55.214444950000008
          ],
          [
            -4.8494979166666665,
            55.213629166666671
          ],
          [
            -4.8491953666666676,
            55.212657416666659
          ],
          [
            -4.8483301333333335,
            55.211665133333327
          ],
          [
            -4.8471842433510464,
            55.210602974661199
          ],
          [
            -4.8492332666666664,
            55.209649900000002
          ],
          [
            -4.8507600166666665,
            55.208325666666667
          ],
          [
            -4.8514236666666664,
            55.207028183333328
          ],
          [
            -4.8498799333333329,
            55.206199733333342
          ],
          [
            -4.8478002000000009,
            55.205173366666664
          ],
          [
            -4.8455721,
            55.204689433333336
          ],
          [
            -4.8439219145616166,
            55.204638593479821
          ],
          [
            -4.8436788000000002,
            55.203478633333326
          ],
          [
            -4.8417764333333331,
            55.202356733333332
          ],
          [
            -4.8393086333333333,
            55.201591350000008
          ],
          [
            -4.8369686333333339,
            55.201027183333331
          ],
          [
            -4.8344541166666666,
            55.200439216666666
          ],
          [
            -4.8338370978567058,
            55.199053741963013
          ],
          [
            -4.8330623333333342,
            55.197914883333333
          ],
          [
            -4.8318931833333325,
            55.196936699999995
          ],
          [
            -4.8299513333333328,
            55.196138999999988
          ],
          [
            -4.8273159999999997,
            55.195745083333335
          ],
          [
            -4.8253834166666669,
            55.195238266666671
          ],
          [
            -4.8237863666666669,
            55.194326950000004
          ],
          [
            -4.8238332833333333,
            55.193175283333332
          ],
          [
            -4.8250365499999992,
            55.192107416666673
          ],
          [
            -4.8250197833333335,
            55.190854133333339
          ],
          [
            -4.8251836666666659,
            55.189685300000008
          ],
          [
            -4.8244947333333332,
            55.188243383333337
          ],
          [
            -4.8245526999999999,
            55.187789433333336
          ],
          [
            -4.8247063666666659,
            55.186566133333329
          ],
          [
            -4.8252203999999992,
            55.185174499999995
          ],
          [
            -4.8251041333333342,
            55.18403696666666
          ],
          [
            -4.8255175833333324,
            55.182971066666674
          ],
          [
            -4.8260987499999999,
            55.182121633333324
          ],
          [
            -4.8275557833333327,
            55.181375866666663
          ],
          [
            -4.8262451666666664,
            55.180676366666667
          ],
          [
            -4.8247446333333333,
            55.179768899999999
          ],
          [
            -4.8229803999999996,
            55.179079916666659
          ],
          [
            -4.8214429788125592,
            55.178136813488251
          ],
          [
            -4.8213290724606424,
            55.176798765106668
          ],
          [
            -4.8210322379003046,
            55.17528908574144
          ],
          [
            -4.8211847940392412,
            55.173886141859555
          ],
          [
            -4.8221806063818082,
            55.172639908197844
          ],
          [
            -4.8234561122607635,
            55.171504511784597
          ],
          [
            -4.8238473307204597,
            55.17054268419642
          ],
          [
            -4.824330564804292,
            55.169353461916749
          ],
          [
            -4.8243326392687989,
            55.168366423986114
          ],
          [
            -4.8248341897173814,
            55.166876448338208
          ],
          [
            -4.8251782790500792,
            55.165408100774997
          ],
          [
            -4.8258848354751382,
            55.163843138947492
          ],
          [
            -4.8264821771353175,
            55.162559799213483
          ],
          [
            -4.827426176736866,
            55.161485396207702
          ],
          [
            -4.8285535999999993,
            55.160756400000004
          ],
          [
            -4.8300355500000007,
            55.15981433333333
          ],
          [
            -4.8313805333333333,
            55.158841900000006
          ],
          [
            -4.8323178833333342,
            55.157654416666674
          ],
          [
            -4.8327573333333333,
            55.156403133333335
          ],
          [
            -4.8322158833333342,
            55.155072566666668
          ],
          [
            -4.8313795333333331,
            55.154103533333334
          ],
          [
            -4.8314072333333336,
            55.153170883333331
          ],
          [
            -4.8316302661598902,
            55.152216722165107
          ],
          [
            -4.8322005952604306,
            55.151245796596307
          ],
          [
            -4.8334943499999996,
            55.150484916666663
          ],
          [
            -4.8350317450737439,
            55.149516565308417
          ],
          [
            -4.8351532432899713,
            55.148144510483561
          ],
          [
            -4.8345484853302461,
            55.146959316072362
          ],
          [
            -4.8329690585344354,
            55.146104145214096
          ],
          [
            -4.832149687429359,
            55.145138173718109
          ],
          [
            -4.8310112731909527,
            55.144292349805021
          ],
          [
            -4.8297619329958001,
            55.143657330265825
          ],
          [
            -4.8300775666666675,
            55.142566300000006
          ],
          [
            -4.8299261833333338,
            55.141095300000011
          ],
          [
            -4.8296691666666671,
            55.139800416666667
          ],
          [
            -4.8280716666666672,
            55.138612866666669
          ],
          [
            -4.8268581000000008,
            55.137468199999994
          ],
          [
            -4.8256019500000003,
            55.136440516666667
          ],
          [
            -4.823703000000001,
            55.135379783333335
          ],
          [
            -4.8217455833333336,
            55.134425300000004
          ],
          [
            -4.8201070333333327,
            55.133780616666677
          ],
          [
            -4.8193081333333332,
            55.132325300000005
          ],
          [
            -4.8176779499999993,
            55.131338266666667
          ],
          [
            -4.8165374999999999,
            55.130541383333338
          ],
          [
            -4.8157544999999997,
            55.130148083333339
          ],
          [
            -4.81388455,
            55.129156850000001
          ],
          [
            -4.8120471999999994,
            55.128204866666664
          ],
          [
            -4.8102874333333343,
            55.127425666666674
          ],
          [
            -4.8104483833333331,
            55.126139116666671
          ],
          [
            -4.8092364166666668,
            55.124951750000001
          ],
          [
            -4.8082593833333327,
            55.123653166666656
          ],
          [
            -4.8071721166666661,
            55.1222396
          ],
          [
            -4.8062524,
            55.120610500000005
          ],
          [
            -4.8059705333333333,
            55.119050233333333
          ],
          [
            -4.8045815000000012,
            55.117684750000002
          ],
          [
            -4.8026700166666663,
            55.116312616666669
          ],
          [
            -4.8004755666666661,
            55.115046699999994
          ],
          [
            -4.798258333333334,
            55.114025850000012
          ],
          [
            -4.7953239666666674,
            55.113409583333336
          ],
          [
            -4.7925482333333322,
            55.112503566666661
          ],
          [
            -4.7899213833333336,
            55.111289916666664
          ],
          [
            -4.7874710666666669,
            55.110340783333335
          ],
          [
            -4.7856306333333336,
            55.109025116666665
          ],
          [
            -4.7826775000000001,
            55.108365733333322
          ],
          [
            -4.7800537333333333,
            55.107584449999997
          ],
          [
            -4.7779345333333323,
            55.106452350000005
          ],
          [
            -4.7766822333333332,
            55.105238499999992
          ],
          [
            -4.7748244666666668,
            55.10449908333333
          ],
          [
            -4.7726723833333331,
            55.103988950000002
          ],
          [
            -4.7711957666666667,
            55.103484300000005
          ],
          [
            -4.7696554999999998,
            55.102826683333326
          ],
          [
            -4.7678301333333337,
            55.10163308333334
          ],
          [
            -4.7665477833333334,
            55.101077283333339
          ],
          [
            -4.764608599999999,
            55.100888216666668
          ],
          [
            -4.762197116666667,
            55.10088411666667
          ],
          [
            -4.7612421999999999,
            55.099660783333334
          ],
          [
            -4.7591612166666666,
            55.099169116666666
          ],
          [
            -4.7571560833333333,
            55.098822133333336
          ],
          [
            -4.7554632999999988,
            55.098199533333343
          ],
          [
            -4.7535415333333333,
            55.097795516666672
          ],
          [
            -4.7518946333333334,
            55.097755883333335
          ],
          [
            -4.7503282666666662,
            55.097499433333326
          ],
          [
            -4.7487112666666667,
            55.097083266666665
          ],
          [
            -4.7469760000000001,
            55.096355333333335
          ],
          [
            -4.7451242000000002,
            55.096028583333329
          ],
          [
            -4.7435366166666659,
            55.096063199999996
          ],
          [
            -4.7409227333333321,
            55.095768833333345
          ],
          [
            -4.7381596166666675,
            55.095463249999995
          ],
          [
            -4.7356484666666674,
            55.094596883333331
          ],
          [
            -4.7341088999999998,
            55.093456533333331
          ],
          [
            -4.7315251833333329,
            55.093087449999999
          ],
          [
            -4.7288431333333332,
            55.092946333333337
          ],
          [
            -4.7263888500000002,
            55.093048716666665
          ],
          [
            -4.724167716666666,
            55.092181199999999
          ],
          [
            -4.7216908833333333,
            55.091435399999995
          ],
          [
            -4.7190774000000006,
            55.091520783333337
          ],
          [
            -4.7166835666666662,
            55.090853666666661
          ],
          [
            -4.7146172833333324,
            55.089980399999995
          ],
          [
            -4.7136962846976669,
            55.089713420774494
          ],
          [
            -4.7121928804508064,
            55.089587904340867
          ],
          [
            -4.7094959803578522,
            55.090102243253128
          ],
          [
            -4.7065319167444102,
            55.090606450915779
          ],
          [
            -4.7038193893063704,
            55.091093739485075
          ],
          [
            -4.7014208067846868,
            55.091582881533022
          ],
          [
            -4.6989140350243517,
            55.091616913182449
          ],
          [
            -4.6961762333333334,
            55.09198043333334
          ],
          [
            -4.6933911666666672,
            55.09265735000001
          ],
          [
            -4.6903239166666673,
            55.093501349999997
          ],
          [
            -4.6875637833333332,
            55.093983033333338
          ],
          [
            -4.6845110666666674,
            55.09417921666666
          ],
          [
            -4.6813959666666669,
            55.094138050000005
          ],
          [
            -4.6782169166666669,
            55.094092000000003
          ],
          [
            -4.6753193999999993,
            55.094241883333339
          ],
          [
            -4.6727377166666662,
            55.094281550000005
          ],
          [
            -4.6703636333333334,
            55.093738249999994
          ],
          [
            -4.668370283333334,
            55.092964749999993
          ],
          [
            -4.6660243833333332,
            55.092429800000005
          ],
          [
            -4.6639416166666665,
            55.091806016666666
          ],
          [
            -4.6622694500000001,
            55.090697050000003
          ],
          [
            -4.6602311333333333,
            55.089808783333332
          ],
          [
            -4.6570257000000002,
            55.089051849999997
          ],
          [
            -4.6538567166666667,
            55.088336966666667
          ],
          [
            -4.6507452833333334,
            55.08800213333334
          ],
          [
            -4.647639916666666,
            55.087115700000005
          ],
          [
            -4.6451807500000006,
            55.086018299999999
          ],
          [
            -4.6421013499999999,
            55.085225466666664
          ],
          [
            -4.6393280166666671,
            55.084434516666668
          ],
          [
            -4.6380914666666673,
            55.083954466666668
          ],
          [
            -4.6366923499999997,
            55.083406549999999
          ],
          [
            -4.6337590666666673,
            55.082660066666655
          ],
          [
            -4.6307609500000009,
            55.081902383333329
          ],
          [
            -4.6281815333333345,
            55.080669266666675
          ],
          [
            -4.6253358999999996,
            55.079514666666668
          ],
          [
            -4.6224455999999998,
            55.078435366666653
          ],
          [
            -4.6196778500000004,
            55.077455549999996
          ],
          [
            -4.6169089333333337,
            55.076643383333341
          ],
          [
            -4.6143047666666677,
            55.075542216666662
          ],
          [
            -4.6113404166666667,
            55.075290449999997
          ],
          [
            -4.6085263333333328,
            55.075251200000004
          ],
          [
            -4.6055891333333339,
            55.075006600000002
          ],
          [
            -4.6027975333333337,
            55.074039666666671
          ],
          [
            -4.6003292540435545,
            55.073234966099818
          ],
          [
            -4.5982325333333334,
            55.072263183333341
          ],
          [
            -4.5973020333333334,
            55.070925799999998
          ],
          [
            -4.5953989306742047,
            55.069475497143259
          ],
          [
            -4.5938363833333327,
            55.067901583333331
          ],
          [
            -4.5924793500000005,
            55.066398016666668
          ],
          [
            -4.591068616666667,
            55.064701666666657
          ],
          [
            -4.5898872333333331,
            55.063278383333333
          ],
          [
            -4.5893115,
            55.061668449999999
          ],
          [
            -4.5882453542382722,
            55.06026013477365
          ],
          [
            -4.5867620415871837,
            55.058916015436374
          ],
          [
            -4.585767356208196,
            55.057827009223899
          ],
          [
            -4.5852060981445035,
            55.056970144820511
          ],
          [
            -4.5808689517715342,
            55.064295034406314
          ],
          [
            -4.5796031669825377,
            55.065121437616824
          ],
          [
            -4.5789744016201439,
            55.06631071969224
          ],
          [
            -4.5776767501953648,
            55.067257046341219
          ],
          [
            -4.5765857160916621,
            55.068310123120071
          ],
          [
            -4.575766668584845,
            55.069472276604053
          ],
          [
            -4.574604153871543,
            55.070514756171832
          ],
          [
            -4.5738116764443824,
            55.071446927738897
          ],
          [
            -4.572154361519452,
            55.072080870463594
          ],
          [
            -4.5708961809408137,
            55.072834136552984
          ],
          [
            -4.5699387569113989,
            55.07362651658309
          ],
          [
            -4.5682706218466969,
            55.073753131479251
          ],
          [
            -4.5666261579639249,
            55.073764015238176
          ],
          [
            -4.5649652099620646,
            55.073814782356528
          ],
          [
            -4.5634070069143498,
            55.0739193683713
          ],
          [
            -4.5617921073095653,
            55.074021943438147
          ],
          [
            -4.5600704106345011,
            55.074168496180683
          ],
          [
            -4.5581897132447207,
            55.074343901392318
          ],
          [
            -4.5565427910891403,
            55.074479078535504
          ],
          [
            -4.5547192761099895,
            55.074618890837513
          ],
          [
            -4.5504821704886647,
            55.074467718095292
          ],
          [
            -4.5487472884297864,
            55.07389630943937
          ],
          [
            -4.5487472884297864,
            55.07389630943937
          ],
          [
            -4.547114321900831,
            55.073608290728579
          ],
          [
            -4.5453251173002736,
            55.073872992558755
          ],
          [
            -4.5426627696319377,
            55.074882865389384
          ],
          [
            -4.5399063276314395,
            55.075258082010819
          ],
          [
            -4.5387187834881351,
            55.075505577587052
          ],
          [
            -4.5382224532125406,
            55.073596464007437
          ],
          [
            -4.5382377001849168,
            55.073601068167548
          ],
          [
            -4.5391183898101186,
            55.072944579657261
          ],
          [
            -4.5398695744834869,
            55.072055659639169
          ],
          [
            -4.5475779316161242,
            55.071288938530259
          ],
          [
            -4.5533930413251626,
            55.074672067419904
          ],
          [
            -4.5534487547674996,
            55.074648748671905
          ],
          [
            -4.554456046587787,
            55.07432499195874
          ],
          [
            -4.5560237335001323,
            55.07425248758485
          ],
          [
            -4.5575313716108576,
            55.074006539345305
          ],
          [
            -4.5590456944961026,
            55.073751081189272
          ],
          [
            -4.5630022862095316,
            55.073525218946116
          ],
          [
            -4.5698663028450142,
            55.073239558592888
          ],
          [
            -4.5627630971934181,
            55.073514595673771
          ],
          [
            -4.5611211519691173,
            55.07351827647458
          ],
          [
            -4.558476081997286,
            55.073976059033811
          ],
          [
            -4.5583907461920239,
            55.073978097347762
          ],
          [
            -4.5579845052411452,
            55.073888556720874
          ],
          [
            -4.5579845052411452,
            55.073888556720874
          ],
          [
            -4.5511823539072216,
            55.074646320068418
          ]
        ],
        "type" : "LineString"
      }
    }
  ]
}