{
  "type" : "FeatureCollection",
  "features" : [
    {
      "geometry" : {
        "coordinates" : [
          -7.7968821899770635,
          55.223256868591761
        ],
        "type" : "Point"
      },
      "type" : "Feature",
      "properties" : {
        "source" : "Geory 5.3.2",
        "address" : "Tranarossan and Melmore Lough SAC, Irland",
        "type" : "visit",
        "timestamp" : "2026-04-29T17:40:45Z",
        "departure" : "2026-04-30T04:24:55Z",
        "rating" : 0,
        "device" : "B9E47AEB-E54C-4563-96B6-06995DD4BC56 (iPhone 16 Pro)",
        "weather" : "Klarer Himmel (12,9 °C)",
        "duration" : 38649.604167699814,
        "arrival" : "2026-04-29T17:40:45Z"
      }
    },
    {
      "properties" : {
        "duration" : 21697.335368871689,
        "device" : "B9E47AEB-E54C-4563-96B6-06995DD4BC56 (iPhone 16 Pro)",
        "source" : "Geory 5.3.2",
        "weather" : "Überwiegend bewölkt (9,3 °C)",
        "arrival" : "2026-04-30T04:29:16Z",
        "type" : "visit",
        "address" : "Tranarossan and Melmore Lough SAC, Irland",
        "timestamp" : "2026-04-30T04:29:16Z",
        "rating" : 0,
        "departure" : "2026-04-30T10:30:53Z"
      },
      "geometry" : {
        "type" : "Point",
        "coordinates" : [
          -7.7969379432831429,
          55.223302190221894
        ]
      },
      "type" : "Feature"
    },
    {
      "geometry" : {
        "coordinates" : [
          -7.7968747936337239,
          55.223263522305011
        ],
        "type" : "Point"
      },
      "type" : "Feature",
      "properties" : {
        "address" : "Tranarossan and Melmore Lough SAC, Irland",
        "duration" : 8245.0011148452759,
        "device" : "B9E47AEB-E54C-4563-96B6-06995DD4BC56 (iPhone 16 Pro)",
        "rating" : 0,
        "type" : "visit",
        "timestamp" : "2026-04-30T12:24:00Z",
        "departure" : "2026-04-30T14:41:26Z",
        "weather" : "Bedeckter Himmel (13,8 °C)",
        "arrival" : "2026-04-30T12:24:00Z",
        "source" : "Geory 5.3.2"
      }
    },
    {
      "type" : "Feature",
      "properties" : {
        "weather" : "Überwiegend bewölkt (14,3 °C)",
        "type" : "visit",
        "rating" : 0,
        "source" : "Geory 5.3.2",
        "timestamp" : "2026-04-30T14:41:27Z",
        "device" : "B9E47AEB-E54C-4563-96B6-06995DD4BC56 (iPhone 16 Pro)",
        "address" : "Tranarossan and Melmore Lough SAC, County Donegal, Irland",
        "departure" : "2026-04-30T16:56:54Z",
        "duration" : 8127.9991180896759,
        "arrival" : "2026-04-30T14:41:27Z"
      },
      "geometry" : {
        "type" : "Point",
        "coordinates" : [
          -7.791609081685154,
          55.226748654012553
        ]
      }
    },
    {
      "type" : "Feature",
      "geometry" : {
        "type" : "Point",
        "coordinates" : [
          -7.7968387743929606,
          55.223290325245159
        ]
      },
      "properties" : {
        "address" : "Tranarossan and Melmore Lough SAC, Irland",
        "duration" : 63823.000322818756,
        "weather" : "Bedeckter Himmel (14,2 °C)",
        "rating" : 0,
        "timestamp" : "2026-04-30T16:56:55Z",
        "source" : "Geory 5.3.2",
        "device" : "B9E47AEB-E54C-4563-96B6-06995DD4BC56 (iPhone 16 Pro)",
        "type" : "visit",
        "arrival" : "2026-04-30T16:56:55Z",
        "departure" : "2026-05-01T10:40:38Z"
      }
    },
    {
      "type" : "Feature",
      "geometry" : {
        "type" : "LineString",
        "coordinates" : [
          [
            -7.7968387743929606,
            55.223290325245159
          ],
          [
            -7.791609081685154,
            55.226748654012553
          ],
          [
            -7.7968747936337239,
            55.223263522305011
          ],
          [
            -7.7966940272856462,
            55.224511941510272
          ],
          [
            -7.7972421444637048,
            55.225370684530844
          ],
          [
            -7.7978362750861621,
            55.2262066902397
          ],
          [
            -7.7987366184639182,
            55.226986686076508
          ],
          [
            -7.7999754022627332,
            55.22758236700605
          ],
          [
            -7.8009848132794177,
            55.228321110340417
          ],
          [
            -7.800416311212186,
            55.22880102214959
          ],
          [
            -7.7996931598069859,
            55.229638005406549
          ],
          [
            -7.79800177339858,
            55.23123978256573
          ],
          [
            -7.7972301877592711,
            55.232066408939566
          ],
          [
            -7.7980058739760389,
            55.231225959743611
          ],
          [
            -7.7987749659869658,
            55.230401970147923
          ],
          [
            -7.7996805010453301,
            55.229664608377725
          ],
          [
            -7.8004627523646333,
            55.228864320037601
          ],
          [
            -7.8013088887503255,
            55.228106133213814
          ],
          [
            -7.8022758667343997,
            55.227369464428769
          ],
          [
            -7.8031070357686643,
            55.226586576418143
          ],
          [
            -7.803930699642577,
            55.225804006108909
          ],
          [
            -7.8047439074471141,
            55.225002549401268
          ],
          [
            -7.8055715145364495,
            55.22420252242776
          ],
          [
            -7.8063852818243786,
            55.223416508386883
          ],
          [
            -7.8072854522020121,
            55.222470397451794
          ],
          [
            -7.8072858903616202,
            55.221513910662196
          ],
          [
            -7.8071597486615953,
            55.220566152595474
          ],
          [
            -7.8079229496239124,
            55.219778992769577
          ],
          [
            -7.8090975317525775,
            55.219074877935327
          ],
          [
            -7.8102744798631534,
            55.218404444585545
          ],
          [
            -7.8112190220273456,
            55.217684655675384
          ],
          [
            -7.813702588317299,
            55.216620873291909
          ],
          [
            -7.8137473716104235,
            55.214904538882358
          ],
          [
            -7.8145144747017286,
            55.214277456753791
          ],
          [
            -7.8145116449737868,
            55.213362597657962
          ],
          [
            -7.8147054392860467,
            55.212440701680563
          ],
          [
            -7.8158868332120273,
            55.211831319238968
          ],
          [
            -7.8174765991360999,
            55.21188133244771
          ],
          [
            -7.818000396811815,
            55.211013619985103
          ],
          [
            -7.8178728081162019,
            55.210099806784626
          ],
          [
            -7.8177376887536205,
            55.209186349376679
          ],
          [
            -7.8178558790554362,
            55.208279657451421
          ],
          [
            -7.8177990191691631,
            55.207345764294452
          ],
          [
            -7.8163868174241307,
            55.206935031155396
          ],
          [
            -7.8150252586043116,
            55.206455112185665
          ],
          [
            -7.8138370194128566,
            55.205816709978407
          ],
          [
            -7.8132023121145817,
            55.204964584881459
          ],
          [
            -7.8139085349699053,
            55.204152208778254
          ],
          [
            -7.8151157347675353,
            55.203542097686523
          ],
          [
            -7.8161107763766298,
            55.202800172538581
          ],
          [
            -7.8165279681653459,
            55.201889400572973
          ],
          [
            -7.8176779246567953,
            55.201263521028231
          ],
          [
            -7.818283272756041,
            55.200372360033398
          ],
          [
            -7.8188800361208459,
            55.199531294223277
          ],
          [
            -7.8193490085327486,
            55.198637356958301
          ],
          [
            -7.8202413510503366,
            55.197860252854134
          ],
          [
            -7.8209363061011565,
            55.197022162026116
          ],
          [
            -7.8212200506418297,
            55.196104147567532
          ],
          [
            -7.8223749804353417,
            55.195320576210868
          ],
          [
            -7.8237293213769767,
            55.195284798797211
          ],
          [
            -7.8248482377199986,
            55.195922980128941
          ],
          [
            -7.8262155836938012,
            55.196389820164264
          ],
          [
            -7.8277917450180192,
            55.196285875357859
          ],
          [
            -7.8293567997397764,
            55.196073509834719
          ],
          [
            -7.8308663373900043,
            55.19578093728046
          ],
          [
            -7.8314309072504704,
            55.194915952350584
          ],
          [
            -7.8315825187422687,
            55.194003326164967
          ],
          [
            -7.8329642660107197,
            55.194454919387312
          ],
          [
            -7.8350247702459104,
            55.194788272410094
          ],
          [
            -7.8360616460440529,
            55.194828889722011
          ],
          [
            -7.8376572688929365,
            55.194905065746759
          ],
          [
            -7.8400137198223847,
            55.194433319646912
          ],
          [
            -7.8425946828677269,
            55.193519552359533
          ],
          [
            -7.8439597485511694,
            55.193274707721855
          ],
          [
            -7.8453614074067684,
            55.192856686784673
          ],
          [
            -7.8468966488030993,
            55.192558593601603
          ],
          [
            -7.8485288961463473,
            55.192570031206884
          ],
          [
            -7.8495700554101973,
            55.193254015914178
          ],
          [
            -7.8500977767640014,
            55.194119690803618
          ],
          [
            -7.8506371737902292,
            55.194964460592054
          ],
          [
            -7.8508493736923484,
            55.195885222444652
          ],
          [
            -7.849435511527509,
            55.196362937475662
          ],
          [
            -7.8481638402372935,
            55.196972731007634
          ],
          [
            -7.8480080957431424,
            55.197888657928182
          ],
          [
            -7.848767956655391,
            55.198723367766277
          ],
          [
            -7.8489526403705279,
            55.199687694360989
          ],
          [
            -7.8489345923808607,
            55.200562813769345
          ],
          [
            -7.8479191563529636,
            55.201290949235108
          ],
          [
            -7.8470691043556711,
            55.202065927831285
          ],
          [
            -7.8481881982046486,
            55.202748008009458
          ],
          [
            -7.8488464182699316,
            55.203572082718729
          ],
          [
            -7.8495979468529669,
            55.204415868335673
          ],
          [
            -7.8494964445558271,
            55.205366220211836
          ],
          [
            -7.850275824979259,
            55.206157313384338
          ],
          [
            -7.8514282751768132,
            55.206808658980385
          ],
          [
            -7.8525285672222216,
            55.207468494623143
          ],
          [
            -7.8536432197833941,
            55.208108793770336
          ],
          [
            -7.8541798788598332,
            55.209042697327547
          ],
          [
            -7.854760833753236,
            55.20986541732578
          ],
          [
            -7.8558841783899149,
            55.210506292495438
          ],
          [
            -7.8567174055901789,
            55.211299973413787
          ],
          [
            -7.8574168151557995,
            55.212128886959775
          ],
          [
            -7.8571734263496582,
            55.213226012520117
          ],
          [
            -7.8574630679952557,
            55.213901339651166
          ],
          [
            -7.8578455011799155,
            55.214803493595369
          ],
          [
            -7.8581473412305805,
            55.215859494881606
          ],
          [
            -7.8582429537398886,
            55.216842167007577
          ],
          [
            -7.8576221654602945,
            55.217687373790234
          ],
          [
            -7.8572279258861748,
            55.218566841771562
          ],
          [
            -7.8567782005930225,
            55.219431319909944
          ],
          [
            -7.8563371175932302,
            55.220293934021271
          ],
          [
            -7.8558940481185999,
            55.221188136462409
          ],
          [
            -7.8555518060170764,
            55.222087930004541
          ],
          [
            -7.8557837636156913,
            55.222980715086152
          ],
          [
            -7.8556169803356779,
            55.223896548784673
          ],
          [
            -7.8550162334312157,
            55.224727683776337
          ],
          [
            -7.8539892112363265,
            55.225443077552093
          ],
          [
            -7.8517463072966232,
            55.225262435143414
          ],
          [
            -7.8502950164906879,
            55.224966889375452
          ],
          [
            -7.8488984912961728,
            55.225385583545417
          ],
          [
            -7.8478821769362099,
            55.226071582189569
          ],
          [
            -7.8464811315113332,
            55.22655223372908
          ],
          [
            -7.8453405367103262,
            55.227251422949003
          ],
          [
            -7.8450446976308843,
            55.227680509998763
          ],
          [
            -7.8440717666892263,
            55.227803813672111
          ],
          [
            -7.8424867625814194,
            55.227835519618687
          ],
          [
            -7.8408794720019435,
            55.227841222320684
          ],
          [
            -7.8392697607465802,
            55.227796313613283
          ],
          [
            -7.837698722260539,
            55.227515975635399
          ],
          [
            -7.8362205634629278,
            55.22715157280242
          ],
          [
            -7.8346198059765273,
            55.227071727301926
          ],
          [
            -7.8330286385793464,
            55.226286521632382
          ],
          [
            -7.8315660699014442,
            55.224983220357167
          ],
          [
            -7.8308591330852382,
            55.224259008653583
          ],
          [
            -7.8297121388907769,
            55.223642071896684
          ],
          [
            -7.8287738508528779,
            55.222529266842635
          ],
          [
            -7.8276413484881386,
            55.221879287455437
          ],
          [
            -7.8276355447381363,
            55.22097935730045
          ],
          [
            -7.8283565727076496,
            55.220111401768449
          ],
          [
            -7.8272712229365986,
            55.219407016124663
          ],
          [
            -7.8259216547938975,
            55.21880465033226
          ],
          [
            -7.8243019011890009,
            55.218929287311177
          ],
          [
            -7.8227170626911544,
            55.218958866064078
          ],
          [
            -7.821104584847931,
            55.218855713485986
          ],
          [
            -7.8194936843143381,
            55.218851302640211
          ],
          [
            -7.8178746538537407,
            55.21887975589884
          ],
          [
            -7.8162847413247265,
            55.218794222683613
          ],
          [
            -7.8162847413247265,
            55.218794222683613
          ],
          [
            -7.8150332749245122,
            55.218231745459008
          ],
          [
            -7.8143841672178658,
            55.217385289226335
          ],
          [
            -7.8139063184865067,
            55.216497816268891
          ],
          [
            -7.8126883443066086,
            55.217103395772789
          ],
          [
            -7.8114313459594289,
            55.217653975365508
          ],
          [
            -7.8103376277087051,
            55.21831352361837
          ],
          [
            -7.8092878383307713,
            55.218998176421181
          ],
          [
            -7.8081963315917147,
            55.219661393690714
          ],
          [
            -7.8071825432468946,
            55.220540853723413
          ],
          [
            -7.8071197779604535,
            55.221302177962642
          ],
          [
            -7.8076986030017386,
            55.222149503732027
          ],
          [
            -7.80945790091865,
            55.222813914191107
          ],
          [
            -7.8102459068935115,
            55.223125579036861
          ],
          [
            -7.8115957642061096,
            55.223635648259112
          ],
          [
            -7.8129383055828319,
            55.22415714431645
          ],
          [
            -7.8140638391492629,
            55.224591255181579
          ],
          [
            -7.812705690733762,
            55.224078647618512
          ],
          [
            -7.8114208815763888,
            55.223574790772609
          ],
          [
            -7.810068481777888,
            55.223049398211053
          ],
          [
            -7.8087451441978635,
            55.222544936285644
          ],
          [
            -7.8071485208882141,
            55.222662957941118
          ],
          [
            -7.8063412946048745,
            55.223467427818932
          ],
          [
            -7.8055198909245309,
            55.224235462129627
          ],
          [
            -7.8046827828956973,
            55.225045308985919
          ],
          [
            -7.8038657650440912,
            55.225833656967069
          ],
          [
            -7.8030549527867787,
            55.226617195085026
          ],
          [
            -7.8021928703392822,
            55.227412283197978
          ],
          [
            -7.8006912842889626,
            55.227721478237875
          ],
          [
            -7.7991764381999831,
            55.227385158938951
          ],
          [
            -7.7981599070661067,
            55.226528766962502
          ],
          [
            -7.7969379432831429,
            55.223302190221894
          ],
          [
            -7.7973216154856368,
            55.225399019301747
          ],
          [
            -7.7968821899770635,
            55.223256868591761
          ]
        ]
      },
      "properties" : {
        "type" : "route",
        "end" : "2026-04-30T21:59:59Z",
        "start" : "2026-04-29T22:00:00Z",
        "device" : "B9E47AEB-E54C-4563-96B6-06995DD4BC56 (iPhone 16 Pro)",
        "source" : "Geory 5.3.2"
      }
    }
  ]
}