{
  "type" : "FeatureCollection",
  "features" : [
    {
      "type" : "Feature",
      "properties" : {
        "arrival" : "2026-05-10T21:43:03Z",
        "device" : "B9E47AEB-E54C-4563-96B6-06995DD4BC56 (iPhone 16 Pro)",
        "address" : "Maybole, KA19, Schottland",
        "departure" : "2026-05-10T22:13:59Z",
        "type" : "visit",
        "duration" : 1856.0934629440308,
        "timestamp" : "2026-05-10T21:43:03Z",
        "rating" : 0,
        "weather" : "Überwiegend bewölkt (9,8 °C)",
        "source" : "Geory 5.3.2"
      },
      "geometry" : {
        "coordinates" : [
          -4.7675631742030218,
          55.376303976869721
        ],
        "type" : "Point"
      }
    },
    {
      "type" : "Feature",
      "properties" : {
        "type" : "visit",
        "departure" : "2026-05-10T23:42:42Z",
        "device" : "B9E47AEB-E54C-4563-96B6-06995DD4BC56 (iPhone 16 Pro)",
        "rating" : 0,
        "source" : "Geory 5.3.2",
        "arrival" : "2026-05-10T22:18:55Z",
        "duration" : 5027.1729738712311,
        "address" : "Maybole, KA19, Schottland",
        "timestamp" : "2026-05-10T22:18:55Z",
        "weather" : "Überwiegend bewölkt (9,0 °C)"
      },
      "geometry" : {
        "coordinates" : [
          -4.767661948279275,
          55.376293443237273
        ],
        "type" : "Point"
      }
    },
    {
      "geometry" : {
        "type" : "Point",
        "coordinates" : [
          -4.7676553304904585,
          55.376278203703365
        ]
      },
      "type" : "Feature",
      "properties" : {
        "weather" : "Aufgelockert bewölkt (10,0 °C)",
        "address" : "Maybole, KA19, Schottland",
        "device" : "B9E47AEB-E54C-4563-96B6-06995DD4BC56 (iPhone 16 Pro)",
        "arrival" : "2026-05-10T23:43:19Z",
        "duration" : 5554.9912970066071,
        "type" : "visit",
        "source" : "Geory 5.3.2",
        "rating" : 0,
        "timestamp" : "2026-05-10T23:43:19Z",
        "departure" : "2026-05-11T01:15:54Z"
      }
    },
    {
      "type" : "Feature",
      "geometry" : {
        "coordinates" : [
          -4.7676376773453164,
          55.376282208889201
        ],
        "type" : "Point"
      },
      "properties" : {
        "address" : "Maybole, KA19, Schottland",
        "departure" : "2026-05-11T01:43:06Z",
        "type" : "visit",
        "source" : "Geory 5.3.2",
        "device" : "B9E47AEB-E54C-4563-96B6-06995DD4BC56 (iPhone 16 Pro)",
        "timestamp" : "2026-05-11T01:20:31Z",
        "duration" : 1355.7441470623016,
        "weather" : "Überwiegend bewölkt (8,8 °C)",
        "arrival" : "2026-05-11T01:20:31Z",
        "rating" : 0
      }
    },
    {
      "properties" : {
        "arrival" : "2026-05-11T01:57:50Z",
        "departure" : "2026-05-11T02:33:37Z",
        "duration" : 2147.0961327552795,
        "timestamp" : "2026-05-11T01:57:50Z",
        "rating" : 0,
        "address" : "Maybole, KA19, Schottland",
        "device" : "B9E47AEB-E54C-4563-96B6-06995DD4BC56 (iPhone 16 Pro)",
        "weather" : "Überwiegend bewölkt (8,8 °C)",
        "type" : "visit",
        "source" : "Geory 5.3.2"
      },
      "type" : "Feature",
      "geometry" : {
        "type" : "Point",
        "coordinates" : [
          -4.7676413264249735,
          55.376278492839361
        ]
      }
    },
    {
      "geometry" : {
        "coordinates" : [
          -4.767615031418786,
          55.376299045913939
        ],
        "type" : "Point"
      },
      "properties" : {
        "type" : "visit",
        "device" : "B9E47AEB-E54C-4563-96B6-06995DD4BC56 (iPhone 16 Pro)",
        "timestamp" : "2026-05-11T02:45:47Z",
        "departure" : "2026-05-11T03:32:38Z",
        "duration" : 2811.271609544754,
        "rating" : 0,
        "source" : "Geory 5.3.2",
        "arrival" : "2026-05-11T02:45:47Z",
        "address" : "Maybole, KA19, Schottland",
        "weather" : "Überwiegend bewölkt (7,6 °C)"
      },
      "type" : "Feature"
    },
    {
      "type" : "Feature",
      "geometry" : {
        "type" : "Point",
        "coordinates" : [
          -4.7676486930820605,
          55.376279275886446
        ]
      },
      "properties" : {
        "weather" : "Überwiegend bewölkt (5,8 °C)",
        "device" : "B9E47AEB-E54C-4563-96B6-06995DD4BC56 (iPhone 16 Pro)",
        "departure" : "2026-05-11T04:26:49Z",
        "address" : "Maybole, KA19, Schottland",
        "duration" : 1970.8512997627258,
        "rating" : 0,
        "source" : "Geory 5.3.2",
        "timestamp" : "2026-05-11T03:53:58Z",
        "type" : "visit",
        "arrival" : "2026-05-11T03:53:58Z"
      }
    },
    {
      "type" : "Feature",
      "geometry" : {
        "coordinates" : [
          -4.767663198403624,
          55.376316060730595
        ],
        "type" : "Point"
      },
      "properties" : {
        "source" : "Geory 5.3.2",
        "arrival" : "2026-05-11T04:59:06Z",
        "weather" : "Überwiegend bewölkt (6,0 °C)",
        "rating" : 0,
        "device" : "B9E47AEB-E54C-4563-96B6-06995DD4BC56 (iPhone 16 Pro)",
        "duration" : 1483.9545562267303,
        "address" : "Maybole, KA19, Schottland",
        "timestamp" : "2026-05-11T04:59:06Z",
        "type" : "visit",
        "departure" : "2026-05-11T05:23:49Z"
      }
    },
    {
      "properties" : {
        "departure" : "2026-05-11T05:55:46Z",
        "duration" : 1253.0572276115417,
        "weather" : "Überwiegend bewölkt (6,1 °C)",
        "device" : "B9E47AEB-E54C-4563-96B6-06995DD4BC56 (iPhone 16 Pro)",
        "arrival" : "2026-05-11T05:34:53Z",
        "address" : "Maybole, KA19, Schottland",
        "timestamp" : "2026-05-11T05:34:53Z",
        "source" : "Geory 5.3.2",
        "rating" : 0,
        "type" : "visit"
      },
      "geometry" : {
        "coordinates" : [
          -4.767697078220734,
          55.37629315979774
        ],
        "type" : "Point"
      },
      "type" : "Feature"
    },
    {
      "properties" : {
        "address" : "Maybole, KA19, Schottland",
        "timestamp" : "2026-05-11T06:05:13Z",
        "weather" : "Überwiegend bewölkt (5,8 °C)",
        "departure" : "2026-05-11T07:02:24Z",
        "type" : "visit",
        "duration" : 3430.1309249401093,
        "device" : "B9E47AEB-E54C-4563-96B6-06995DD4BC56 (iPhone 16 Pro)",
        "rating" : 0,
        "source" : "Geory 5.3.2",
        "arrival" : "2026-05-11T06:05:13Z"
      },
      "geometry" : {
        "coordinates" : [
          -4.7677067242582707,
          55.376307832075724
        ],
        "type" : "Point"
      },
      "type" : "Feature"
    },
    {
      "type" : "Feature",
      "geometry" : {
        "coordinates" : [
          -4.7676679846596137,
          55.376304827917743
        ],
        "type" : "Point"
      },
      "properties" : {
        "duration" : 1511.436692237854,
        "rating" : 0,
        "source" : "Geory 5.3.2",
        "arrival" : "2026-05-11T07:16:15Z",
        "type" : "visit",
        "timestamp" : "2026-05-11T07:16:15Z",
        "device" : "B9E47AEB-E54C-4563-96B6-06995DD4BC56 (iPhone 16 Pro)",
        "weather" : "Klarer Himmel (5,8 °C)",
        "departure" : "2026-05-11T07:41:26Z",
        "address" : "Maybole, KA19, Schottland"
      }
    },
    {
      "type" : "Feature",
      "properties" : {
        "type" : "visit",
        "arrival" : "2026-05-11T07:41:35Z",
        "address" : "Maybole, KA19, Schottland",
        "duration" : 1079.6570544242859,
        "timestamp" : "2026-05-11T07:41:35Z",
        "departure" : "2026-05-11T07:59:35Z",
        "rating" : 0,
        "source" : "Geory 5.3.2",
        "weather" : "Klarer Himmel (7,1 °C)",
        "device" : "B9E47AEB-E54C-4563-96B6-06995DD4BC56 (iPhone 16 Pro)"
      },
      "geometry" : {
        "type" : "Point",
        "coordinates" : [
          -4.7676644960660877,
          55.376314782358065
        ]
      }
    },
    {
      "properties" : {
        "arrival" : "2026-05-11T08:08:02Z",
        "duration" : 3516.023921251297,
        "type" : "visit",
        "device" : "B9E47AEB-E54C-4563-96B6-06995DD4BC56 (iPhone 16 Pro)",
        "weather" : "Leicht bewölkt (8,0 °C)",
        "timestamp" : "2026-05-11T08:08:02Z",
        "departure" : "2026-05-11T09:06:38Z",
        "source" : "Geory 5.3.2",
        "address" : "Croy House Hotel, Croy, Maybole, KA19 8JS, Schottland",
        "rating" : 0
      },
      "type" : "Feature",
      "geometry" : {
        "type" : "Point",
        "coordinates" : [
          -4.7688369862558853,
          55.376218428564357
        ]
      }
    },
    {
      "type" : "Feature",
      "geometry" : {
        "coordinates" : [
          -4.6074694694471159,
          55.467891716801169
        ],
        "type" : "Point"
      },
      "properties" : {
        "duration" : 5578.6951332092285,
        "weather" : "Aufgelockert bewölkt (9,0 °C)",
        "source" : "Geory 5.3.2",
        "timestamp" : "2026-05-11T09:55:12Z",
        "rating" : 0,
        "device" : "B9E47AEB-E54C-4563-96B6-06995DD4BC56 (iPhone 16 Pro)",
        "arrival" : "2026-05-11T09:55:12Z",
        "address" : "42–50 Gemmell Crescent, KA8, Schottland",
        "departure" : "2026-05-11T11:28:10Z",
        "type" : "visit"
      }
    },
    {
      "properties" : {
        "address" : "Wemyss Bay, Skelmorlie, PA17, Schottland",
        "departure" : "2026-05-11T13:05:51Z",
        "type" : "visit",
        "timestamp" : "2026-05-11T12:33:53Z",
        "source" : "Geory 5.3.2",
        "device" : "B9E47AEB-E54C-4563-96B6-06995DD4BC56 (iPhone 16 Pro)",
        "weather" : "Überwiegend bewölkt (9,9 °C)",
        "duration" : 1917.7047584056854,
        "rating" : 0,
        "arrival" : "2026-05-11T12:33:53Z"
      },
      "type" : "Feature",
      "geometry" : {
        "coordinates" : [
          -4.8899496030316367,
          55.875666495042339
        ],
        "type" : "Point"
      }
    },
    {
      "properties" : {
        "device" : "B9E47AEB-E54C-4563-96B6-06995DD4BC56 (iPhone 16 Pro)",
        "type" : "visit",
        "departure" : "2026-05-11T14:20:09Z",
        "timestamp" : "2026-05-11T13:54:05Z",
        "address" : "B875, Rothesay, Isle Of Bute, PA20, Schottland",
        "arrival" : "2026-05-11T13:54:05Z",
        "weather" : "Aufgelockert bewölkt (14,0 °C)",
        "rating" : 0,
        "duration" : 1564.0006470680237,
        "source" : "Geory 5.3.2"
      },
      "type" : "Feature",
      "geometry" : {
        "coordinates" : [
          -5.1394691061678159,
          55.85081176753264
        ],
        "type" : "Point"
      }
    },
    {
      "type" : "Feature",
      "properties" : {
        "address" : "Langalbuinoch, Kingarth, Isle Of Bute, PA20 9PF, Schottland",
        "type" : "visit",
        "duration" : 1332.0070199966431,
        "weather" : "Aufgelockert bewölkt (14,5 °C)",
        "rating" : 0,
        "source" : "Geory 5.3.2",
        "timestamp" : "2026-05-11T14:51:32Z",
        "arrival" : "2026-05-11T14:51:32Z",
        "departure" : "2026-05-11T15:13:44Z",
        "device" : "B9E47AEB-E54C-4563-96B6-06995DD4BC56 (iPhone 16 Pro)"
      },
      "geometry" : {
        "type" : "Point",
        "coordinates" : [
          -5.0575854738628401,
          55.766208475218164
        ]
      }
    },
    {
      "type" : "Feature",
      "properties" : {
        "device" : "B9E47AEB-E54C-4563-96B6-06995DD4BC56 (iPhone 16 Pro)",
        "arrival" : "2026-05-11T15:27:42Z",
        "timestamp" : "2026-05-11T15:27:42Z",
        "duration" : 5071.6986939907074,
        "address" : "Isle Of Bute, PA20, Schottland",
        "weather" : "Aufgelockert bewölkt (12,4 °C)",
        "rating" : 0,
        "source" : "Geory 5.3.2",
        "type" : "visit",
        "departure" : "2026-05-11T16:52:14Z"
      },
      "geometry" : {
        "type" : "Point",
        "coordinates" : [
          -5.0158556992092693,
          55.747091616561185
        ]
      }
    },
    {
      "type" : "Feature",
      "properties" : {
        "device" : "B9E47AEB-E54C-4563-96B6-06995DD4BC56 (iPhone 16 Pro)",
        "address" : "The Old Schoolhouse, Kingarth, Isle Of Bute, PA20 9LU, Schottland",
        "duration" : 5213.000470161438,
        "weather" : "Aufgelockert bewölkt (11,2 °C)",
        "timestamp" : "2026-05-11T17:39:09Z",
        "arrival" : "2026-05-11T17:39:09Z",
        "source" : "Geory 5.3.2",
        "departure" : "2026-05-11T19:06:02Z",
        "type" : "visit",
        "rating" : 0
      },
      "geometry" : {
        "type" : "Point",
        "coordinates" : [
          -5.0399888891395008,
          55.7630640697122
        ]
      }
    },
    {
      "type" : "Feature",
      "geometry" : {
        "coordinates" : [
          -5.0158142115287525,
          55.747067772989205
        ],
        "type" : "Point"
      },
      "properties" : {
        "address" : "Isle Of Bute, PA20, Schottland",
        "weather" : "Überwiegend bewölkt (8,6 °C)",
        "rating" : 0,
        "timestamp" : "2026-05-11T19:40:58Z",
        "duration" : 62154.000238895416,
        "arrival" : "2026-05-11T19:40:58Z",
        "departure" : "2026-05-12T12:56:53Z",
        "source" : "Geory 5.3.2",
        "type" : "visit",
        "device" : "B9E47AEB-E54C-4563-96B6-06995DD4BC56 (iPhone 16 Pro)"
      }
    },
    {
      "properties" : {
        "device" : "B9E47AEB-E54C-4563-96B6-06995DD4BC56 (iPhone 16 Pro)",
        "start" : "2026-05-10T22:00:00Z",
        "end" : "2026-05-11T21:59:59Z",
        "source" : "Geory 5.3.2",
        "type" : "route"
      },
      "type" : "Feature",
      "geometry" : {
        "type" : "LineString",
        "coordinates" : [
          [
            -5.0158142115287525,
            55.747067772989205
          ],
          [
            -5.0178844483202418,
            55.747614902400528
          ],
          [
            -5.0191042426561383,
            55.748192375491499
          ],
          [
            -5.0210058371092829,
            55.74894723663941
          ],
          [
            -5.0220541575023905,
            55.74940635513542
          ],
          [
            -5.023086750173321,
            55.750031528302522
          ],
          [
            -5.0241849978123287,
            55.750689706481779
          ],
          [
            -5.0283228133572475,
            55.752197376590274
          ],
          [
            -5.0294907332517402,
            55.752728288752763
          ],
          [
            -5.0308202816397198,
            55.753224997388152
          ],
          [
            -5.0322678706722659,
            55.753628699714547
          ],
          [
            -5.0326463260685665,
            55.754503793096063
          ],
          [
            -5.0325664397351524,
            55.755411448871556
          ],
          [
            -5.032413699727627,
            55.756315920284635
          ],
          [
            -5.0323744038909908,
            55.757219182181601
          ],
          [
            -5.0322483425276952,
            55.75812921830623
          ],
          [
            -5.0321098243224744,
            55.759033987848888
          ],
          [
            -5.0319771029142313,
            55.759932585543858
          ],
          [
            -5.0318652597928102,
            55.760830009768696
          ],
          [
            -5.0323853478368719,
            55.761685169584112
          ],
          [
            -5.0335424997356517,
            55.762309634434274
          ],
          [
            -5.035017716639401,
            55.762655565807414
          ],
          [
            -5.0371554621216905,
            55.762942250726006
          ],
          [
            -5.0399888891395008,
            55.7630640697122
          ],
          [
            -5.0447204695278449,
            55.761083005171528
          ],
          [
            -5.0447172257148427,
            55.760175516383867
          ],
          [
            -5.044398880419652,
            55.75928524612528
          ],
          [
            -5.0426984614834698,
            55.756659182831221
          ],
          [
            -5.0435527017993236,
            55.756785271619066
          ],
          [
            -5.0434030336388727,
            55.755838096013619
          ],
          [
            -5.0432736424996767,
            55.754976867177511
          ],
          [
            -5.043117066380419,
            55.754076554322012
          ],
          [
            -5.0416442388823128,
            55.753731825712443
          ],
          [
            -5.0401959009243038,
            55.753350345365156
          ],
          [
            -5.038606310992332,
            55.753232618189173
          ],
          [
            -5.0370069502446491,
            55.753152631358745
          ],
          [
            -5.0358895319573689,
            55.753022519270203
          ],
          [
            -5.0328226438117509,
            55.752745563959593
          ],
          [
            -5.0315384235982368,
            55.752634400541893
          ],
          [
            -5.0293046180492009,
            55.751973117874371
          ],
          [
            -5.0268257967058307,
            55.751613925185687
          ],
          [
            -5.0254412581792414,
            55.751167229763496
          ],
          [
            -5.024065236045935,
            55.750688871577978
          ],
          [
            -5.0229682565289888,
            55.75002851293236
          ],
          [
            -5.0224568481871783,
            55.749681291470019
          ],
          [
            -5.0219160156954308,
            55.749337675755228
          ],
          [
            -5.0206018783345296,
            55.748812605461765
          ],
          [
            -5.0185526775574809,
            55.747974803021641
          ],
          [
            -5.0158556992092693,
            55.747091616561185
          ],
          [
            -5.0177179333333335,
            55.747579349999988
          ],
          [
            -5.0189434166666667,
            55.748156966666663
          ],
          [
            -5.0202780666666662,
            55.74868883333334
          ],
          [
            -5.0219139666666663,
            55.749324999999999
          ],
          [
            -5.0231645333333343,
            55.750179399999993
          ],
          [
            -5.0243556666666667,
            55.750829299999999
          ],
          [
            -5.0263019500000006,
            55.751508250000008
          ],
          [
            -5.0271302999999996,
            55.75178975
          ],
          [
            -5.0284316333333328,
            55.752347399999991
          ],
          [
            -5.0297784166666659,
            55.752898566666666
          ],
          [
            -5.0312420499999995,
            55.753321050000004
          ],
          [
            -5.0326452833333333,
            55.754178033333332
          ],
          [
            -5.0325784000000002,
            55.755369400000006
          ],
          [
            -5.0323992666666673,
            55.756647533333343
          ],
          [
            -5.0322135833333332,
            55.757780733333327
          ],
          [
            -5.0320247333333334,
            55.758944033333336
          ],
          [
            -5.0318268666666661,
            55.76011028333334
          ],
          [
            -5.0317073499999996,
            55.761218849999992
          ],
          [
            -5.0328326000000008,
            55.762072050000008
          ],
          [
            -5.0346811000000002,
            55.762663966666665
          ],
          [
            -5.0365607499999996,
            55.762953366666672
          ],
          [
            -5.0383765499999997,
            55.763146066666671
          ],
          [
            -5.0399964240183337,
            55.763342538712628
          ],
          [
            -5.0412973833333341,
            55.762694583333328
          ],
          [
            -5.0429567000000004,
            55.762017249999992
          ],
          [
            -5.0447624500000003,
            55.761579449999999
          ],
          [
            -5.0470974333333336,
            55.762104866666675
          ],
          [
            -5.0493252333333336,
            55.762642800000009
          ],
          [
            -5.0514308666666663,
            55.763152116666674
          ],
          [
            -5.0535843333333323,
            55.764010616666667
          ],
          [
            -5.0554474666666671,
            55.764770333333338
          ],
          [
            -5.056934383333334,
            55.765686016666656
          ],
          [
            -5.0575169499999992,
            55.766827383333343
          ],
          [
            -5.0582495999999999,
            55.767677216666669
          ],
          [
            -5.0593468833333333,
            55.768672916666674
          ],
          [
            -5.0613270833333335,
            55.769253633333328
          ],
          [
            -5.0632767166666666,
            55.76961428333334
          ],
          [
            -5.0651860500000003,
            55.769979366666668
          ],
          [
            -5.0667320999999994,
            55.770414766666669
          ],
          [
            -5.0681296046127491,
            55.770896051131643
          ],
          [
            -5.0673188833333329,
            55.770589133333331
          ],
          [
            -5.0656730000000003,
            55.769991250000004
          ],
          [
            -5.0637951166666655,
            55.769577550000001
          ],
          [
            -5.0637951166666655,
            55.769577550000001
          ],
          [
            -5.0621823333333325,
            55.769289683333334
          ],
          [
            -5.0602757499999997,
            55.768971733333338
          ],
          [
            -5.0586675166666666,
            55.767986333333326
          ],
          [
            -5.0575854738628401,
            55.766208475218164
          ],
          [
            -5.0580527333333327,
            55.767362550000009
          ],
          [
            -5.0590210500000001,
            55.768433000000002
          ],
          [
            -5.0605670333333332,
            55.769106916666665
          ],
          [
            -5.0626881333333333,
            55.769491566666659
          ],
          [
            -5.0647367333333335,
            55.769880433333341
          ],
          [
            -5.0664405666666656,
            55.770281083333337
          ],
          [
            -5.06772825,
            55.770820700000002
          ],
          [
            -5.06970835,
            55.77146166666666
          ],
          [
            -5.0716576666666668,
            55.771747033333334
          ],
          [
            -5.0731951833333326,
            55.77248813333334
          ],
          [
            -5.07372595,
            55.773670733333333
          ],
          [
            -5.074511199999999,
            55.774527366666668
          ],
          [
            -5.0765847666666657,
            55.77449983333333
          ],
          [
            -5.0782977333333337,
            55.774852416666668
          ],
          [
            -5.0797444666666669,
            55.77555911666667
          ],
          [
            -5.0803504166666666,
            55.776580366666671
          ],
          [
            -5.0809740999999997,
            55.77783800000001
          ],
          [
            -5.0811708333333332,
            55.778978183333329
          ],
          [
            -5.081101883333333,
            55.780069716666667
          ],
          [
            -5.0810632333333334,
            55.781016399999999
          ],
          [
            -5.0831155166666671,
            55.781014800000001
          ],
          [
            -5.0855415166666669,
            55.78100378333334
          ],
          [
            -5.0881652166666669,
            55.781218700000004
          ],
          [
            -5.0903661333333332,
            55.781863933333341
          ],
          [
            -5.0928185166666671,
            55.782364000000008
          ],
          [
            -5.095196183333333,
            55.782868233333332
          ],
          [
            -5.0963167333333335,
            55.783392716666675
          ],
          [
            -5.0981139166666667,
            55.784304633333342
          ],
          [
            -5.0993395999999995,
            55.785069383333337
          ],
          [
            -5.1016328499999997,
            55.785041733333337
          ],
          [
            -5.1033747666666667,
            55.784500866666662
          ],
          [
            -5.1046433499999999,
            55.783609016666666
          ],
          [
            -5.1058898333333333,
            55.782663050000004
          ],
          [
            -5.1066849166666666,
            55.781712666666671
          ],
          [
            -5.1071911333333331,
            55.780757366666663
          ],
          [
            -5.1080372000000001,
            55.779964183333334
          ],
          [
            -5.1088277166666671,
            55.779106766666672
          ],
          [
            -5.1103070833333337,
            55.778644166666659
          ],
          [
            -5.1116174500000007,
            55.779326333333337
          ],
          [
            -5.1123349999999999,
            55.780177533333337
          ],
          [
            -5.1130757166666667,
            55.781216616666676
          ],
          [
            -5.1141927666666662,
            55.782342633333336
          ],
          [
            -5.1152528999999998,
            55.783360416666667
          ],
          [
            -5.1163025666666666,
            55.784392499999996
          ],
          [
            -5.11734855,
            55.78535668333334
          ],
          [
            -5.11849855,
            55.786250800000005
          ],
          [
            -5.1195896833333334,
            55.787061733333331
          ],
          [
            -5.1200807166666671,
            55.787998133333339
          ],
          [
            -5.1205902499999993,
            55.789003399999999
          ],
          [
            -5.1202631333333333,
            55.790137716666671
          ],
          [
            -5.120044766666668,
            55.791183383333326
          ],
          [
            -5.1196581833333328,
            55.792314633333341
          ],
          [
            -5.1192805666666663,
            55.79339903333333
          ],
          [
            -5.1181908999999992,
            55.794640749999992
          ],
          [
            -5.1178879666666672,
            55.795356433333339
          ],
          [
            -5.1174332333333332,
            55.796620616666665
          ],
          [
            -5.1171103833333333,
            55.797669250000006
          ],
          [
            -5.1162851833333329,
            55.798725066666677
          ],
          [
            -5.1155126166666669,
            55.799590216666665
          ],
          [
            -5.1150155666666661,
            55.80065055
          ],
          [
            -5.1144499333333329,
            55.80159008333333
          ],
          [
            -5.1137619868984867,
            55.802513216087604
          ],
          [
            -5.1127020333333331,
            55.803478200000001
          ],
          [
            -5.1119755209692226,
            55.804431090696411
          ],
          [
            -5.1104434211030734,
            55.805328588284475
          ],
          [
            -5.1090889166666669,
            55.806130766666669
          ],
          [
            -5.108368716666666,
            55.807008033333339
          ],
          [
            -5.107551916666667,
            55.808162233333327
          ],
          [
            -5.1069101666666663,
            55.809076866666665
          ],
          [
            -5.1063150833333335,
            55.809990716666668
          ],
          [
            -5.1059166833333336,
            55.810914266666664
          ],
          [
            -5.1046866333333343,
            55.811577366666668
          ],
          [
            -5.1038040333333337,
            55.812409700000003
          ],
          [
            -5.1029939166666667,
            55.813289366666673
          ],
          [
            -5.1025579333333333,
            55.814157416666667
          ],
          [
            -5.1016241339726598,
            55.814919679250487
          ],
          [
            -5.100515918909946,
            55.815892968325848
          ],
          [
            -5.0995358660031718,
            55.816898489270628
          ],
          [
            -5.0988188000000001,
            55.817820183333332
          ],
          [
            -5.0979523000000002,
            55.818805166666671
          ],
          [
            -5.0976633666666666,
            55.81994138333333
          ],
          [
            -5.0972089,
            55.821186833333336
          ],
          [
            -5.0967117666666661,
            55.822241183333333
          ],
          [
            -5.0970055666666667,
            55.823371033333324
          ],
          [
            -5.0991477666666674,
            55.822749916666666
          ],
          [
            -5.1011665666666666,
            55.822173933333332
          ],
          [
            -5.1033130833333331,
            55.821566500000003
          ],
          [
            -5.1050471666666661,
            55.821076916666669
          ],
          [
            -5.1072713333333333,
            55.820956166666669
          ],
          [
            -5.1093408499999997,
            55.820932916666671
          ],
          [
            -5.1114723,
            55.820401583333329
          ],
          [
            -5.1133211833333334,
            55.81956306666666
          ],
          [
            -5.1151002166666668,
            55.818713266666663
          ],
          [
            -5.1175464166666664,
            55.819376933333324
          ],
          [
            -5.1185442500000002,
            55.820901466666662
          ],
          [
            -5.1194664666666663,
            55.8222345
          ],
          [
            -5.120393616666667,
            55.823574666666673
          ],
          [
            -5.1213019500000003,
            55.824888466666671
          ],
          [
            -5.1221775166666665,
            55.826155633333336
          ],
          [
            -5.1230779666666661,
            55.827466799999996
          ],
          [
            -5.1240830833333328,
            55.828929433333329
          ],
          [
            -5.1251800333333337,
            55.830501516666665
          ],
          [
            -5.1261575500000003,
            55.831903333333337
          ],
          [
            -5.1271097166666664,
            55.833340450000001
          ],
          [
            -5.1279715000000001,
            55.834780516666662
          ],
          [
            -5.1285325000000004,
            55.835694283333332
          ],
          [
            -5.1287132666666668,
            55.836923766666658
          ],
          [
            -5.1283740166666663,
            55.838284049999992
          ],
          [
            -5.128100450491079,
            55.839200193087486
          ],
          [
            -5.127620424117322,
            55.840581787672988
          ],
          [
            -5.1265846756026328,
            55.842766731759852
          ],
          [
            -5.1260943000000001,
            55.8436497
          ],
          [
            -5.124502783333333,
            55.844364266666666
          ],
          [
            -5.1228042666666669,
            55.845093716666661
          ],
          [
            -5.1211540833333329,
            55.845996349999993
          ],
          [
            -5.1202795666666656,
            55.847006733333338
          ],
          [
            -5.1198660499999997,
            55.848268416666663
          ],
          [
            -5.1190379000000004,
            55.849599716666674
          ],
          [
            -5.1179524000000001,
            55.850894733333341
          ],
          [
            -5.1166728666666668,
            55.852285866666669
          ],
          [
            -5.1155020109305447,
            55.853617608447763
          ],
          [
            -5.114465236493956,
            55.854814107427849
          ],
          [
            -5.1134814754626792,
            55.855909503913928
          ],
          [
            -5.1121344602007595,
            55.856905110430716
          ],
          [
            -5.1108325540148334,
            55.85768070191925
          ],
          [
            -5.1094925785201886,
            55.858361323253405
          ],
          [
            -5.10901292718252,
            55.859429229400966
          ],
          [
            -5.1108906666666662,
            55.859441966666658
          ],
          [
            -5.1128659166666663,
            55.859639166666668
          ],
          [
            -5.1155032166666663,
            55.85928766666666
          ],
          [
            -5.1180980833333329,
            55.858901749999994
          ],
          [
            -5.1206413666666668,
            55.858500883333335
          ],
          [
            -5.1231396280919332,
            55.858149480148271
          ],
          [
            -5.1253523687570288,
            55.85748620911388
          ],
          [
            -5.1262563666666665,
            55.855963116666665
          ],
          [
            -5.1271559666666668,
            55.855162549999989
          ],
          [
            -5.1286155666666664,
            55.853855516666663
          ],
          [
            -5.1306610333333325,
            55.852887599999995
          ],
          [
            -5.132450583333334,
            55.852035999999998
          ],
          [
            -5.132450583333334,
            55.852035999999998
          ],
          [
            -5.1340662999999997,
            55.85135545
          ],
          [
            -5.1362043999999996,
            55.850549000000001
          ],
          [
            -5.1394691061678159,
            55.85081176753264
          ],
          [
            -5.1356837500000001,
            55.852757249999996
          ],
          [
            -5.1340460999999999,
            55.853284683333342
          ],
          [
            -5.1325793919760674,
            55.853813769786399
          ],
          [
            -5.1306698499999994,
            55.854450900000003
          ],
          [
            -5.1285815333333336,
            55.854964583333334
          ],
          [
            -5.1269287666666665,
            55.855717599999998
          ],
          [
            -5.125890683333334,
            55.856836383333331
          ],
          [
            -5.1245355842862077,
            55.857849495516341
          ],
          [
            -5.1221531333333337,
            55.858274050000006
          ],
          [
            -5.1196137512286128,
            55.858634672801465
          ],
          [
            -5.1169184938869332,
            55.859038350278617
          ],
          [
            -5.1145075466927787,
            55.859389329527211
          ],
          [
            -5.1125483868933088,
            55.859577798092978
          ],
          [
            -5.1099981321103618,
            55.859411045009459
          ],
          [
            -5.1071136833333339,
            55.859363100000003
          ],
          [
            -5.1043958333333332,
            55.859316749999998
          ],
          [
            -5.1016740999999994,
            55.859263766666665
          ],
          [
            -5.099142633333333,
            55.859402433333329
          ],
          [
            -5.0960932333333329,
            55.859766933333333
          ],
          [
            -5.0941554500000006,
            55.860206783333325
          ],
          [
            -5.092260033333333,
            55.860649266666663
          ],
          [
            -5.0909349333333331,
            55.861232433333328
          ],
          [
            -5.0892771666666663,
            55.861114499999999
          ],
          [
            -5.0876889500000004,
            55.860927700000005
          ],
          [
            -5.0861482500000008,
            55.86065811666667
          ],
          [
            -5.0845652833333332,
            55.860287699999994
          ],
          [
            -5.0829198500000006,
            55.860015966666666
          ],
          [
            -5.0812381666666662,
            55.860072216666666
          ],
          [
            -5.0797323573701432,
            55.860427462785815
          ],
          [
            -5.0781309778008099,
            55.860645224412579
          ],
          [
            -5.0756380556164666,
            55.860393345001896
          ],
          [
            -5.0733669981336185,
            55.860149245523871
          ],
          [
            -5.0716289225435478,
            55.859909136045012
          ],
          [
            -5.0700598693184089,
            55.859236494292169
          ],
          [
            -5.0690507499999997,
            55.858513266666655
          ],
          [
            -5.0680737999999996,
            55.8577923
          ],
          [
            -5.0669613666666669,
            55.857075966666663
          ],
          [
            -5.0656700999999993,
            55.85653871666667
          ],
          [
            -5.064375216666666,
            55.855940933333336
          ],
          [
            -5.0632799666666664,
            55.855006883333338
          ],
          [
            -5.06256255,
            55.853983016666675
          ],
          [
            -5.0627977,
            55.852678683333338
          ],
          [
            -5.0627093666666667,
            55.851474400000008
          ],
          [
            -5.0626975999999999,
            55.850477716666667
          ],
          [
            -5.0629102331930378,
            55.849121820738375
          ],
          [
            -5.0631802486496493,
            55.848606003700141
          ],
          [
            -5.06325135584793,
            55.847384403086245
          ],
          [
            -5.062907409373647,
            55.846078753122264
          ],
          [
            -5.0627344999999995,
            55.844794416666673
          ],
          [
            -5.0626173070014522,
            55.84353292296845
          ],
          [
            -5.0624190064104013,
            55.842536580312881
          ],
          [
            -5.0620392000000001,
            55.841619533333336
          ],
          [
            -5.0613732833333334,
            55.840721916666681
          ],
          [
            -5.0605418223149909,
            55.839908219072363
          ],
          [
            -5.0595187172823959,
            55.839149725262018
          ],
          [
            -5.0583665428798614,
            55.838511862326605
          ],
          [
            -5.0554405166666667,
            55.837657466666663
          ],
          [
            -5.05355634257063,
            55.838943931792329
          ],
          [
            -5.0529098599820577,
            55.839291907595474
          ],
          [
            -5.0535477016523949,
            55.840118769726388
          ],
          [
            -5.0531521529096937,
            55.84105003117557
          ],
          [
            -5.053032151570191,
            55.841947701568628
          ],
          [
            -5.0522088350589236,
            55.842793246386904
          ],
          [
            -5.0514783741010874,
            55.843604572366722
          ],
          [
            -5.0506030569776543,
            55.8444206853084
          ],
          [
            -5.0497556166702884,
            55.845207598894703
          ],
          [
            -5.0488240908199202,
            55.845969939668493
          ],
          [
            -5.0477150861588198,
            55.846622861577949
          ],
          [
            -5.0464379255958116,
            55.847168650820635
          ],
          [
            -5.0450334773540559,
            55.847692662988422
          ],
          [
            -5.0435816221139298,
            55.848076981985564
          ],
          [
            -5.0420655656209945,
            55.848407096980644
          ],
          [
            -5.040537501908692,
            55.848758763387835
          ],
          [
            -5.0390171042019389,
            55.849084754215959
          ],
          [
            -5.0374895565672988,
            55.849403065330598
          ],
          [
            -5.0359098713555142,
            55.849598663834868
          ],
          [
            -5.0342754992249201,
            55.849719774939302
          ],
          [
            -5.0326281494066496,
            55.849809920294163
          ],
          [
            -5.0309648550372721,
            55.849805071396496
          ],
          [
            -5.0292969351889143,
            55.849790388129136
          ],
          [
            -5.0276332904123633,
            55.849730777253875
          ],
          [
            -5.0259708420867906,
            55.849660267362026
          ],
          [
            -5.0242134023512097,
            55.849569501014244
          ],
          [
            -5.0226600530778631,
            55.849501251892718
          ],
          [
            -5.0209763653234711,
            55.849463509903558
          ],
          [
            -5.0193159814487744,
            55.84940361326121
          ],
          [
            -5.017650789647206,
            55.849338934707511
          ],
          [
            -5.0159874060777225,
            55.849275915796895
          ],
          [
            -5.0143289358990417,
            55.849216471117302
          ],
          [
            -5.0126758135581673,
            55.849166390731085
          ],
          [
            -5.0110141500012482,
            55.849120559059074
          ],
          [
            -5.00935585344227,
            55.849075148005333
          ],
          [
            -5.0077141098118938,
            55.849014611914285
          ],
          [
            -5.0060747859656223,
            55.848953255324986
          ],
          [
            -5.0044276348893204,
            55.848948538565111
          ],
          [
            -5.0027879141644753,
            55.849000555790333
          ],
          [
            -5.0011552237923702,
            55.849045378001556
          ],
          [
            -4.9995423438761826,
            55.849115752581035
          ],
          [
            -4.997968065575277,
            55.849292178016519
          ],
          [
            -4.9963007088450935,
            55.849490704311144
          ],
          [
            -4.9947746152754346,
            55.849794013041155
          ],
          [
            -4.9932411292644101,
            55.850120886620658
          ],
          [
            -4.9917078848898324,
            55.850404674451539
          ],
          [
            -4.9895949658195349,
            55.850917616232039
          ],
          [
            -4.9887755751371969,
            55.851168586079581
          ],
          [
            -4.9873457607570746,
            55.85158862447706
          ],
          [
            -4.9859424194008595,
            55.852028063535712
          ],
          [
            -4.9844810343163992,
            55.852424527755296
          ],
          [
            -4.9830834829126411,
            55.852871836212067
          ],
          [
            -4.9816433142207881,
            55.853274585745119
          ],
          [
            -4.980153585228452,
            55.85365889755812
          ],
          [
            -4.9785716024590068,
            55.853999988756385
          ],
          [
            -4.9770760644286804,
            55.854467055192579
          ],
          [
            -4.975662508311185,
            55.854901338265854
          ],
          [
            -4.9742523504812368,
            55.855325884291581
          ],
          [
            -4.9728401452285675,
            55.85575269130684
          ],
          [
            -4.9713795403024887,
            55.856134965488117
          ],
          [
            -4.9699204365755572,
            55.856523461173573
          ],
          [
            -4.9684607976043704,
            55.856913448796753
          ],
          [
            -4.9669845389467282,
            55.857293321922505
          ],
          [
            -4.9655038095658455,
            55.857650964685561
          ],
          [
            -4.964035397284011,
            55.858027943181483
          ],
          [
            -4.9625476823229286,
            55.858386074298828
          ],
          [
            -4.9610402920935845,
            55.858726467920484
          ],
          [
            -4.9595392978769119,
            55.859075306048062
          ],
          [
            -4.9580439671679262,
            55.859424049934979
          ],
          [
            -4.9565418496845819,
            55.859767990573808
          ],
          [
            -4.9550381121524794,
            55.860113248984042
          ],
          [
            -4.9535264701953157,
            55.860456221900783
          ],
          [
            -4.9520050278737262,
            55.860800594767333
          ],
          [
            -4.9504936484021753,
            55.861151823240604
          ],
          [
            -4.9490058126081484,
            55.861511547684003
          ],
          [
            -4.9474953956233847,
            55.861868595715286
          ],
          [
            -4.9459617296287259,
            55.862215864530199
          ],
          [
            -4.9444313132482174,
            55.862563267465838
          ],
          [
            -4.9429044195253979,
            55.862913133969336
          ],
          [
            -4.9413701190952146,
            55.863249431264684
          ],
          [
            -4.9398664850078484,
            55.863595556763649
          ],
          [
            -4.93835428704371,
            55.863950001102289
          ],
          [
            -4.9368521381958148,
            55.864311531292124
          ],
          [
            -4.9353497793687415,
            55.864673361357639
          ],
          [
            -4.9338292061098512,
            55.865037500188095
          ],
          [
            -4.93231226378657,
            55.865404250356782
          ],
          [
            -4.9307934142159233,
            55.865763593359567
          ],
          [
            -4.9292884348586021,
            55.866127145283848
          ],
          [
            -4.9277690390298341,
            55.866480164644287
          ],
          [
            -4.9258229849323678,
            55.866921955958482
          ],
          [
            -4.9247671063661294,
            55.867179843576302
          ],
          [
            -4.923281607474089,
            55.867539125223949
          ],
          [
            -4.9218030643396107,
            55.867888587268823
          ],
          [
            -4.9203221237486865,
            55.868242160509396
          ],
          [
            -4.9188263492210682,
            55.868604167484335
          ],
          [
            -4.9173033095922714,
            55.86893240145217
          ],
          [
            -4.9157230085653296,
            55.869301341989953
          ],
          [
            -4.9142140623772095,
            55.869723784685135
          ],
          [
            -4.9127461864031527,
            55.870127299341512
          ],
          [
            -4.9112537386642341,
            55.870524978398286
          ],
          [
            -4.9097017232042095,
            55.87092745091072
          ],
          [
            -4.9082695225449644,
            55.871339563824904
          ],
          [
            -4.9068265725256985,
            55.871760078635411
          ],
          [
            -4.9053879159363643,
            55.872152376803804
          ],
          [
            -4.9038900322363093,
            55.872585676768878
          ],
          [
            -4.9024442337888638,
            55.873011614881207
          ],
          [
            -4.9009320923450028,
            55.873438213744897
          ],
          [
            -4.8994723468185226,
            55.873853747726194
          ],
          [
            -4.8981220445518936,
            55.874367007380101
          ],
          [
            -4.8967545390691747,
            55.874843749679144
          ],
          [
            -4.8954146524301638,
            55.875354026080736
          ],
          [
            -4.8927337498824359,
            55.875792237620509
          ],
          [
            -4.8899496030316367,
            55.875666495042339
          ],
          [
            -4.888704730066574,
            55.881137271253415
          ],
          [
            -4.8888673839226806,
            55.882438661373527
          ],
          [
            -4.8884239666666662,
            55.883739066666678
          ],
          [
            -4.8880954666666669,
            55.884675016666669
          ],
          [
            -4.8885401387330907,
            55.883706075995001
          ],
          [
            -4.8889096166666679,
            55.882726333333331
          ],
          [
            -4.8888834166666664,
            55.881819866666667
          ],
          [
            -4.8886167999999994,
            55.880736883333334
          ],
          [
            -4.8886052499999995,
            55.879530333333328
          ],
          [
            -4.8886244166666675,
            55.878556833333342
          ],
          [
            -4.8881885500000006,
            55.877661933333336
          ],
          [
            -4.888263583333333,
            55.876749183333338
          ],
          [
            -4.8887728999999993,
            55.875820583333343
          ],
          [
            -4.8889097166666673,
            55.874851900000003
          ],
          [
            -4.8888271333333329,
            55.873945400000004
          ],
          [
            -4.8896426024718869,
            55.873004011793142
          ],
          [
            -4.8903211999999998,
            55.872091099999999
          ],
          [
            -4.8902949666666657,
            55.871113333333341
          ],
          [
            -4.8900051333333332,
            55.870226500000008
          ],
          [
            -4.8898597666666674,
            55.86922058333333
          ],
          [
            -4.8899957833333332,
            55.868226533333342
          ],
          [
            -4.8901440666666662,
            55.867248616666672
          ],
          [
            -4.8902670333333331,
            55.866253783333327
          ],
          [
            -4.8903725499999995,
            55.865094900000003
          ],
          [
            -4.890430583333333,
            55.864043416666668
          ],
          [
            -4.8902662499999998,
            55.862969183333341
          ],
          [
            -4.8898351333333334,
            55.86160996666667
          ],
          [
            -4.8896169166666663,
            55.859970900000015
          ],
          [
            -4.8898553666666666,
            55.858477716666663
          ],
          [
            -4.8898666666666664,
            55.857012233333336
          ],
          [
            -4.8894259500000006,
            55.855699733333331
          ],
          [
            -4.8888152333333332,
            55.85419721666667
          ],
          [
            -4.8889402000000004,
            55.852573716666669
          ],
          [
            -4.8883259499999996,
            55.8509362
          ],
          [
            -4.8879047833333331,
            55.849315016666665
          ],
          [
            -4.8874316833333333,
            55.847716416666664
          ],
          [
            -4.8874774499999996,
            55.846404950000007
          ],
          [
            -4.8888938833333331,
            55.845291499999995
          ],
          [
            -4.8891090166666666,
            55.843784683333325
          ],
          [
            -4.8895697333333334,
            55.842340283333343
          ],
          [
            -4.8909786833333335,
            55.840910249999993
          ],
          [
            -4.8916104666666662,
            55.839418916666666
          ],
          [
            -4.8914042666666671,
            55.837800166666661
          ],
          [
            -4.8909600166666669,
            55.836008516666666
          ],
          [
            -4.8901539000000005,
            55.834135266666671
          ],
          [
            -4.8894015,
            55.83253071666666
          ],
          [
            -4.8884626666666664,
            55.830939050000005
          ],
          [
            -4.8881060999999999,
            55.829467350000002
          ],
          [
            -4.8891556999999999,
            55.828029266666668
          ],
          [
            -4.8891663333333337,
            55.826677183333338
          ],
          [
            -4.8889805666666666,
            55.825204600000006
          ],
          [
            -4.8887179000000005,
            55.823796033333338
          ],
          [
            -4.8884192000000004,
            55.822421749999997
          ],
          [
            -4.8880715666666665,
            55.82115506666667
          ],
          [
            -4.8875677500000005,
            55.819723750000001
          ],
          [
            -4.8869786666666668,
            55.818288333333335
          ],
          [
            -4.8860212333333335,
            55.816520499999996
          ],
          [
            -4.884929866666667,
            55.814823533333339
          ],
          [
            -4.8841218,
            55.813203966666663
          ],
          [
            -4.8834932500000008,
            55.811713399999995
          ],
          [
            -4.8824210166666671,
            55.8103221
          ],
          [
            -4.8807260333333335,
            55.809029616666677
          ],
          [
            -4.879143,
            55.807892533333337
          ],
          [
            -4.8774265333333338,
            55.806938400000007
          ],
          [
            -4.8757952500000004,
            55.806072300000004
          ],
          [
            -4.8740874999999999,
            55.80515235
          ],
          [
            -4.8725131833333339,
            55.804206700000002
          ],
          [
            -4.8719185000000005,
            55.803006533333338
          ],
          [
            -4.8715365166666658,
            55.801582433333337
          ],
          [
            -4.8707978833333332,
            55.800406000000002
          ],
          [
            -4.8697614333333332,
            55.799280766666669
          ],
          [
            -4.8690002166666666,
            55.798019183333324
          ],
          [
            -4.8693114166666662,
            55.796703366666662
          ],
          [
            -4.8697341166666677,
            55.795765516666677
          ],
          [
            -4.8701842500000003,
            55.794818066666664
          ],
          [
            -4.8690977499999999,
            55.794121066666669
          ],
          [
            -4.8676436666666669,
            55.793592783333331
          ],
          [
            -4.8660551999999999,
            55.793266783333337
          ],
          [
            -4.864764366666666,
            55.792648549999996
          ],
          [
            -4.8637706666666665,
            55.79180946666667
          ],
          [
            -4.8625590833333332,
            55.791003366666665
          ],
          [
            -4.8612664333333333,
            55.790161350000005
          ],
          [
            -4.8604920333333332,
            55.789320933333336
          ],
          [
            -4.8598606333333336,
            55.788469583333338
          ],
          [
            -4.8593417666666667,
            55.787572016666672
          ],
          [
            -4.8586301833333332,
            55.786393466666674
          ],
          [
            -4.8581894166666659,
            55.785319466666671
          ],
          [
            -4.8574927000000008,
            55.78421371666667
          ],
          [
            -4.8567615666666661,
            55.783001433333332
          ],
          [
            -4.8560940833333328,
            55.781799000000007
          ],
          [
            -4.8559277499999993,
            55.78060683333333
          ],
          [
            -4.8553790833333332,
            55.779277616666668
          ],
          [
            -4.8547930333333333,
            55.777872049999999
          ],
          [
            -4.8538192166666665,
            55.776164683333334
          ],
          [
            -4.8532467499999994,
            55.77432795
          ],
          [
            -4.8539417666666669,
            55.772352416666671
          ],
          [
            -4.8542338666666671,
            55.770559333333324
          ],
          [
            -4.8542541166666666,
            55.768916066666669
          ],
          [
            -4.8541323666666667,
            55.767406033333323
          ],
          [
            -4.8545854999999998,
            55.765937933333333
          ],
          [
            -4.8547439166666662,
            55.764444966666666
          ],
          [
            -4.8547211333333333,
            55.762837233333329
          ],
          [
            -4.8544121843115953,
            55.761418512723608
          ],
          [
            -4.8545380683092967,
            55.760289775690836
          ],
          [
            -4.8543438666666674,
            55.759066049999994
          ],
          [
            -4.8541460166666672,
            55.758169500000001
          ],
          [
            -4.8544927166666669,
            55.757282416666669
          ],
          [
            -4.8545246333333338,
            55.756251999999996
          ],
          [
            -4.8543953223250771,
            55.75493660063276
          ],
          [
            -4.8549031833333336,
            55.753734900000005
          ],
          [
            -4.8558171166666657,
            55.752442900000005
          ],
          [
            -4.8567564166666672,
            55.751084283333327
          ],
          [
            -4.8571512666666665,
            55.749798700000007
          ],
          [
            -4.8569664499999998,
            55.748477183333343
          ],
          [
            -4.8571483500000001,
            55.746850033333338
          ],
          [
            -4.8578350666666665,
            55.745252733333338
          ],
          [
            -4.858489716666667,
            55.744330783333332
          ],
          [
            -4.8592059666666669,
            55.74252593333334
          ],
          [
            -4.860387600000001,
            55.74050428333333
          ],
          [
            -4.8613601833333329,
            55.738559850000001
          ],
          [
            -4.861440766666667,
            55.736586249999995
          ],
          [
            -4.8619616333333324,
            55.734541450000009
          ],
          [
            -4.8633680333333329,
            55.73276868333334
          ],
          [
            -4.8646556833333339,
            55.730860133333337
          ],
          [
            -4.8654664333333333,
            55.729231466666668
          ],
          [
            -4.8661755666666666,
            55.728268499999999
          ],
          [
            -4.8648402333333332,
            55.726390733333325
          ],
          [
            -4.8634008500000006,
            55.724148450000001
          ],
          [
            -4.8629407333333337,
            55.723059049999996
          ],
          [
            -4.8626174666666664,
            55.721725933333332
          ],
          [
            -4.8626661333333336,
            55.719504833333332
          ],
          [
            -4.863220216666666,
            55.717456800000008
          ],
          [
            -4.8643532499999997,
            55.715258999999996
          ],
          [
            -4.8655531999999999,
            55.713360033333323
          ],
          [
            -4.866830216666667,
            55.71134073333333
          ],
          [
            -4.8679707499999996,
            55.709572616666676
          ],
          [
            -4.8690084666666662,
            55.707949750000004
          ],
          [
            -4.8694438999999994,
            55.70611628333333
          ],
          [
            -4.8692366666666667,
            55.704312083333328
          ],
          [
            -4.8690069166666667,
            55.702316266666671
          ],
          [
            -4.8687769166666666,
            55.700263466666669
          ],
          [
            -4.8685790999999998,
            55.698385583333327
          ],
          [
            -4.8683872333333333,
            55.696536383333331
          ],
          [
            -4.8681264666666664,
            55.695125949999991
          ],
          [
            -4.8673174166666673,
            55.693871450000003
          ],
          [
            -4.8665193000000002,
            55.69266986666667
          ],
          [
            -4.8656967833333331,
            55.691469066666663
          ],
          [
            -4.8649783333333341,
            55.690414499999996
          ],
          [
            -4.8643870999999992,
            55.689503949999995
          ],
          [
            -4.8639431000000002,
            55.688619116666658
          ],
          [
            -4.8632751833333332,
            55.68728793333333
          ],
          [
            -4.8626315,
            55.686064683333342
          ],
          [
            -4.8614455166666675,
            55.684854250000008
          ],
          [
            -4.8603310500000001,
            55.683680600000002
          ],
          [
            -4.8591560666666664,
            55.682384383333329
          ],
          [
            -4.8579870833333327,
            55.681093266666657
          ],
          [
            -4.8569200666666674,
            55.679921433333327
          ],
          [
            -4.8558241999999989,
            55.678635066666658
          ],
          [
            -4.8541163833333334,
            55.676922383333341
          ],
          [
            -4.8521334333333339,
            55.675163750000003
          ],
          [
            -4.8499975833333338,
            55.67343305
          ],
          [
            -4.8479394999999998,
            55.671880549999997
          ],
          [
            -4.8457518666666672,
            55.670214133333332
          ],
          [
            -4.8436849000000004,
            55.668787766666668
          ],
          [
            -4.8413401333333335,
            55.667518333333334
          ],
          [
            -4.8391909999999996,
            55.666047833333337
          ],
          [
            -4.8366330333333343,
            55.664577733333331
          ],
          [
            -4.8340051833333328,
            55.66287186666667
          ],
          [
            -4.8318098666666671,
            55.661179283333333
          ],
          [
            -4.8305345500000003,
            55.659303399999999
          ],
          [
            -4.8292741833333332,
            55.657550616666668
          ],
          [
            -4.8274111333333343,
            55.656190066666674
          ],
          [
            -4.8257684595691952,
            55.655361795962406
          ],
          [
            -4.8241920203804787,
            55.655602743662996
          ],
          [
            -4.8211270333333331,
            55.656903166666673
          ],
          [
            -4.8182455833333337,
            55.658199849999995
          ],
          [
            -4.8155125500000002,
            55.659390666666667
          ],
          [
            -4.8129794000000006,
            55.660224550000009
          ],
          [
            -4.8104646833333327,
            55.660800333333327
          ],
          [
            -4.808713489759592,
            55.660945189549814
          ],
          [
            -4.8058452166666665,
            55.660795633333329
          ],
          [
            -4.8017336833333326,
            55.660036683333324
          ],
          [
            -4.7981597473421207,
            55.659134867763626
          ],
          [
            -4.7943028456997201,
            55.658075167235459
          ],
          [
            -4.7912368264162817,
            55.657339220303534
          ],
          [
            -4.790078106772202,
            55.657084986208943
          ],
          [
            -4.786268712305386,
            55.656340843062821
          ],
          [
            -4.7826240833333333,
            55.655733099999999
          ],
          [
            -4.7792980738124902,
            55.655316134477758
          ],
          [
            -4.7762276902307885,
            55.654998931001806
          ],
          [
            -4.7742256477322211,
            55.654826169405013
          ],
          [
            -4.7725879765346706,
            55.654797123653537
          ],
          [
            -4.7693731553761092,
            55.654594657728261
          ],
          [
            -4.7654262126060614,
            55.654548448678021
          ],
          [
            -4.7611645666666664,
            55.654609083333327
          ],
          [
            -4.7568405666666669,
            55.654464099999991
          ],
          [
            -4.7529155333333337,
            55.654067383333327
          ],
          [
            -4.7487348000000003,
            55.653343366666668
          ],
          [
            -4.7452533499999996,
            55.652451883333335
          ],
          [
            -4.7418836833333335,
            55.651255683333325
          ],
          [
            -4.7390006333333332,
            55.649949200000009
          ],
          [
            -4.7364664166666666,
            55.64875645
          ],
          [
            -4.7345546333333335,
            55.647853533333333
          ],
          [
            -4.7331805500000002,
            55.647082383333327
          ],
          [
            -4.7318499333333337,
            55.64657063333334
          ],
          [
            -4.7291493833333336,
            55.645776233333329
          ],
          [
            -4.7256321999999997,
            55.644943533333326
          ],
          [
            -4.7215275499999994,
            55.644362083333334
          ],
          [
            -4.7176041833333331,
            55.643868166666671
          ],
          [
            -4.7137025999999995,
            55.643377766666667
          ],
          [
            -4.7094226166666662,
            55.642840300000003
          ],
          [
            -4.7050776666666669,
            55.642490683333335
          ],
          [
            -4.7007134333333322,
            55.642334716666667
          ],
          [
            -4.6983306166666665,
            55.642241700000007
          ],
          [
            -4.6963584166666665,
            55.642065699999996
          ],
          [
            -4.6921096166666665,
            55.641477616666663
          ],
          [
            -4.687821183333333,
            55.640902616666672
          ],
          [
            -4.6834605333333332,
            55.640502916666669
          ],
          [
            -4.6790866166666669,
            55.640606900000002
          ],
          [
            -4.6751042833333338,
            55.640487083333333
          ],
          [
            -4.6708392833333336,
            55.639875249999996
          ],
          [
            -4.666911933333334,
            55.63877853333333
          ],
          [
            -4.6634881166666666,
            55.637225450000003
          ],
          [
            -4.6608659666666661,
            55.635513049999993
          ],
          [
            -4.6587146666666657,
            55.633353050000004
          ],
          [
            -4.6573437666666671,
            55.630991866666662
          ],
          [
            -4.6560185000000001,
            55.628829666666661
          ],
          [
            -4.6539992753775641,
            55.626655638504886
          ],
          [
            -4.6518143030629098,
            55.624527673787775
          ],
          [
            -4.649630760541319,
            55.622397488093938
          ],
          [
            -4.6477721944771488,
            55.620365411113823
          ],
          [
            -4.6463987958037745,
            55.618016244909683
          ],
          [
            -4.6457545666666666,
            55.615571900000006
          ],
          [
            -4.6458435666666666,
            55.61309335
          ],
          [
            -4.6466322666666668,
            55.610698583333338
          ],
          [
            -4.647700266666666,
            55.608257799999997
          ],
          [
            -4.6485296166666661,
            55.606008933333335
          ],
          [
            -4.6489637499999992,
            55.603549033333337
          ],
          [
            -4.6493513333333327,
            55.601083283333338
          ],
          [
            -4.6497394999999999,
            55.598614683333338
          ],
          [
            -4.650144383333334,
            55.596136600000001
          ],
          [
            -4.6503901333333335,
            55.593601833333331
          ],
          [
            -4.6503366666666661,
            55.59268371666667
          ],
          [
            -4.6500836333333337,
            55.591211800000004
          ],
          [
            -4.6492588333333336,
            55.589340633333322
          ],
          [
            -4.6479808,
            55.58738151666666
          ],
          [
            -4.6466100333333333,
            55.585339366666659
          ],
          [
            -4.6453966333333332,
            55.583501683333331
          ],
          [
            -4.6441356833333343,
            55.581450283333332
          ],
          [
            -4.6428948333333331,
            55.579221249999996
          ],
          [
            -4.6421139,
            55.577660933333327
          ],
          [
            -4.6416914666666669,
            55.57670696666667
          ],
          [
            -4.6412782666666672,
            55.575825950000009
          ],
          [
            -4.6405457000000006,
            55.573891866666656
          ],
          [
            -4.6397066999999996,
            55.571660116666663
          ],
          [
            -4.6383177666666668,
            55.5692843
          ],
          [
            -4.636427583333333,
            55.567037200000001
          ],
          [
            -4.6340831666666658,
            55.565008366666667
          ],
          [
            -4.6317801666666663,
            55.563115233333342
          ],
          [
            -4.6294665166666666,
            55.561029049999995
          ],
          [
            -4.6275391833333339,
            55.558805899999996
          ],
          [
            -4.6254133666666668,
            55.556456416666663
          ],
          [
            -4.6234464000000006,
            55.55415958333333
          ],
          [
            -4.6211510333333337,
            55.552030466666672
          ],
          [
            -4.6190352166666671,
            55.54982725
          ],
          [
            -4.6176621666666664,
            55.547453583333329
          ],
          [
            -4.6165435666666665,
            55.545035616666674
          ],
          [
            -4.6154346666666664,
            55.542633250000002
          ],
          [
            -4.6144113500000001,
            55.540454933333329
          ],
          [
            -4.6135749166666677,
            55.538308916666665
          ],
          [
            -4.61334205,
            55.536848499999998
          ],
          [
            -4.6132720166666665,
            55.536034166666667
          ],
          [
            -4.6127097666666668,
            55.533877166666663
          ],
          [
            -4.6114360833333334,
            55.531936383333338
          ],
          [
            -4.6099647666666677,
            55.529940666666668
          ],
          [
            -4.6086157999999999,
            55.528112933333325
          ],
          [
            -4.6073911833333332,
            55.526453233333328
          ],
          [
            -4.6064588500000001,
            55.525258633333337
          ],
          [
            -4.6063094499999995,
            55.524281666666674
          ],
          [
            -4.603952183333333,
            55.524529866666676
          ],
          [
            -4.6007026,
            55.524609866666665
          ],
          [
            -4.5972994666666667,
            55.524712266666668
          ],
          [
            -4.5940518666666668,
            55.524779099999989
          ],
          [
            -4.5918677833333339,
            55.52467776666667
          ],
          [
            -4.5902205999999994,
            55.524296016666661
          ],
          [
            -4.5883482666666673,
            55.523211516666663
          ],
          [
            -4.5858940500000003,
            55.521425683333341
          ],
          [
            -4.5830509333333325,
            55.519564783333337
          ],
          [
            -4.5799656666666664,
            55.51780096666667
          ],
          [
            -4.5768636833333334,
            55.516051366666666
          ],
          [
            -4.5738100333333334,
            55.514264050000008
          ],
          [
            -4.5710967499999997,
            55.512314600000003
          ],
          [
            -4.5688390833333337,
            55.510186233333329
          ],
          [
            -4.5671278666666666,
            55.507903216666662
          ],
          [
            -4.566034066666667,
            55.505717400000002
          ],
          [
            -4.5654136666666663,
            55.50347283333334
          ],
          [
            -4.5652422833333333,
            55.501257749999994
          ],
          [
            -4.5654305500000003,
            55.499416716666673
          ],
          [
            -4.5658801889954308,
            55.498157869041329
          ],
          [
            -4.5658801889954308,
            55.498157869041329
          ],
          [
            -4.5661141496400335,
            55.497011356848333
          ],
          [
            -4.5668819873350106,
            55.495495773589155
          ],
          [
            -4.5678587026827815,
            55.493688893003252
          ],
          [
            -4.5692766840741603,
            55.491885783959319
          ],
          [
            -4.5711426676745006,
            55.490158154065753
          ],
          [
            -4.573552540688568,
            55.488481680118511
          ],
          [
            -4.5762446332607682,
            55.486960269827378
          ],
          [
            -4.5788448625882001,
            55.485497658006238
          ],
          [
            -4.5810605210617252,
            55.483944431901591
          ],
          [
            -4.5829855232497581,
            55.482027195037617
          ],
          [
            -4.5844068917905769,
            55.480209879221675
          ],
          [
            -4.5854819963252424,
            55.478493252316369
          ],
          [
            -4.5863746629270272,
            55.477167234465881
          ],
          [
            -4.5870173311334455,
            55.476289988282915
          ],
          [
            -4.5880525384843835,
            55.475516824695404
          ],
          [
            -4.5898546544886631,
            55.474934648728009
          ],
          [
            -4.5912354658170953,
            55.474123735708062
          ],
          [
            -4.5922936626539315,
            55.473450256420577
          ],
          [
            -4.5934998574564547,
            55.47283414865808
          ],
          [
            -4.5948645949430738,
            55.472334419603257
          ],
          [
            -4.5961197833333323,
            55.471759383333328
          ],
          [
            -4.5976330333333335,
            55.472198466666669
          ],
          [
            -4.5983311983998618,
            55.471086582462704
          ],
          [
            -4.6002313891583277,
            55.47069322278594
          ],
          [
            -4.6074694694471159,
            55.467891716801169
          ],
          [
            -4.6049842166666668,
            55.469848283333341
          ],
          [
            -4.6031932333333332,
            55.470220166666664
          ],
          [
            -4.6015165833333329,
            55.47043896666667
          ],
          [
            -4.5995444166666664,
            55.470715466666661
          ],
          [
            -4.5976103666666663,
            55.471251833333326
          ],
          [
            -4.5962730499999997,
            55.471737066666677
          ],
          [
            -4.5949202166666669,
            55.47223413333333
          ],
          [
            -4.5933481999999994,
            55.472787600000011
          ],
          [
            -4.5920687833333345,
            55.473452950000002
          ],
          [
            -4.5909086333333331,
            55.474152950000004
          ],
          [
            -4.5892111166666663,
            55.475058099999991
          ],
          [
            -4.5875174333333328,
            55.475509449999997
          ],
          [
            -4.5859054359987761,
            55.474744383673162
          ],
          [
            -4.5851998666666667,
            55.473536916666667
          ],
          [
            -4.5844452999999996,
            55.471968533333332
          ],
          [
            -4.5841564333333338,
            55.470512716666661
          ],
          [
            -4.5843412499999996,
            55.468760683333329
          ],
          [
            -4.585300516666666,
            55.466788449999996
          ],
          [
            -4.5868995166666666,
            55.46505659999999
          ],
          [
            -4.5887038666666662,
            55.463520066666661
          ],
          [
            -4.5904645833333326,
            55.461980933333344
          ],
          [
            -4.5917585166666663,
            55.460435083333337
          ],
          [
            -4.5927228333333341,
            55.459103300000002
          ],
          [
            -4.593394916666667,
            55.4581819
          ],
          [
            -4.594039883333334,
            55.457330716666668
          ],
          [
            -4.5949922500000007,
            55.456228266666656
          ],
          [
            -4.5955365500000003,
            55.455302349999997
          ],
          [
            -4.595605683333333,
            55.45450129999999
          ],
          [
            -4.5963245500000003,
            55.452687466666667
          ],
          [
            -4.5971240166666663,
            55.450637749999999
          ],
          [
            -4.5979295999999996,
            55.448471583333337
          ],
          [
            -4.5988237833333327,
            55.446236299999995
          ],
          [
            -4.5996293833333333,
            55.444238166666672
          ],
          [
            -4.6003771333333336,
            55.442411333333332
          ],
          [
            -4.6011867666666673,
            55.441044516666672
          ],
          [
            -4.6020082887320681,
            55.440164407582607
          ],
          [
            -4.6027794816590299,
            55.439317451413814
          ],
          [
            -4.6038870333333337,
            55.438638066666662
          ],
          [
            -4.6054130333333338,
            55.437642050000008
          ],
          [
            -4.6074769500000006,
            55.436314899999999
          ],
          [
            -4.6091453833333338,
            55.43466853333333
          ],
          [
            -4.6100007666666674,
            55.432854899999995
          ],
          [
            -4.6111726333333332,
            55.431111300000005
          ],
          [
            -4.6128640833333332,
            55.429752333333333
          ],
          [
            -4.6145104666666672,
            55.428513083333335
          ],
          [
            -4.615673453700408,
            55.427070571097701
          ],
          [
            -4.6162086666666662,
            55.425559416666665
          ],
          [
            -4.6161145166666673,
            55.423986066666671
          ],
          [
            -4.616330163622905,
            55.422189619770904
          ],
          [
            -4.6173887095865913,
            55.420333092542727
          ],
          [
            -4.6180920408625461,
            55.419282570156724
          ],
          [
            -4.61880412616431,
            55.418506131450705
          ],
          [
            -4.620273361816623,
            55.416844034218919
          ],
          [
            -4.6210876098981242,
            55.415002388959437
          ],
          [
            -4.6228030682121455,
            55.413263611951749
          ],
          [
            -4.6245937833333333,
            55.411457399999996
          ],
          [
            -4.6258133666666668,
            55.409727616666665
          ],
          [
            -4.6269846000000001,
            55.407629583333325
          ],
          [
            -4.6290378996944925,
            55.405706439694292
          ],
          [
            -4.6322605445224996,
            55.4040415591667
          ],
          [
            -4.6344944549960374,
            55.402151065563181
          ],
          [
            -4.635241961143878,
            55.400213859950661
          ],
          [
            -4.6350720500000007,
            55.398446550000003
          ],
          [
            -4.6351313833333343,
            55.396684416666659
          ],
          [
            -4.6359419666666666,
            55.395542766666665
          ],
          [
            -4.6369548999999992,
            55.394793799999995
          ],
          [
            -4.6381616333333335,
            55.394132616666667
          ],
          [
            -4.6395880666666676,
            55.393681900000004
          ],
          [
            -4.6411401666666663,
            55.393331449999998
          ],
          [
            -4.6422539999999994,
            55.392676883333323
          ],
          [
            -4.6427734333333328,
            55.391819233333337
          ],
          [
            -4.6430163499999999,
            55.390846099999997
          ],
          [
            -4.6430531666666663,
            55.389576666666663
          ],
          [
            -4.6433756333333331,
            55.387972049999995
          ],
          [
            -4.6442475999999999,
            55.386024766666672
          ],
          [
            -4.6460421333333324,
            55.384402900000005
          ],
          [
            -4.6489333666666655,
            55.383250283333332
          ],
          [
            -4.6510620166666659,
            55.382266200000004
          ],
          [
            -4.6525225261188146,
            55.381632020519504
          ],
          [
            -4.652577683333333,
            55.380466266666659
          ],
          [
            -4.6524780166666675,
            55.378049300000008
          ],
          [
            -4.6533229,
            55.375548566666673
          ],
          [
            -4.6557794166666664,
            55.373444766666672
          ],
          [
            -4.6588741999999996,
            55.371620216666663
          ],
          [
            -4.6616434333333334,
            55.369639666666671
          ],
          [
            -4.6638505499999994,
            55.367708350000008
          ],
          [
            -4.666083033333333,
            55.365828616666668
          ],
          [
            -4.6695045833333326,
            55.364384916666658
          ],
          [
            -4.6733808999999997,
            55.363310733333336
          ],
          [
            -4.6768157666666665,
            55.362358700000009
          ],
          [
            -4.6804186166666657,
            55.361358833333327
          ],
          [
            -4.6842485000000007,
            55.360626116666666
          ],
          [
            -4.6879425166666664,
            55.36016746666666
          ],
          [
            -4.6913593500000008,
            55.3597325
          ],
          [
            -4.6943657500000002,
            55.358873633333324
          ],
          [
            -4.696620583333333,
            55.357696500000003
          ],
          [
            -4.6979849000000007,
            55.356524333333333
          ],
          [
            -4.698797616666667,
            55.3557372
          ],
          [
            -4.6995063666666663,
            55.354146433333341
          ],
          [
            -4.700436766666666,
            55.352542300000003
          ],
          [
            -4.7010880333333347,
            55.35100451666667
          ],
          [
            -4.7015200500000001,
            55.350110999999998
          ],
          [
            -4.7029865666666666,
            55.348725133333332
          ],
          [
            -4.7050955333333331,
            55.347227549999992
          ],
          [
            -4.7072668333333327,
            55.345629299999999
          ],
          [
            -4.7083629,
            55.344904183333334
          ],
          [
            -4.7107028,
            55.343494533333327
          ],
          [
            -4.7114276833333335,
            55.343109800000001
          ],
          [
            -4.7131680666666664,
            55.342264766666666
          ],
          [
            -4.7156357166666671,
            55.341077133333329
          ],
          [
            -4.7178618999999999,
            55.340035966666669
          ],
          [
            -4.7204600499999998,
            55.339278016666675
          ],
          [
            -4.7184475291475163,
            55.339757640867866
          ],
          [
            -4.7158788666666673,
            55.340931883333333
          ],
          [
            -4.7133965833333331,
            55.342103766666661
          ],
          [
            -4.7109310333333339,
            55.343297166666666
          ],
          [
            -4.7087170666666669,
            55.344592633333328
          ],
          [
            -4.7065332333333343,
            55.346047066666678
          ],
          [
            -4.70458555,
            55.347489433333337
          ],
          [
            -4.7027149333333336,
            55.348796966666676
          ],
          [
            -4.7015242166666669,
            55.349566466666666
          ],
          [
            -4.7007908833333332,
            55.351329383333329
          ],
          [
            -4.7000629000000007,
            55.352974716666665
          ],
          [
            -4.699120633333334,
            55.354444449999995
          ],
          [
            -4.6996668499999998,
            55.355764749999992
          ],
          [
            -4.7023079333333335,
            55.356046266666667
          ],
          [
            -4.7053255768824096,
            55.356431501737184
          ],
          [
            -4.7080866644004127,
            55.357113493464709
          ],
          [
            -4.7110481166666665,
            55.357358833333336
          ],
          [
            -4.7118690833333332,
            55.357357616666661
          ],
          [
            -4.7140572333333326,
            55.357491383333333
          ],
          [
            -4.7170436333333337,
            55.357736999999993
          ],
          [
            -4.7196559000000002,
            55.358082550000006
          ],
          [
            -4.7214985833333332,
            55.359447633333339
          ],
          [
            -4.7242399500000003,
            55.360400399999996
          ],
          [
            -4.7276014166666673,
            55.36068971666667
          ],
          [
            -4.7302729166666664,
            55.360879099999998
          ],
          [
            -4.7319036540394057,
            55.360910270110253
          ],
          [
            -4.7318406166666662,
            55.362266050000002
          ],
          [
            -4.7320079166666673,
            55.363609516666671
          ],
          [
            -4.7325262833333337,
            55.36505489999999
          ],
          [
            -4.7327705666666668,
            55.366249466666673
          ],
          [
            -4.7349811333333331,
            55.367225766666664
          ],
          [
            -4.7373563833333332,
            55.367974800000006
          ],
          [
            -4.7397257166666664,
            55.368604183333339
          ],
          [
            -4.7423169333333339,
            55.36915461666667
          ],
          [
            -4.7449802166666659,
            55.369512433333327
          ],
          [
            -4.7475432833333331,
            55.369820250000011
          ],
          [
            -4.7499916333333339,
            55.370098033333335
          ],
          [
            -4.7518741532015767,
            55.370663625854434
          ],
          [
            -4.7522277166666669,
            55.37184761666667
          ],
          [
            -4.7525345333333329,
            55.372752516666665
          ],
          [
            -4.7537875700931584,
            55.373649044506166
          ],
          [
            -4.7545375820134224,
            55.375052274056415
          ],
          [
            -4.7541521592542795,
            55.376469096183669
          ],
          [
            -4.7539344236825061,
            55.377393963183493
          ],
          [
            -4.7558227166666658,
            55.377181833333331
          ],
          [
            -4.7571415000000004,
            55.377040283333329
          ],
          [
            -4.7586946833333332,
            55.376769083333329
          ],
          [
            -4.760201227755311,
            55.376292905575234
          ],
          [
            -4.7642108920910946,
            55.376107779065684
          ],
          [
            -4.7676799828427869,
            55.376320562724196
          ],
          [
            -4.7676822522509799,
            55.376318111768747
          ],
          [
            -4.7688369862558853,
            55.376218428564357
          ],
          [
            -4.7676517338837936,
            55.376266537580435
          ],
          [
            -4.7676644960660877,
            55.376314782358065
          ],
          [
            -4.7676679846596137,
            55.376304827917743
          ],
          [
            -4.7676428585420592,
            55.376303300503054
          ],
          [
            -4.7584108028448506,
            55.377111791879315
          ],
          [
            -4.7676328828815766,
            55.376324118529617
          ],
          [
            -4.7587483412074549,
            55.377250640359264
          ],
          [
            -4.7677043122485623,
            55.376251454259759
          ],
          [
            -4.7677067242582707,
            55.376307832075724
          ],
          [
            -4.767697078220734,
            55.37629315979774
          ],
          [
            -4.767663198403624,
            55.376316060730595
          ],
          [
            -4.7676254692068865,
            55.376307900823939
          ],
          [
            -4.7584039722290878,
            55.377559193745618
          ],
          [
            -4.7678564853489576,
            55.376354694096406
          ],
          [
            -4.7676486930820605,
            55.376279275886446
          ],
          [
            -4.7676889150331752,
            55.376250206149578
          ],
          [
            -4.7580838950955657,
            55.377118815766678
          ],
          [
            -4.7676113547608647,
            55.37627616365468
          ],
          [
            -4.7582492391898494,
            55.377068369373397
          ],
          [
            -4.7676184413612708,
            55.376288369304177
          ],
          [
            -4.7582900303354201,
            55.37706499644306
          ],
          [
            -4.7676232512393799,
            55.376263431204414
          ],
          [
            -4.7676232512393799,
            55.376263431204414
          ],
          [
            -4.7583996183147841,
            55.377058310550119
          ],
          [
            -4.7676437920130397,
            55.376244798032118
          ],
          [
            -4.767615031418786,
            55.376299045913939
          ],
          [
            -4.767642643919535,
            55.376214424178102
          ],
          [
            -4.767642643919535,
            55.376214424178102
          ],
          [
            -4.7587078650746406,
            55.376931804425645
          ],
          [
            -4.7587078650746406,
            55.376931804425645
          ],
          [
            -4.767644286540266,
            55.376241926970117
          ],
          [
            -4.7587049881777546,
            55.377112085046214
          ],
          [
            -4.7587049881777546,
            55.377112085046214
          ],
          [
            -4.7676413264249735,
            55.376278492839361
          ],
          [
            -4.7676918360166454,
            55.376281178872524
          ],
          [
            -4.7582838867670683,
            55.377000045097226
          ],
          [
            -4.7582838867670683,
            55.377000045097226
          ],
          [
            -4.7676376773453164,
            55.376282208889201
          ],
          [
            -4.7676633131670343,
            55.376288441686093
          ],
          [
            -4.7599328893485833,
            55.376416027109961
          ],
          [
            -4.7676553304904585,
            55.376278203703365
          ],
          [
            -4.767661948279275,
            55.376293443237273
          ],
          [
            -4.7676714504171249,
            55.376296804666026
          ],
          [
            -4.7590735792416643,
            55.376682457299118
          ],
          [
            -4.7675626179792125,
            55.376252980648601
          ],
          [
            -4.767686093794115,
            55.376304088643352
          ],
          [
            -4.7675631742030218,
            55.376303976869721
          ]
        ]
      }
    }
  ]
}