{
  "features" : [
    {
      "properties" : {
        "device" : "B9E47AEB-E54C-4563-96B6-06995DD4BC56 (iPhone 16 Pro)",
        "duration" : 56455.005766868591,
        "arrival" : "2026-05-16T19:29:08Z",
        "timestamp" : "2026-05-16T19:29:08Z",
        "departure" : "2026-05-17T11:10:04Z",
        "address" : "Tarbert, PA29, Schottland",
        "rating" : 0,
        "source" : "Geory 5.3.2",
        "type" : "visit",
        "weather" : "Überwiegend bewölkt (9,3 °C)"
      },
      "type" : "Feature",
      "geometry" : {
        "type" : "Point",
        "coordinates" : [
          -5.7090587158410111,
          55.556711620290294
        ]
      }
    },
    {
      "type" : "Feature",
      "properties" : {
        "address" : "Tarbert, PA29, Schottland",
        "source" : "Geory 5.3.2",
        "weather" : "Aufgelockert bewölkt (9,5 °C)",
        "device" : "B9E47AEB-E54C-4563-96B6-06995DD4BC56 (iPhone 16 Pro)",
        "arrival" : "2026-05-17T11:10:13Z",
        "rating" : 0,
        "type" : "visit",
        "timestamp" : "2026-05-17T11:10:13Z",
        "departure" : "2026-05-17T11:55:51Z",
        "duration" : 2738.0000982284546
      },
      "geometry" : {
        "type" : "Point",
        "coordinates" : [
          -5.7091161115448186,
          55.556833017988957
        ]
      }
    },
    {
      "properties" : {
        "type" : "visit",
        "source" : "Geory 5.3.2",
        "rating" : 0,
        "duration" : 1327.0005073547363,
        "device" : "B9E47AEB-E54C-4563-96B6-06995DD4BC56 (iPhone 16 Pro)",
        "arrival" : "2026-05-17T11:55:52Z",
        "timestamp" : "2026-05-17T11:55:52Z",
        "address" : "Innerer Seebereich vor der Westküste Schottlands, Schottland",
        "weather" : "Aufgelockert bewölkt (9,7 °C)",
        "departure" : "2026-05-17T12:18:00Z"
      },
      "geometry" : {
        "type" : "Point",
        "coordinates" : [
          -5.7072167873023707,
          55.552772231369879
        ]
      },
      "type" : "Feature"
    },
    {
      "type" : "Feature",
      "properties" : {
        "rating" : 0,
        "address" : "Tarbert, PA29, Schottland",
        "weather" : "Aufgelockert bewölkt (9,7 °C)",
        "source" : "Geory 5.3.2",
        "arrival" : "2026-05-17T12:22:01Z",
        "device" : "B9E47AEB-E54C-4563-96B6-06995DD4BC56 (iPhone 16 Pro)",
        "duration" : 26325.999593734741,
        "type" : "visit",
        "timestamp" : "2026-05-17T12:22:01Z",
        "departure" : "2026-05-17T19:40:47Z"
      },
      "geometry" : {
        "coordinates" : [
          -5.7089726063560491,
          55.55644838512459
        ],
        "type" : "Point"
      }
    },
    {
      "properties" : {
        "arrival" : "2026-05-17T19:40:48Z",
        "departure" : "2026-05-17T20:56:01Z",
        "timestamp" : "2026-05-17T19:40:48Z",
        "address" : "Tarbert, PA29, Schottland",
        "duration" : 4512.7926256656647,
        "type" : "visit",
        "rating" : 0,
        "weather" : "Aufgelockert bewölkt (10,0 °C)",
        "source" : "Geory 5.3.2",
        "device" : "B9E47AEB-E54C-4563-96B6-06995DD4BC56 (iPhone 16 Pro)"
      },
      "geometry" : {
        "type" : "Point",
        "coordinates" : [
          -5.7110840492453168,
          55.558982740335672
        ]
      },
      "type" : "Feature"
    },
    {
      "geometry" : {
        "coordinates" : [
          -5.70903581166524,
          55.556720566331308
        ],
        "type" : "Point"
      },
      "type" : "Feature",
      "properties" : {
        "arrival" : "2026-05-17T20:59:23Z",
        "source" : "Geory 5.3.2",
        "departure" : "2026-05-18T10:46:21Z",
        "timestamp" : "2026-05-17T20:59:23Z",
        "device" : "B9E47AEB-E54C-4563-96B6-06995DD4BC56 (iPhone 16 Pro)",
        "weather" : "Bedeckter Himmel (7,7 °C)",
        "duration" : 49618.000035524368,
        "type" : "visit",
        "address" : "Tarbert, PA29, Schottland",
        "rating" : 0
      }
    },
    {
      "geometry" : {
        "type" : "Point",
        "coordinates" : [
          -5.7090268924621874,
          55.556694416201552
        ]
      },
      "properties" : {
        "duration" : 15712.999594926834,
        "address" : "Tarbert, PA29, Schottland",
        "type" : "visit",
        "weather" : "Leicht bewölkt (10,0 °C)",
        "device" : "B9E47AEB-E54C-4563-96B6-06995DD4BC56 (iPhone 16 Pro)",
        "timestamp" : "2026-05-18T11:14:58Z",
        "arrival" : "2026-05-18T11:14:58Z",
        "departure" : "2026-05-18T15:36:51Z",
        "rating" : 0,
        "source" : "Geory 5.3.2"
      },
      "type" : "Feature"
    },
    {
      "type" : "Feature",
      "geometry" : {
        "coordinates" : [
          -5.7090467520815551,
          55.55669636430671
        ],
        "type" : "Point"
      },
      "properties" : {
        "duration" : 9566.9994776248932,
        "weather" : "Leicht bewölkt (13,0 °C)",
        "address" : "Tarbert, PA29, Schottland",
        "device" : "B9E47AEB-E54C-4563-96B6-06995DD4BC56 (iPhone 16 Pro)",
        "timestamp" : "2026-05-18T15:59:53Z",
        "rating" : 0,
        "source" : "Geory 5.3.2",
        "type" : "visit",
        "arrival" : "2026-05-18T15:59:53Z",
        "departure" : "2026-05-18T18:39:19Z"
      }
    },
    {
      "type" : "Feature",
      "geometry" : {
        "type" : "Point",
        "coordinates" : [
          -5.7090483859047154,
          55.556752548821272
        ]
      },
      "properties" : {
        "device" : "B9E47AEB-E54C-4563-96B6-06995DD4BC56 (iPhone 16 Pro)",
        "address" : "Tarbert, PA29, Schottland",
        "timestamp" : "2026-05-18T18:39:20Z",
        "weather" : "Bedeckter Himmel (10,4 °C)",
        "type" : "visit",
        "departure" : "2026-05-19T10:07:13Z",
        "rating" : 0,
        "arrival" : "2026-05-18T18:39:20Z",
        "duration" : 55672.298957824707,
        "source" : "Geory 5.3.2"
      }
    },
    {
      "properties" : {
        "type" : "route",
        "start" : "2026-05-16T22:00:00Z",
        "device" : "B9E47AEB-E54C-4563-96B6-06995DD4BC56 (iPhone 16 Pro)",
        "end" : "2026-05-18T21:59:59Z",
        "source" : "Geory 5.3.2"
      },
      "geometry" : {
        "type" : "LineString",
        "coordinates" : [
          [
            -5.7090483859047154,
            55.556752548821272
          ],
          [
            -5.7090467520815551,
            55.55669636430671
          ],
          [
            -5.7085168098999137,
            55.555989561989399
          ],
          [
            -5.7083392347763535,
            55.555095570022424
          ],
          [
            -5.7076654155115021,
            55.554277481703345
          ],
          [
            -5.7069827470330923,
            55.55301815423261
          ],
          [
            -5.7068996288205431,
            55.551955392336531
          ],
          [
            -5.7069608807994019,
            55.55285664053806
          ],
          [
            -5.7073158840318383,
            55.553741402251127
          ],
          [
            -5.7081174628339779,
            55.554942705360745
          ],
          [
            -5.7090268924621874,
            55.556694416201552
          ],
          [
            -5.7084805717987246,
            55.555293297338991
          ],
          [
            -5.7079038396177255,
            55.554450371979989
          ],
          [
            -5.7073661627996142,
            55.553603574257288
          ],
          [
            -5.7069380762745157,
            55.552729787460486
          ],
          [
            -5.7070307131572005,
            55.551826907437977
          ],
          [
            -5.7070245648841649,
            55.550934338769856
          ],
          [
            -5.7069824020793822,
            55.55164312288607
          ],
          [
            -5.70686637953321,
            55.552387801145223
          ],
          [
            -5.7074525382284467,
            55.553765435421674
          ],
          [
            -5.7078945987145691,
            55.554464226188195
          ],
          [
            -5.7086388406937756,
            55.555263282067571
          ],
          [
            -5.7092982406094022,
            55.55658568678902
          ],
          [
            -5.710070556142238,
            55.558312726821761
          ],
          [
            -5.70903581166524,
            55.556720566331308
          ],
          [
            -5.7110840492453168,
            55.558982740335672
          ],
          [
            -5.709941085070815,
            55.558253955632317
          ],
          [
            -5.7089726063560491,
            55.55644838512459
          ],
          [
            -5.7090030587056821,
            55.556693134824073
          ],
          [
            -5.7084591587010012,
            55.555848929839712
          ],
          [
            -5.7072167873023707,
            55.552772231369879
          ],
          [
            -5.7091161115448186,
            55.556833017988957
          ],
          [
            -5.7090587158410111,
            55.556711620290294
          ]
        ]
      },
      "type" : "Feature"
    }
  ],
  "type" : "FeatureCollection"
}