{
  "type" : "FeatureCollection",
  "features" : [
    {
      "type" : "Feature",
      "geometry" : {
        "type" : "Point",
        "coordinates" : [
          -6.9289543785294407,
          55.226978553317544
        ]
      },
      "properties" : {
        "weather" : "Überwiegend bewölkt (13,0 °C)",
        "device" : "B9E47AEB-E54C-4563-96B6-06995DD4BC56 (iPhone 16 Pro)",
        "departure" : "2026-04-22T10:20:57Z",
        "timestamp" : "2026-04-21T16:15:08Z",
        "source" : "Geory 5.3.2",
        "duration" : 65148.807610034943,
        "arrival" : "2026-04-21T16:15:08Z",
        "address" : "R241, Shrove, Greencastle, County Donegal, Irland",
        "rating" : 0,
        "type" : "visit"
      }
    },
    {
      "geometry" : {
        "type" : "Point",
        "coordinates" : [
          -6.9289523380885223,
          55.226972146641799
        ]
      },
      "properties" : {
        "departure" : "2026-04-22T11:25:28Z",
        "source" : "Geory 5.3.2",
        "type" : "visit",
        "device" : "B9E47AEB-E54C-4563-96B6-06995DD4BC56 (iPhone 16 Pro)",
        "address" : "R241, Shrove, Greencastle, County Donegal, Irland",
        "rating" : 0,
        "weather" : "Leicht bewölkt (11,8 °C)",
        "timestamp" : "2026-04-22T11:07:38Z",
        "duration" : 1070.0002996921539,
        "arrival" : "2026-04-22T11:07:38Z"
      },
      "type" : "Feature"
    },
    {
      "geometry" : {
        "type" : "Point",
        "coordinates" : [
          -7.070666553321356,
          55.272009878920414
        ]
      },
      "type" : "Feature",
      "properties" : {
        "type" : "visit",
        "timestamp" : "2026-04-22T11:59:50Z",
        "weather" : "Leicht bewölkt (10,0 °C)",
        "address" : "North Inishowen Coast SAC, County Donegal, Irland",
        "arrival" : "2026-04-22T11:59:50Z",
        "device" : "B9E47AEB-E54C-4563-96B6-06995DD4BC56 (iPhone 16 Pro)",
        "source" : "Geory 5.3.2",
        "duration" : 6283.2919869422913,
        "departure" : "2026-04-22T13:44:33Z",
        "rating" : 0
      }
    },
    {
      "properties" : {
        "type" : "visit",
        "duration" : 2507.4112474918365,
        "arrival" : "2026-04-22T13:44:34Z",
        "address" : "North Inishowen Coast SAC, Irland",
        "timestamp" : "2026-04-22T13:44:34Z",
        "departure" : "2026-04-22T14:26:21Z",
        "rating" : 0,
        "source" : "Geory 5.3.2",
        "weather" : "Überwiegend bewölkt (13,7 °C)",
        "device" : "B9E47AEB-E54C-4563-96B6-06995DD4BC56 (iPhone 16 Pro)"
      },
      "geometry" : {
        "type" : "Point",
        "coordinates" : [
          -7.066668958863529,
          55.271630802012616
        ]
      },
      "type" : "Feature"
    },
    {
      "geometry" : {
        "coordinates" : [
          -7.0707545147199902,
          55.271967548444081
        ],
        "type" : "Point"
      },
      "properties" : {
        "type" : "visit",
        "duration" : 17292.509167194366,
        "weather" : "Bedeckter Himmel (11,4 °C)",
        "rating" : 0,
        "source" : "Geory 5.3.2",
        "timestamp" : "2026-04-22T14:30:24Z",
        "arrival" : "2026-04-22T14:30:24Z",
        "address" : "North Inishowen Coast SAC, County Donegal, Irland",
        "device" : "B9E47AEB-E54C-4563-96B6-06995DD4BC56 (iPhone 16 Pro)",
        "departure" : "2026-04-22T19:18:37Z"
      },
      "type" : "Feature"
    },
    {
      "geometry" : {
        "coordinates" : [
          -7.0703791160753093,
          55.271939371541301
        ],
        "type" : "Point"
      },
      "type" : "Feature",
      "properties" : {
        "rating" : 0,
        "type" : "visit",
        "arrival" : "2026-04-22T19:19:37Z",
        "departure" : "2026-04-23T01:39:58Z",
        "address" : "North Inishowen Coast SAC, County Donegal, Irland",
        "device" : "B9E47AEB-E54C-4563-96B6-06995DD4BC56 (iPhone 16 Pro)",
        "timestamp" : "2026-04-22T19:19:37Z",
        "duration" : 22821.000843048096,
        "source" : "Geory 5.3.2"
      }
    },
    {
      "type" : "Feature",
      "properties" : {
        "source" : "Geory 5.3.2",
        "device" : "B9E47AEB-E54C-4563-96B6-06995DD4BC56 (iPhone 16 Pro)",
        "type" : "route",
        "end" : "2026-04-22T21:59:59Z",
        "start" : "2026-04-21T22:00:00Z"
      },
      "geometry" : {
        "type" : "LineString",
        "coordinates" : [
          [
            -7.0703791160753093,
            55.271939371541301
          ],
          [
            -7.0707545147199902,
            55.271967548444081
          ],
          [
            -7.0700573325951632,
            55.271925075190239
          ],
          [
            -7.066668958863529,
            55.271630802012616
          ],
          [
            -7.070666553321356,
            55.272009878920414
          ],
          [
            -7.0653070828770392,
            55.269302790289714
          ],
          [
            -7.0640293608082292,
            55.268778722755002
          ],
          [
            -7.0626817108861362,
            55.26829623915782
          ],
          [
            -7.0610445000000013,
            55.268238783333331
          ],
          [
            -7.0594704500000001,
            55.268022216666665
          ],
          [
            -7.0578408333333345,
            55.268016616666671
          ],
          [
            -7.0564173500000003,
            55.268438883333324
          ],
          [
            -7.0548357666666677,
            55.268302399999989
          ],
          [
            -7.0535309593240205,
            55.268813392474115
          ],
          [
            -7.0521608950895427,
            55.269299160533237
          ],
          [
            -7.0504948833333323,
            55.269421182779475
          ],
          [
            -7.04895612801357,
            55.269118662759979
          ],
          [
            -7.0474221854876875,
            55.268826039544543
          ],
          [
            -7.0458176833333326,
            55.268699082812304
          ],
          [
            -7.0441269819123153,
            55.26873138698663
          ],
          [
            -7.0425958382659077,
            55.268507569656421
          ],
          [
            -7.0412122518991227,
            55.268054946697816
          ],
          [
            -7.0397821209385985,
            55.267568169501928
          ],
          [
            -7.0384309499999986,
            55.267044783333333
          ],
          [
            -7.0370178833333341,
            55.266577049999995
          ],
          [
            -7.0355502999999997,
            55.26619208333333
          ],
          [
            -7.0341169166666662,
            55.26574553333333
          ],
          [
            -7.0326931333333329,
            55.265305300000001
          ],
          [
            -7.0317449166666659,
            55.264560616666664
          ],
          [
            -7.0309089333333343,
            55.26357445
          ],
          [
            -7.0301233833333336,
            55.262769949999999
          ],
          [
            -7.0293050499999996,
            55.261987550000001
          ],
          [
            -7.0286105999999995,
            55.26113886666667
          ],
          [
            -7.02801235,
            55.260262949999998
          ],
          [
            -7.0276277499999997,
            55.259310883333335
          ],
          [
            -7.0272599499999986,
            55.258396083333338
          ],
          [
            -7.0264930166666657,
            55.257544166666669
          ],
          [
            -7.0256538774231592,
            55.256766232345349
          ],
          [
            -7.0271759624948018,
            55.256366313069059
          ],
          [
            -7.0289634987740648,
            55.255827693940596
          ],
          [
            -7.0307807358991887,
            55.255267498768184
          ],
          [
            -7.032348233333332,
            55.254668033333338
          ],
          [
            -7.0337168310200466,
            55.253866818482678
          ],
          [
            -7.0350249506608069,
            55.25306888900932
          ],
          [
            -7.0363552267559291,
            55.252327452294168
          ],
          [
            -7.0379525855528415,
            55.251443785362319
          ],
          [
            -7.0397414666666673,
            55.250436183333342
          ],
          [
            -7.0413168516590874,
            55.249585004791754
          ],
          [
            -7.0427399333333334,
            55.248847033333334
          ],
          [
            -7.0444136147917673,
            55.248062409762504
          ],
          [
            -7.0456391192458971,
            55.247475188788229
          ],
          [
            -7.0472335546751248,
            55.246706248917313
          ],
          [
            -7.0490849273046425,
            55.245845246196623
          ],
          [
            -7.0511067855674847,
            55.244884872121112
          ],
          [
            -7.0529790060150219,
            55.244020152542895
          ],
          [
            -7.0547214129037679,
            55.243220381215714
          ],
          [
            -7.0567961006088531,
            55.242463846933582
          ],
          [
            -7.058683654482687,
            55.241789035504439
          ],
          [
            -7.0604833936571918,
            55.241151401635406
          ],
          [
            -7.0612019316321089,
            55.240917859025821
          ],
          [
            -7.0623574400468954,
            55.240534627199082
          ],
          [
            -7.0642783597843692,
            55.239832130034607
          ],
          [
            -7.065943906520082,
            55.238997464249358
          ],
          [
            -7.0680189040574763,
            55.238086215349533
          ],
          [
            -7.0702395272942944,
            55.237066191495295
          ],
          [
            -7.0720698288728725,
            55.236164508084457
          ],
          [
            -7.073850344753625,
            55.235163782603067
          ],
          [
            -7.0754860666666675,
            55.234228233333333
          ],
          [
            -7.077087170754881,
            55.233419869455773
          ],
          [
            -7.0783110333333337,
            55.232776449999996
          ],
          [
            -7.0800831166666667,
            55.232199400000006
          ],
          [
            -7.0815100833333338,
            55.231699766666665
          ],
          [
            -7.0831248833333333,
            55.231435266666658
          ],
          [
            -7.0845645000000008,
            55.230456566666668
          ],
          [
            -7.0850896166666661,
            55.229423916666669
          ],
          [
            -7.0858257499999997,
            55.228462099999994
          ],
          [
            -7.0865272666666677,
            55.227568500000004
          ],
          [
            -7.0864064000000004,
            55.226542466666658
          ],
          [
            -7.0852258333333342,
            55.22575861666666
          ],
          [
            -7.082601583333334,
            55.225070599999995
          ],
          [
            -7.0799166505661333,
            55.22425822894315
          ],
          [
            -7.0774237099014261,
            55.222988140045146
          ],
          [
            -7.0753359477488171,
            55.22162947176615
          ],
          [
            -7.0745650467487247,
            55.221109574876181
          ],
          [
            -7.0737033417033972,
            55.220259346593807
          ],
          [
            -7.0722965455876166,
            55.218822439587882
          ],
          [
            -7.0708884985159957,
            55.217435811528048
          ],
          [
            -7.0692846789847854,
            55.21585979277986
          ],
          [
            -7.0677037317527125,
            55.214286657296746
          ],
          [
            -7.0659935975437493,
            55.212603915680248
          ],
          [
            -7.0651917850539379,
            55.210642226783953
          ],
          [
            -7.0654025284627728,
            55.208799123499944
          ],
          [
            -7.0650925261067758,
            55.207067018372847
          ],
          [
            -7.0641853310939444,
            55.205429701989644
          ],
          [
            -7.062125980511083,
            55.204214546735919
          ],
          [
            -7.0604052468164031,
            55.202907610953922
          ],
          [
            -7.0596389197192391,
            55.20113868539601
          ],
          [
            -7.0586924301822958,
            55.199565419964351
          ],
          [
            -7.0573848401157342,
            55.198146620875974
          ],
          [
            -7.0551317584584128,
            55.196958156799901
          ],
          [
            -7.0528408555322653,
            55.196169750765861
          ],
          [
            -7.0503582804979033,
            55.195420387506857
          ],
          [
            -7.0487560068905699,
            55.194263295151565
          ],
          [
            -7.0469921265536426,
            55.193224101830467
          ],
          [
            -7.0454930931289255,
            55.192229237582431
          ],
          [
            -7.0441263929517337,
            55.191286856681309
          ],
          [
            -7.0428418518583324,
            55.19046786194761
          ],
          [
            -7.0418079123413824,
            55.189743475957684
          ],
          [
            -7.0409091042854888,
            55.188994806425207
          ],
          [
            -7.0393329086903575,
            55.189144449602416
          ],
          [
            -7.0373346540894266,
            55.189440117527624
          ],
          [
            -7.0353932389442528,
            55.189791973316588
          ],
          [
            -7.0331758307524082,
            55.190235912415581
          ],
          [
            -7.0306148535957691,
            55.190802133539229
          ],
          [
            -7.0277952156683456,
            55.191459581904965
          ],
          [
            -7.0250881261697096,
            55.19223526333419
          ],
          [
            -7.0217981715717999,
            55.192794982046948
          ],
          [
            -7.0190375753081051,
            55.19365036659368
          ],
          [
            -7.0172183620352362,
            55.194928736805672
          ],
          [
            -7.0154676438952102,
            55.196318469812503
          ],
          [
            -7.0136440824859507,
            55.197348525004237
          ],
          [
            -7.0113136723028111,
            55.197683589744393
          ],
          [
            -7.0085709649481771,
            55.197348711147455
          ],
          [
            -7.0059900500000003,
            55.197667416666668
          ],
          [
            -7.003866966666668,
            55.198572433333325
          ],
          [
            -7.0010745500000002,
            55.199534800000002
          ],
          [
            -6.9982722500000003,
            55.200044938334337
          ],
          [
            -6.9953694500000001,
            55.200472933333337
          ],
          [
            -6.9930441666666656,
            55.201346016666669
          ],
          [
            -6.990265383333333,
            55.202191549999995
          ],
          [
            -6.98807255,
            55.202964083333335
          ],
          [
            -6.9861165000000014,
            55.2036509
          ],
          [
            -6.9839846333333337,
            55.203801166666672
          ],
          [
            -6.9823627833333335,
            55.203569116666664
          ],
          [
            -6.9808398333333326,
            55.203347550000004
          ],
          [
            -6.9792896166666667,
            55.203876350000002
          ],
          [
            -6.9787877242766774,
            55.204727974303886
          ],
          [
            -6.976970783333333,
            55.205550333333335
          ],
          [
            -6.9756090166666676,
            55.20593396666667
          ],
          [
            -6.9747875666666674,
            55.206149799999999
          ],
          [
            -6.9728155833333325,
            55.206675533333325
          ],
          [
            -6.9707265333333339,
            55.207382016666664
          ],
          [
            -6.9689804500000001,
            55.208243066666668
          ],
          [
            -6.9676188333333338,
            55.209238500000005
          ],
          [
            -6.9660204166666668,
            55.210073166666675
          ],
          [
            -6.9641392999999994,
            55.210663783333331
          ],
          [
            -6.9620883499999984,
            55.211258566666658
          ],
          [
            -6.960171166666667,
            55.211842700000005
          ],
          [
            -6.9583811833333344,
            55.21250263333333
          ],
          [
            -6.9566215166666661,
            55.213267266666662
          ],
          [
            -6.9548252500000007,
            55.213923733333331
          ],
          [
            -6.9533519499999992,
            55.214697899999997
          ],
          [
            -6.951742347775455,
            55.215364018617024
          ],
          [
            -6.950110613100895,
            55.215871219288054
          ],
          [
            -6.9486466290695601,
            55.216383868488606
          ],
          [
            -6.9472797974310998,
            55.216849556406764
          ],
          [
            -6.9454440214086262,
            55.217385937360994
          ],
          [
            -6.9419707833333328,
            55.217178333333337
          ],
          [
            -6.9431234510766195,
            55.218083939988901
          ],
          [
            -6.9408688833333336,
            55.218500300000009
          ],
          [
            -6.9392005000000001,
            55.218828799999997
          ],
          [
            -6.9384815499999997,
            55.219696716666675
          ],
          [
            -6.9379391330579603,
            55.220691613022446
          ],
          [
            -6.9366442941073192,
            55.221486283905634
          ],
          [
            -6.9356542218652946,
            55.222339085541925
          ],
          [
            -6.9347309584418566,
            55.223113272657571
          ],
          [
            -6.9335078033276067,
            55.223742635849206
          ],
          [
            -6.9320608892067543,
            55.22422387402662
          ],
          [
            -6.930207392581174,
            55.225357790437648
          ],
          [
            -6.9289523380885223,
            55.226972146641799
          ],
          [
            -6.9300278382013474,
            55.22815677688552
          ],
          [
            -6.9307928312746201,
            55.228951048967524
          ],
          [
            -6.9317823573172319,
            55.229661947214055
          ],
          [
            -6.932633622597316,
            55.230422325536395
          ],
          [
            -6.9321098720830232,
            55.231274711421001
          ],
          [
            -6.9317043269569449,
            55.232150256950867
          ],
          [
            -6.9305839700340668,
            55.232782508877172
          ],
          [
            -6.9298096310310937,
            55.233150839048193
          ],
          [
            -6.9289750429434029,
            55.233985015626253
          ],
          [
            -6.9286551495215889,
            55.234824280235181
          ],
          [
            -6.9288492077925596,
            55.235747141652737
          ],
          [
            -6.9300039205307504,
            55.236558800871386
          ],
          [
            -6.9285892393474811,
            55.235340212345733
          ],
          [
            -6.9285892393474811,
            55.235340212345733
          ],
          [
            -6.9286449170431403,
            55.235184482415072
          ],
          [
            -6.9291100867317992,
            55.234155315791838
          ],
          [
            -6.9295652571494077,
            55.23329321691434
          ],
          [
            -6.9318970797315229,
            55.231960684237627
          ],
          [
            -6.932632928229717,
            55.231050637311654
          ],
          [
            -6.932632928229717,
            55.231050637311654
          ],
          [
            -6.9325156587547356,
            55.230111349777538
          ],
          [
            -6.9313709847920721,
            55.229359606214288
          ],
          [
            -6.9289543785294407,
            55.226978553317544
          ]
        ]
      }
    }
  ]
}