{
  "type" : "FeatureCollection",
  "features" : [
    {
      "type" : "Feature",
      "geometry" : {
        "type" : "Point",
        "coordinates" : [
          -3.0842725232120776,
          59.123602561740029
        ]
      },
      "properties" : {
        "arrival" : "2026-09-22T17:03:18Z",
        "timestamp" : "2026-09-22T17:03:18Z",
        "departure" : "2026-09-23T11:48:51Z",
        "duration" : 67532.859942913055,
        "source" : "Geory 5.3.2",
        "device" : "B9E47AEB-E54C-4563-96B6-06995DD4BC56 (iPhone 16 Pro)",
        "rating" : 0,
        "weather" : "Bedeckter Himmel (14,1 °C)",
        "type" : "visit",
        "address" : "Mainland, Orkney Islands, Schottland"
      }
    },
    {
      "properties" : {
        "weather" : "Bedeckter Himmel (12,1 °C)",
        "departure" : "2026-09-23T11:52:17Z",
        "timestamp" : "2026-09-23T10:49:28Z",
        "rating" : 0,
        "source" : "Geory 5.3.2",
        "duration" : 3768.0692477226257,
        "arrival" : "2026-09-23T10:49:28Z",
        "device" : "B9E47AEB-E54C-4563-96B6-06995DD4BC56 (iPhone 16 Pro)",
        "type" : "visit",
        "address" : "Broch of Gurness, Evie, Orkney, KW17 2NH, Schottland"
      },
      "geometry" : {
        "coordinates" : [
          -3.0836747857143241,
          59.123686620509837
        ],
        "type" : "Point"
      },
      "type" : "Feature"
    },
    {
      "geometry" : {
        "type" : "Point",
        "coordinates" : [
          -3.3249527241245849,
          59.135309678452117
        ]
      },
      "properties" : {
        "device" : "B9E47AEB-E54C-4563-96B6-06995DD4BC56 (iPhone 16 Pro)",
        "type" : "visit",
        "departure" : "2026-09-23T12:55:06Z",
        "weather" : "Leicht bewölkt (12,8 °C)",
        "source" : "Geory 5.3.2",
        "timestamp" : "2026-09-23T12:26:03Z",
        "arrival" : "2026-09-23T12:26:03Z",
        "duration" : 1742.8439750671387,
        "rating" : 0,
        "address" : "Mainland, Orkney Islands, Schottland"
      },
      "type" : "Feature"
    },
    {
      "geometry" : {
        "type" : "Point",
        "coordinates" : [
          -3.3307590728889234,
          59.13619479111663
        ]
      },
      "type" : "Feature",
      "properties" : {
        "type" : "visit",
        "timestamp" : "2026-09-23T12:55:09Z",
        "device" : "B9E47AEB-E54C-4563-96B6-06995DD4BC56 (iPhone 16 Pro)",
        "weather" : "Leicht bewölkt (12,2 °C)",
        "rating" : 0,
        "arrival" : "2026-09-23T12:55:09Z",
        "address" : "Brough of Birsay, Orkney Islands, Schottland",
        "source" : "Geory 5.3.2",
        "departure" : "2026-09-23T13:11:05Z",
        "duration" : 956.67801284790039
      }
    },
    {
      "geometry" : {
        "coordinates" : [
          -3.3382867807879766,
          59.136470589154079
        ],
        "type" : "Point"
      },
      "properties" : {
        "device" : "B9E47AEB-E54C-4563-96B6-06995DD4BC56 (iPhone 16 Pro)",
        "departure" : "2026-09-23T13:44:26Z",
        "source" : "Geory 5.3.2",
        "rating" : 0,
        "arrival" : "2026-09-23T13:11:47Z",
        "type" : "visit",
        "duration" : 1959.2037868499756,
        "timestamp" : "2026-09-23T13:11:47Z",
        "address" : "Brough of Birsay, Orkney Islands, Schottland",
        "weather" : "Leicht bewölkt (12,2 °C)"
      },
      "type" : "Feature"
    },
    {
      "properties" : {
        "duration" : 1073.8556985855103,
        "timestamp" : "2026-09-23T13:56:09Z",
        "arrival" : "2026-09-23T13:56:09Z",
        "address" : "Brough of Birsay, Orkney Islands, Schottland",
        "weather" : "Aufgelockert bewölkt (12,8 °C)",
        "rating" : 0,
        "type" : "visit",
        "source" : "Geory 5.3.2",
        "device" : "B9E47AEB-E54C-4563-96B6-06995DD4BC56 (iPhone 16 Pro)",
        "departure" : "2026-09-23T14:14:03Z"
      },
      "type" : "Feature",
      "geometry" : {
        "coordinates" : [
          -3.3334608781100017,
          59.137661397189973
        ],
        "type" : "Point"
      }
    },
    {
      "geometry" : {
        "coordinates" : [
          -3.3248578389616648,
          59.135356246827001
        ],
        "type" : "Point"
      },
      "type" : "Feature",
      "properties" : {
        "type" : "visit",
        "duration" : 3114.1113414764404,
        "arrival" : "2026-09-23T14:28:36Z",
        "weather" : "Leicht bewölkt (13,4 °C)",
        "rating" : 0,
        "device" : "B9E47AEB-E54C-4563-96B6-06995DD4BC56 (iPhone 16 Pro)",
        "source" : "Geory 5.3.2",
        "address" : "Mainland, Orkney Islands, Schottland",
        "timestamp" : "2026-09-23T14:28:36Z",
        "departure" : "2026-09-23T15:20:30Z"
      }
    },
    {
      "properties" : {
        "timestamp" : "2026-09-23T15:25:04Z",
        "arrival" : "2026-09-23T15:25:04Z",
        "rating" : 0,
        "duration" : 1965.6987476348877,
        "source" : "Geory 5.3.2",
        "address" : "Mucklequoy, Birsay, Orkney, KW17 2LY, Schottland",
        "departure" : "2026-09-23T15:57:49Z",
        "device" : "B9E47AEB-E54C-4563-96B6-06995DD4BC56 (iPhone 16 Pro)",
        "type" : "visit",
        "weather" : "Leicht bewölkt (12,1 °C)"
      },
      "type" : "Feature",
      "geometry" : {
        "coordinates" : [
          -3.3067767983392429,
          59.120637821437434
        ],
        "type" : "Point"
      }
    },
    {
      "geometry" : {
        "type" : "Point",
        "coordinates" : [
          -3.3589136045401506,
          59.024693766903759
        ]
      },
      "properties" : {
        "weather" : "Leicht bewölkt (11,7 °C)",
        "source" : "Geory 5.3.2",
        "arrival" : "2026-09-23T16:38:59Z",
        "duration" : 4445.2151041030884,
        "timestamp" : "2026-09-23T16:38:59Z",
        "departure" : "2026-09-23T17:53:04Z",
        "type" : "visit",
        "device" : "B9E47AEB-E54C-4563-96B6-06995DD4BC56 (iPhone 16 Pro)",
        "rating" : 0,
        "address" : "Yesnaby Road, Sandwick, Stromness, KW16, Schottland"
      },
      "type" : "Feature"
    },
    {
      "geometry" : {
        "type" : "Point",
        "coordinates" : [
          -3.3596711366022038,
          59.017397627147311
        ]
      },
      "type" : "Feature",
      "properties" : {
        "timestamp" : "2026-09-23T18:00:51Z",
        "source" : "Geory 5.3.2",
        "device" : "B9E47AEB-E54C-4563-96B6-06995DD4BC56 (iPhone 16 Pro)",
        "address" : "Stromness, KW16, Schottland",
        "weather" : "Leicht bewölkt (11,1 °C)",
        "departure" : "2026-09-23T18:40:25Z",
        "type" : "visit",
        "duration" : 2374.5578525066376,
        "rating" : 0,
        "arrival" : "2026-09-23T18:00:51Z"
      }
    },
    {
      "geometry" : {
        "type" : "Point",
        "coordinates" : [
          -3.3589693649295889,
          59.024861370060982
        ]
      },
      "properties" : {
        "address" : "Yesnaby Road, Sandwick, Stromness, KW16, Schottland",
        "source" : "Geory 5.3.2",
        "duration" : 6488.4478883743286,
        "type" : "visit",
        "timestamp" : "2026-09-23T18:55:07Z",
        "rating" : 0,
        "weather" : "Leicht bewölkt (10,5 °C)",
        "device" : "B9E47AEB-E54C-4563-96B6-06995DD4BC56 (iPhone 16 Pro)",
        "arrival" : "2026-09-23T18:55:07Z"
      },
      "type" : "Feature"
    },
    {
      "properties" : {
        "device" : "B9E47AEB-E54C-4563-96B6-06995DD4BC56 (iPhone 16 Pro)",
        "source" : "Geory 5.3.2",
        "type" : "route",
        "start" : "2026-09-22T23:00:00Z",
        "end" : "2026-09-23T20:43:09Z"
      },
      "type" : "Feature",
      "geometry" : {
        "type" : "LineString",
        "coordinates" : [
          [
            -3.3589693649295889,
            59.024861370060982
          ],
          [
            -3.3584869232505521,
            59.02083826336186
          ],
          [
            -3.3602861762239358,
            59.020820532207203
          ],
          [
            -3.3596711366022038,
            59.017397627147311
          ],
          [
            -3.3613553294698542,
            59.019317503042252
          ],
          [
            -3.36137765348859,
            59.019895800946209
          ],
          [
            -3.3599564482506947,
            59.021005540787279
          ],
          [
            -3.3589136045401506,
            59.024693766903759
          ],
          [
            -3.3484399742726532,
            59.022853844066709
          ],
          [
            -3.3464374568734581,
            59.022297427704316
          ],
          [
            -3.3443733153524065,
            59.021715290868976
          ],
          [
            -3.3423065709566071,
            59.021179472962409
          ],
          [
            -3.3401335587053467,
            59.020595144467599
          ],
          [
            -3.3379474706395369,
            59.019963868918857
          ],
          [
            -3.3359908155433269,
            59.019395405506209
          ],
          [
            -3.3342877499999997,
            59.018915883333328
          ],
          [
            -3.3327270202435768,
            59.018448857362877
          ],
          [
            -3.3308613333333335,
            59.017825449999997
          ],
          [
            -3.3293637666666664,
            59.01726501666667
          ],
          [
            -3.3276652833333333,
            59.016917166666659
          ],
          [
            -3.3257370666666661,
            59.016811533333339
          ],
          [
            -3.3240064999999999,
            59.016945450000001
          ],
          [
            -3.3222254333333336,
            59.017170100000001
          ],
          [
            -3.3204342333333332,
            59.017391749999994
          ],
          [
            -3.3182331166666668,
            59.017669833333329
          ],
          [
            -3.316124883333333,
            59.017930783333334
          ],
          [
            -3.314087321954478,
            59.018200158174565
          ],
          [
            -3.3124055166666664,
            59.01866771666667
          ],
          [
            -3.3130759166666666,
            59.01997003333333
          ],
          [
            -3.3132652499999993,
            59.021218633333341
          ],
          [
            -3.3131018439024369,
            59.022323621631628
          ],
          [
            -3.3137567999999997,
            59.023676716666664
          ],
          [
            -3.3156388333333333,
            59.024861533333329
          ],
          [
            -3.3171345333333333,
            59.026059033333325
          ],
          [
            -3.3172636833333335,
            59.027453600000008
          ],
          [
            -3.3162026,
            59.028929733333335
          ],
          [
            -3.3151992666666663,
            59.030314333333337
          ],
          [
            -3.3142297666666667,
            59.031656133333342
          ],
          [
            -3.3133358833333335,
            59.033141216666678
          ],
          [
            -3.3126152999999996,
            59.034534100000002
          ],
          [
            -3.3120509999999999,
            59.036048683333334
          ],
          [
            -3.3115476333333334,
            59.037375233333329
          ],
          [
            -3.3110469,
            59.038781416666673
          ],
          [
            -3.310409766666667,
            59.03980945
          ],
          [
            -3.3096507333333336,
            59.040695066666665
          ],
          [
            -3.3096953333333334,
            59.041716399999999
          ],
          [
            -3.3112414630222657,
            59.042642519181264
          ],
          [
            -3.3134104785419831,
            59.043091506522849
          ],
          [
            -3.3154274112088018,
            59.043675426611344
          ],
          [
            -3.3171760759957949,
            59.044296684661596
          ],
          [
            -3.3186285110320424,
            59.045195887560972
          ],
          [
            -3.3203039708912847,
            59.046012213177733
          ],
          [
            -3.3217077794304326,
            59.046648107914095
          ],
          [
            -3.3232239310014902,
            59.04721906887049
          ],
          [
            -3.324904496681286,
            59.047502435899844
          ],
          [
            -3.326743013892921,
            59.04777015643586
          ],
          [
            -3.3281910061348308,
            59.048378560446409
          ],
          [
            -3.3301470320958675,
            59.049258711049099
          ],
          [
            -3.3313204573790518,
            59.04973869382038
          ],
          [
            -3.3328096101168483,
            59.050343346337378
          ],
          [
            -3.3336221333333338,
            59.051442999999999
          ],
          [
            -3.3336631166666666,
            59.052965383333337
          ],
          [
            -3.3337355333333334,
            59.05173511666667
          ],
          [
            -3.3335216999999999,
            59.050613866666666
          ],
          [
            -3.3315303666666662,
            59.049796766666674
          ],
          [
            -3.3296483000000006,
            59.049031200000002
          ],
          [
            -3.3281513,
            59.048306333333329
          ],
          [
            -3.3262058666666667,
            59.047650233333329
          ],
          [
            -3.3239778499999999,
            59.047417849999988
          ],
          [
            -3.3219623333333335,
            59.046693400000002
          ],
          [
            -3.3201041666666669,
            59.045849699999998
          ],
          [
            -3.3190588999999999,
            59.045397016666662
          ],
          [
            -3.3184113833333337,
            59.044948449999993
          ],
          [
            -3.3168247499999999,
            59.044102933333335
          ],
          [
            -3.3148640833333332,
            59.043451766666671
          ],
          [
            -3.3131765666666664,
            59.042991783333335
          ],
          [
            -3.3113956666666668,
            59.042681683333335
          ],
          [
            -3.3105749500000003,
            59.043542933333342
          ],
          [
            -3.309808083333333,
            59.044353733333338
          ],
          [
            -3.3089505166666671,
            59.045254300000011
          ],
          [
            -3.3080436166666667,
            59.046204583333335
          ],
          [
            -3.3072394500000004,
            59.047055450000002
          ],
          [
            -3.3064450666666669,
            59.047889083333331
          ],
          [
            -3.305695183333333,
            59.04870524999999
          ],
          [
            -3.3039220166666667,
            59.049443916666668
          ],
          [
            -3.3017150333333327,
            59.049144733333328
          ],
          [
            -3.2994790500000004,
            59.048837416666665
          ],
          [
            -3.2970512333333337,
            59.048501016666656
          ],
          [
            -3.2948523666666669,
            59.048192533333335
          ],
          [
            -3.2926031666666669,
            59.048084550000006
          ],
          [
            -3.2914963666666663,
            59.048208883333338
          ],
          [
            -3.2900740500000003,
            59.048371883333324
          ],
          [
            -3.2874331000000003,
            59.048672466666659
          ],
          [
            -3.2849038833333331,
            59.04896586666667
          ],
          [
            -3.2827978500000001,
            59.049189116666668
          ],
          [
            -3.2810869499999993,
            59.049919766666669
          ],
          [
            -3.2809713833333327,
            59.051183116666671
          ],
          [
            -3.28081245,
            59.052762383333331
          ],
          [
            -3.2806788666666664,
            59.054252966666674
          ],
          [
            -3.2806124166666666,
            59.055710749999996
          ],
          [
            -3.2816392666666663,
            59.057333166666666
          ],
          [
            -3.2825679166666664,
            59.058756116666665
          ],
          [
            -3.2827223000000005,
            59.060145633333327
          ],
          [
            -3.2822432833333335,
            59.061732583333338
          ],
          [
            -3.2818063500000001,
            59.063187166666658
          ],
          [
            -3.2813454499999999,
            59.064748833333333
          ],
          [
            -3.2808994666666669,
            59.066250116666666
          ],
          [
            -3.280476783333333,
            59.06770388333333
          ],
          [
            -3.2800773333333337,
            59.069055550000002
          ],
          [
            -3.2796267666666665,
            59.070579133333325
          ],
          [
            -3.2791815166666671,
            59.072065683333328
          ],
          [
            -3.2787368666666672,
            59.073571300000005
          ],
          [
            -3.2782893666666668,
            59.07505101666667
          ],
          [
            -3.277888383333333,
            59.076620216666669
          ],
          [
            -3.2775476833333328,
            59.07809661666667
          ],
          [
            -3.2771760499999996,
            59.079689166666675
          ],
          [
            -3.276847533333334,
            59.081129183333331
          ],
          [
            -3.2764665666666661,
            59.082728700000004
          ],
          [
            -3.276118466666667,
            59.084224350000007
          ],
          [
            -3.276118466666667,
            59.084224350000007
          ],
          [
            -3.2757339166666668,
            59.085844466666671
          ],
          [
            -3.2753402666666669,
            59.087500116666661
          ],
          [
            -3.2750714666666663,
            59.088980850000006
          ],
          [
            -3.2749945499999997,
            59.090641133333335
          ],
          [
            -3.2749212000000001,
            59.092204099999996
          ],
          [
            -3.2748391333333333,
            59.093673583333342
          ],
          [
            -3.274767133333333,
            59.095086000000009
          ],
          [
            -3.274705766666667,
            59.096462566666666
          ],
          [
            -3.2746367166666666,
            59.09762108333333
          ],
          [
            -3.2745321036195176,
            59.09852431881616
          ],
          [
            -3.2764563833333331,
            59.099143950000006
          ],
          [
            -3.2780404333333339,
            59.099831600000002
          ],
          [
            -3.2794063333333336,
            59.10052828333334
          ],
          [
            -3.2803874666666659,
            59.1019687
          ],
          [
            -3.2808879666666666,
            59.103601133333328
          ],
          [
            -3.2813268500000006,
            59.10510295000001
          ],
          [
            -3.2817038499999995,
            59.106472100000005
          ],
          [
            -3.2823555833333331,
            59.107803250000003
          ],
          [
            -3.2841912333333334,
            59.10897494999999
          ],
          [
            -3.2867141666666666,
            59.109967783333332
          ],
          [
            -3.28914705,
            59.110842399999996
          ],
          [
            -3.2916746999999997,
            59.111753433333327
          ],
          [
            -3.2940281333333328,
            59.112553083333324
          ],
          [
            -3.296281033333333,
            59.113235799999998
          ],
          [
            -3.2984566666666666,
            59.113881599999999
          ],
          [
            -3.3004622000000001,
            59.114492000000006
          ],
          [
            -3.3019384999999999,
            59.1150929
          ],
          [
            -3.3031641666666665,
            59.115986750000005
          ],
          [
            -3.3046831833333328,
            59.116667466666662
          ],
          [
            -3.3058092333333327,
            59.117406466666672
          ],
          [
            -3.3059092965917927,
            59.118779589184058
          ],
          [
            -3.3067767983392429,
            59.120637821437434
          ],
          [
            -3.3058960000000006,
            59.120992099999995
          ],
          [
            -3.3055436333333339,
            59.122119616666673
          ],
          [
            -3.3051378000000002,
            59.123368349999993
          ],
          [
            -3.3047856833333338,
            59.124497233333337
          ],
          [
            -3.3042731666666669,
            59.125593733333339
          ],
          [
            -3.30326375661696,
            59.126763584883804
          ],
          [
            -3.3021992833333331,
            59.12768371666666
          ],
          [
            -3.3024252499999998,
            59.128724333333338
          ],
          [
            -3.3029214333333337,
            59.129701383333334
          ],
          [
            -3.3033869333333334,
            59.130717350000005
          ],
          [
            -3.3040168833333339,
            59.131593000000009
          ],
          [
            -3.3062871166666667,
            59.131272616666671
          ],
          [
            -3.3086820666666665,
            59.130968233333334
          ],
          [
            -3.3108628499999999,
            59.130677550000001
          ],
          [
            -3.3126543666666661,
            59.130432433333333
          ],
          [
            -3.3144657333333338,
            59.130216999999995
          ],
          [
            -3.3162685075993221,
            59.130333600436373
          ],
          [
            -3.3167978811772887,
            59.131201452521907
          ],
          [
            -3.317190585308925,
            59.132155130262646
          ],
          [
            -3.3183164411695398,
            59.132937178530966
          ],
          [
            -3.3198462105199735,
            59.133475042071154
          ],
          [
            -3.3248578389616648,
            59.135356246827001
          ],
          [
            -3.3267151446182952,
            59.135529286764722
          ],
          [
            -3.331019044833623,
            59.136187759629443
          ],
          [
            -3.3334608781100017,
            59.137661397189973
          ],
          [
            -3.3347453090709109,
            59.137680890565434
          ],
          [
            -3.3382867807879766,
            59.136470589154079
          ],
          [
            -3.3307590728889234,
            59.13619479111663
          ],
          [
            -3.3249527241245849,
            59.135309678452117
          ],
          [
            -3.3239115505041106,
            59.134676193106792
          ],
          [
            -3.322939113107926,
            59.13392150718024
          ],
          [
            -3.321291521274544,
            59.133540561924256
          ],
          [
            -3.3194828105706469,
            59.133341061229096
          ],
          [
            -3.3180687477287667,
            59.132793881749059
          ],
          [
            -3.317130633333333,
            59.131980966666667
          ],
          [
            -3.3168705666666667,
            59.131024700000005
          ],
          [
            -3.3158725666666671,
            59.130261699999998
          ],
          [
            -3.3136110833333334,
            59.130217866666669
          ],
          [
            -3.3112617000000002,
            59.130547333333332
          ],
          [
            -3.3088578000000002,
            59.13088355
          ],
          [
            -3.3066097500000002,
            59.131199633333331
          ],
          [
            -3.3042779500000008,
            59.13152620000001
          ],
          [
            -3.301986233333333,
            59.131852733333339
          ],
          [
            -3.2997648499999999,
            59.132165050000005
          ],
          [
            -3.2975122499999996,
            59.132488083333328
          ],
          [
            -3.295231666666667,
            59.132382266666674
          ],
          [
            -3.2931992833333328,
            59.131958100000006
          ],
          [
            -3.2910194000000002,
            59.132191183333326
          ],
          [
            -3.2888688333333338,
            59.132656366666666
          ],
          [
            -3.2871853833333335,
            59.133121550000006
          ],
          [
            -3.2852107666666663,
            59.133658950000004
          ],
          [
            -3.2832522166666669,
            59.134191700000002
          ],
          [
            -3.2813307999999997,
            59.134712083333334
          ],
          [
            -3.2793159333333333,
            59.135269633333344
          ],
          [
            -3.2775143999999998,
            59.135761850000002
          ],
          [
            -3.2758243333333334,
            59.13620670000001
          ],
          [
            -3.2742593333333332,
            59.136644250000003
          ],
          [
            -3.2726540833333329,
            59.137095083333335
          ],
          [
            -3.2707047166666663,
            59.137613999999999
          ],
          [
            -3.2687863333333333,
            59.138623800000005
          ],
          [
            -3.267206166666667,
            59.139807299999994
          ],
          [
            -3.2658975333333329,
            59.140697699999997
          ],
          [
            -3.2634958000000003,
            59.140743549999996
          ],
          [
            -3.2611222833333331,
            59.14095378333333
          ],
          [
            -3.2594723999999999,
            59.141250049999989
          ],
          [
            -3.2573523500000001,
            59.141571066666664
          ],
          [
            -3.2551543666666669,
            59.141482749999994
          ],
          [
            -3.2530208833333334,
            59.141180699999992
          ],
          [
            -3.2511437833333332,
            59.141323216666656
          ],
          [
            -3.2486992833333335,
            59.141216950000008
          ],
          [
            -3.2468830499999997,
            59.140848783333333
          ],
          [
            -3.2446484,
            59.140405583333326
          ],
          [
            -3.2421668833333332,
            59.139901750000007
          ],
          [
            -3.239855766666667,
            59.139414583333341
          ],
          [
            -3.2381419500000002,
            59.139033783333332
          ],
          [
            -3.2363308000000002,
            59.13971016666666
          ],
          [
            -3.2355938499999999,
            59.14073328333334
          ],
          [
            -3.234956466666667,
            59.14161288333333
          ],
          [
            -3.2339847833333333,
            59.142967683333339
          ],
          [
            -3.2330440833333332,
            59.144282133333341
          ],
          [
            -3.2323828999999997,
            59.145223566666665
          ],
          [
            -3.2297100833333334,
            59.14593501666667
          ],
          [
            -3.2270894999999999,
            59.146508783333338
          ],
          [
            -3.2246960833333334,
            59.147031416666671
          ],
          [
            -3.2224682666666666,
            59.147490533333333
          ],
          [
            -3.2208593666666663,
            59.147394166666658
          ],
          [
            -3.2189350166666664,
            59.147231933333323
          ],
          [
            -3.2171440666666666,
            59.147440566666667
          ],
          [
            -3.2153588000000006,
            59.147281
          ],
          [
            -3.2138848333333336,
            59.146782683333335
          ],
          [
            -3.2123096666666666,
            59.146252066666662
          ],
          [
            -3.2108808500179085,
            59.145698852016409
          ],
          [
            -3.2096607639591102,
            59.145007707546171
          ],
          [
            -3.2084682640842925,
            59.144324500955804
          ],
          [
            -3.2067079499999993,
            59.143342950000005
          ],
          [
            -3.2045434666666663,
            59.142571000000004
          ],
          [
            -3.2020675000000005,
            59.141930433333329
          ],
          [
            -3.1997936666666669,
            59.141363016666674
          ],
          [
            -3.1970975999999998,
            59.140911733333326
          ],
          [
            -3.1942915166666666,
            59.140397050000004
          ],
          [
            -3.1918640499999995,
            59.139921450000003
          ],
          [
            -3.1891711166666665,
            59.139700866666665
          ],
          [
            -3.1867147666666664,
            59.139644783333338
          ],
          [
            -3.1844162833333334,
            59.139793750000003
          ],
          [
            -3.1822185999999997,
            59.139700566666669
          ],
          [
            -3.1795955833333331,
            59.139163350000004
          ],
          [
            -3.1774137500000008,
            59.138887449999991
          ],
          [
            -3.1754427999999999,
            59.138671783333329
          ],
          [
            -3.1733462500000003,
            59.138036399999997
          ],
          [
            -3.1713852666666669,
            59.137124866666667
          ],
          [
            -3.1694099000000007,
            59.136257866666661
          ],
          [
            -3.1668427833333332,
            59.135621083333341
          ],
          [
            -3.164458666666667,
            59.135131433333335
          ],
          [
            -3.1617640499999999,
            59.134751249999994
          ],
          [
            -3.1590298499999996,
            59.134360399999998
          ],
          [
            -3.1564752999999999,
            59.133685033333329
          ],
          [
            -3.1541339000000002,
            59.133006250000001
          ],
          [
            -3.1516809500000003,
            59.132298599999991
          ],
          [
            -3.1494926999999997,
            59.131659499999991
          ],
          [
            -3.1475169000000007,
            59.131072383333333
          ],
          [
            -3.1451862333333338,
            59.130390833333337
          ],
          [
            -3.1434860833333338,
            59.129978966666677
          ],
          [
            -3.1409393333333333,
            59.12959553333333
          ],
          [
            -3.1386748666666668,
            59.12912441666667
          ],
          [
            -3.1371640500000004,
            59.128396400000007
          ],
          [
            -3.1355325999999999,
            59.127538916666666
          ],
          [
            -3.133741033333334,
            59.126588899999994
          ],
          [
            -3.1317633499999999,
            59.125548116666671
          ],
          [
            -3.1297334666666661,
            59.124491283333327
          ],
          [
            -3.1277135500000006,
            59.123430533333334
          ],
          [
            -3.1259337833333327,
            59.122474849999996
          ],
          [
            -3.1244922333333336,
            59.121615116666668
          ],
          [
            -3.1228033499999999,
            59.120601683333341
          ],
          [
            -3.1209181333333333,
            59.119477999999994
          ],
          [
            -3.1190042666666669,
            59.118333666666665
          ],
          [
            -3.1170301000000005,
            59.117157216666655
          ],
          [
            -3.1152318833333332,
            59.116086433333336
          ],
          [
            -3.1136072000000001,
            59.115099750000006
          ],
          [
            -3.1122912833333336,
            59.114423616666663
          ],
          [
            -3.1101033833333336,
            59.113799566666664
          ],
          [
            -3.1080453833333337,
            59.113210133333325
          ],
          [
            -3.1053139666666669,
            59.112698416666674
          ],
          [
            -3.1033404666666664,
            59.111714050000003
          ],
          [
            -3.1011595500000002,
            59.11102283333333
          ],
          [
            -3.0993052500000005,
            59.11000786666667
          ],
          [
            -3.0966889666666662,
            59.10930741666666
          ],
          [
            -3.0946681666666671,
            59.108191199999993
          ],
          [
            -3.0928464166666667,
            59.106925500000003
          ],
          [
            -3.0899322473878481,
            59.10571235497116
          ],
          [
            -3.0886061307854522,
            59.105202053463991
          ],
          [
            -3.0871862999999999,
            59.10459341666666
          ],
          [
            -3.0855630999999999,
            59.105177133333335
          ],
          [
            -3.0843964166666669,
            59.10618843333333
          ],
          [
            -3.0833029666666669,
            59.107149116666669
          ],
          [
            -3.0822814666666667,
            59.107984516666662
          ],
          [
            -3.0812884927302906,
            59.108889663846263
          ],
          [
            -3.0802309451715142,
            59.109693756163274
          ],
          [
            -3.0790826990413565,
            59.110441965467871
          ],
          [
            -3.0779449387021032,
            59.111206260555321
          ],
          [
            -3.0768315806134332,
            59.111970610194966
          ],
          [
            -3.0756442166666669,
            59.11265391666668
          ],
          [
            -3.0750596504545862,
            59.113537211590192
          ],
          [
            -3.0751545473726294,
            59.114781219295253
          ],
          [
            -3.0752434087491562,
            59.11600706848261
          ],
          [
            -3.0762655050078918,
            59.117003818766612
          ],
          [
            -3.0785693901758955,
            59.116953155268511
          ],
          [
            -3.080653613591219,
            59.116897843795478
          ],
          [
            -3.0824822357501072,
            59.116871204017585
          ],
          [
            -3.0842372666727691,
            59.117122393252835
          ],
          [
            -3.0855193397994682,
            59.117949137987445
          ],
          [
            -3.0861886256460878,
            59.118830309657241
          ],
          [
            -3.0858425167073356,
            59.119713531108829
          ],
          [
            -3.0856397345145945,
            59.12015802038551
          ],
          [
            -3.0854338764951303,
            59.12063862780893
          ],
          [
            -3.0836747857143241,
            59.123686620509837
          ],
          [
            -3.0842725232120776,
            59.123602561740029
          ]
        ]
      }
    }
  ]
}