{
  "type" : "FeatureCollection",
  "features" : [
    {
      "geometry" : {
        "type" : "Point",
        "coordinates" : [
          -5.274091707858843,
          58.176947931716768
        ]
      },
      "properties" : {
        "timestamp" : "2026-10-06T15:55:19Z",
        "device" : "B9E47AEB-E54C-4563-96B6-06995DD4BC56 (iPhone 16 Pro)",
        "type" : "visit",
        "weather" : "Überwiegend bewölkt (10,7 °C)",
        "rating" : 0,
        "source" : "Geory 5.3.2",
        "address" : "B869, Lochinver, Lairg, IV27, Schottland",
        "arrival" : "2026-10-06T15:55:19Z",
        "duration" : 66636.70287156105,
        "departure" : "2026-10-07T10:25:55Z"
      },
      "type" : "Feature"
    },
    {
      "type" : "Feature",
      "properties" : {
        "type" : "visit",
        "arrival" : "2026-10-07T11:46:10Z",
        "source" : "Geory 5.3.2",
        "device" : "B9E47AEB-E54C-4563-96B6-06995DD4BC56 (iPhone 16 Pro)",
        "timestamp" : "2026-10-07T11:46:10Z",
        "address" : "16 Seaforth Road, Ullapool, IV26 2UY, Schottland",
        "duration" : 5452.7027790546417,
        "rating" : 0,
        "departure" : "2026-10-07T13:17:02Z",
        "weather" : "Überwiegend bewölkt (11,5 °C)"
      },
      "geometry" : {
        "coordinates" : [
          -5.1630149608029363,
          57.896539653025791
        ],
        "type" : "Point"
      }
    },
    {
      "type" : "Feature",
      "properties" : {
        "rating" : 0,
        "departure" : "2026-10-07T13:42:09Z",
        "address" : "A835, IV26, Schottland",
        "weather" : "Überwiegend bewölkt (10,1 °C)",
        "arrival" : "2026-10-07T13:18:43Z",
        "source" : "Geory 5.3.2",
        "device" : "B9E47AEB-E54C-4563-96B6-06995DD4BC56 (iPhone 16 Pro)",
        "duration" : 1405.9994993209839,
        "timestamp" : "2026-10-07T13:18:43Z",
        "type" : "visit"
      },
      "geometry" : {
        "type" : "Point",
        "coordinates" : [
          -5.1625535284485693,
          57.905874539090206
        ]
      }
    },
    {
      "type" : "Feature",
      "geometry" : {
        "coordinates" : [
          -5.411516421786529,
          58.05301097795261
        ],
        "type" : "Point"
      },
      "properties" : {
        "device" : "B9E47AEB-E54C-4563-96B6-06995DD4BC56 (iPhone 16 Pro)",
        "type" : "visit",
        "weather" : "Leichter Regen (10,6 °C)",
        "rating" : 0,
        "address" : "Ullapool, IV26, Schottland",
        "timestamp" : "2026-10-07T14:46:59Z",
        "arrival" : "2026-10-07T14:46:59Z",
        "source" : "Geory 5.3.2",
        "duration" : 19834.425343036652
      }
    },
    {
      "geometry" : {
        "type" : "LineString",
        "coordinates" : [
          [
            -5.411516421786529,
            58.05301097795261
          ],
          [
            -5.4105724333333347,
            58.054291783333333
          ],
          [
            -5.4121750833333335,
            58.054682333333332
          ],
          [
            -5.4138808833333334,
            58.054934550000013
          ],
          [
            -5.4152838833333323,
            58.055152550000003
          ],
          [
            -5.4166452666666656,
            58.055594566666663
          ],
          [
            -5.4179163833333321,
            58.05626771666666
          ],
          [
            -5.4190026711350585,
            58.057035310668525
          ],
          [
            -5.419980999999999,
            58.05778491666667
          ],
          [
            -5.4215335273363756,
            58.058228773686729
          ],
          [
            -5.4230592,
            58.058625266666667
          ],
          [
            -5.4246400428470194,
            58.059083332606171
          ],
          [
            -5.4259426333333334,
            58.05969686666667
          ],
          [
            -5.4254105166666662,
            58.060581616666667
          ],
          [
            -5.4238230666666674,
            58.06107651666666
          ],
          [
            -5.4224857999999996,
            58.061635300000006
          ],
          [
            -5.4209401833333324,
            58.062027916666665
          ],
          [
            -5.4192669499999999,
            58.06228178333334
          ],
          [
            -5.4174948549870994,
            58.062324779830469
          ],
          [
            -5.4161699333333333,
            58.062946049999994
          ],
          [
            -5.4153286601960815,
            58.063773420208008
          ],
          [
            -5.4137130999999998,
            58.064318599999993
          ],
          [
            -5.4126945999999991,
            58.06517108333334
          ],
          [
            -5.4110072666666662,
            58.065569249999996
          ],
          [
            -5.4091621333333331,
            58.065137783333334
          ],
          [
            -5.4073751666666663,
            58.065277349999995
          ],
          [
            -5.4049309499999989,
            58.065185566666663
          ],
          [
            -5.4023131833333329,
            58.065525049999998
          ],
          [
            -5.3995964166666663,
            58.065806299999998
          ],
          [
            -5.3967694499999999,
            58.066091949999993
          ],
          [
            -5.3942017333333334,
            58.066346333333335
          ],
          [
            -5.3919059333333337,
            58.066568099999998
          ],
          [
            -5.3896520833333339,
            58.06653845000001
          ],
          [
            -5.3876824666666661,
            58.066439166666669
          ],
          [
            -5.38565,
            58.066885050000003
          ],
          [
            -5.3833954333333338,
            58.06678638333333
          ],
          [
            -5.3814242568743209,
            58.066107192713091
          ],
          [
            -5.3796420166666659,
            58.065457866666669
          ],
          [
            -5.3781914333333347,
            58.064820533333339
          ],
          [
            -5.3781914333333347,
            58.064820533333339
          ],
          [
            -5.3768274999999992,
            58.064227366666664
          ],
          [
            -5.375229066666666,
            58.063799216666666
          ],
          [
            -5.3736502333333327,
            58.063437566666664
          ],
          [
            -5.3718322666666669,
            58.062907016666664
          ],
          [
            -5.3701424499999986,
            58.062481233333337
          ],
          [
            -5.3684715666666669,
            58.062065833333328
          ],
          [
            -5.3664830999999991,
            58.061677566666667
          ],
          [
            -5.3648972639252692,
            58.060939810008144
          ],
          [
            -5.3633128784371964,
            58.060139025061858
          ],
          [
            -5.3618059629098145,
            58.059352286861134
          ],
          [
            -5.3605681377222911,
            58.05860634549709
          ],
          [
            -5.3592717703641615,
            58.057924917072576
          ],
          [
            -5.3578488303609735,
            58.057314661417493
          ],
          [
            -5.3566572355598812,
            58.056582573482409
          ],
          [
            -5.3549664666666672,
            58.056473016666665
          ],
          [
            -5.3532522500000006,
            58.056260583333334
          ],
          [
            -5.3519128,
            58.057037016666662
          ],
          [
            -5.3511347833333334,
            58.057881216666665
          ],
          [
            -5.3501292531690412,
            58.058725830121084
          ],
          [
            -5.3482195333333342,
            58.059188833333337
          ],
          [
            -5.3459994166666656,
            58.059057950000003
          ],
          [
            -5.3435696333333338,
            58.059369883333332
          ],
          [
            -5.3413231666666654,
            58.060125100000008
          ],
          [
            -5.3393175000000008,
            58.060793683333337
          ],
          [
            -5.3372318000000005,
            58.061532766666673
          ],
          [
            -5.3352762666666669,
            58.062311466666678
          ],
          [
            -5.3335152774274741,
            58.063029388770914
          ],
          [
            -5.3318464666666667,
            58.063560416666661
          ],
          [
            -5.3295478000000003,
            58.063274550000003
          ],
          [
            -5.3273819166666669,
            58.062887016666672
          ],
          [
            -5.3256132833333334,
            58.062555366666665
          ],
          [
            -5.3237856666666667,
            58.062112283333335
          ],
          [
            -5.3219695500000004,
            58.061409400000002
          ],
          [
            -5.3201528666666666,
            58.060710450000002
          ],
          [
            -5.3182022499999997,
            58.059962966666667
          ],
          [
            -5.3164468500000002,
            58.059343033333334
          ],
          [
            -5.3146814666666673,
            58.058721683333339
          ],
          [
            -5.3130037048217238,
            58.05810912958195
          ],
          [
            -5.3115866918298842,
            58.057608190862602
          ],
          [
            -5.3100322669983564,
            58.057058092421755
          ],
          [
            -5.3083413938449393,
            58.056457859570514
          ],
          [
            -5.3067458273717536,
            58.055862521194634
          ],
          [
            -5.3053050074750692,
            58.055280783305491
          ],
          [
            -5.3039793986737589,
            58.054708897885746
          ],
          [
            -5.3026011759926366,
            58.054098638225803
          ],
          [
            -5.3009484534065701,
            58.053420181794763
          ],
          [
            -5.3001330151705872,
            58.052792078173141
          ],
          [
            -5.2991839813107884,
            58.052025669218089
          ],
          [
            -5.2981887297681149,
            58.051252531259102
          ],
          [
            -5.2970061793943746,
            58.050595096375154
          ],
          [
            -5.2956139743882638,
            58.050021975772651
          ],
          [
            -5.2941572374301415,
            58.049480018228202
          ],
          [
            -5.2923100052892966,
            58.049164027188318
          ],
          [
            -5.2904641343867329,
            58.0488616261988
          ],
          [
            -5.2886988818366945,
            58.048565784878939
          ],
          [
            -5.2869617000000009,
            58.048281333333335
          ],
          [
            -5.2853229319544406,
            58.047968855027285
          ],
          [
            -5.2838351499536955,
            58.047525260209653
          ],
          [
            -5.2821300666666673,
            58.047348916666671
          ],
          [
            -5.2803916267616993,
            58.047197671096256
          ],
          [
            -5.2785770499999991,
            58.047196116666669
          ],
          [
            -5.2767248666666662,
            58.04696895
          ],
          [
            -5.2750296166666661,
            58.046613766666667
          ],
          [
            -5.2729943833333346,
            58.046687933333338
          ],
          [
            -5.2708611999999997,
            58.046743716666661
          ],
          [
            -5.2688494166666651,
            58.046735916666663
          ],
          [
            -5.2670915000000003,
            58.046644233333339
          ],
          [
            -5.2653230000000004,
            58.046596249999993
          ],
          [
            -5.2634689999999997,
            58.046332900000003
          ],
          [
            -5.2617288499999999,
            58.046017966666675
          ],
          [
            -5.2600464333333337,
            58.045733766666672
          ],
          [
            -5.2581772166666667,
            58.045219550000006
          ],
          [
            -5.2564669999999998,
            58.044712533333325
          ],
          [
            -5.2544842999999997,
            58.044390566666664
          ],
          [
            -5.2524880833333336,
            58.044030949999993
          ],
          [
            -5.2507895203079142,
            58.04332447965745
          ],
          [
            -5.2492818610557226,
            58.042626016179341
          ],
          [
            -5.2482444392948535,
            58.04170095212352
          ],
          [
            -5.2473236166666668,
            58.04084894999999
          ],
          [
            -5.2459603480798851,
            58.040182899004037
          ],
          [
            -5.2445830334868067,
            58.039599742408498
          ],
          [
            -5.2438634354827398,
            58.038776531638128
          ],
          [
            -5.2427999446271993,
            58.037978630305858
          ],
          [
            -5.2419080166666676,
            58.037196083333335
          ],
          [
            -5.2406746833333333,
            58.036539016666666
          ],
          [
            -5.2393855166666654,
            58.035954333333329
          ],
          [
            -5.2376762833333332,
            58.035799333333337
          ],
          [
            -5.2364787833333333,
            58.035109683333332
          ],
          [
            -5.2358075500000005,
            58.034280883333331
          ],
          [
            -5.2344980666666663,
            58.033673883333329
          ],
          [
            -5.2326234166666667,
            58.033326599999995
          ],
          [
            -5.2307959666666664,
            58.033364366666667
          ],
          [
            -5.2287551000000008,
            58.033425616666669
          ],
          [
            -5.226442566666667,
            58.033444499999995
          ],
          [
            -5.2245785333333323,
            58.033504300000004
          ],
          [
            -5.2226929333333336,
            58.033120883333339
          ],
          [
            -5.2204385666666671,
            58.033216250000002
          ],
          [
            -5.2180312166666658,
            58.033335100000009
          ],
          [
            -5.2157424166666653,
            58.033407183333338
          ],
          [
            -5.213649666666667,
            58.033366949999994
          ],
          [
            -5.21190205,
            58.033301933333327
          ],
          [
            -5.2103779666666661,
            58.034032966666672
          ],
          [
            -5.2085678666666677,
            58.034515033333342
          ],
          [
            -5.2067906833333319,
            58.034663166666661
          ],
          [
            -5.2049686000000008,
            58.034708283333337
          ],
          [
            -5.2031922009954297,
            58.03469757378047
          ],
          [
            -5.2019069666666669,
            58.034021566666659
          ],
          [
            -5.20029275,
            58.033514733333334
          ],
          [
            -5.1985965166666661,
            58.033169283333336
          ],
          [
            -5.1969801524073667,
            58.032857969447747
          ],
          [
            -5.1954322333333334,
            58.032385283333326
          ],
          [
            -5.19367935,
            58.032172199999991
          ],
          [
            -5.1919308833333337,
            58.031836900000002
          ],
          [
            -5.1902636833333338,
            58.031639266666666
          ],
          [
            -5.1884645333333328,
            58.03169668333333
          ],
          [
            -5.1867162166666656,
            58.031649683333342
          ],
          [
            -5.1850148291909051,
            58.031487259382089
          ],
          [
            -5.1833586999999994,
            58.03129233333334
          ],
          [
            -5.1814780333333337,
            58.031275966666662
          ],
          [
            -5.1796961333333336,
            58.031170433333337
          ],
          [
            -5.1778911708050277,
            58.0310035435012
          ],
          [
            -5.1761508086858035,
            58.030746628696448
          ],
          [
            -5.1746935840198303,
            58.030173514837756
          ],
          [
            -5.1739491903035466,
            58.02935381033263
          ],
          [
            -5.1731646774122018,
            58.028478646884032
          ],
          [
            -5.1721940851836345,
            58.027612585107647
          ],
          [
            -5.1713675850127823,
            58.026757342772825
          ],
          [
            -5.1708434696814942,
            58.025749289858766
          ],
          [
            -5.1704470833333342,
            58.024765549999998
          ],
          [
            -5.1700269666666667,
            58.023764933333325
          ],
          [
            -5.169762873624304,
            58.022787548650847
          ],
          [
            -5.1685927500000002,
            58.022135349999992
          ],
          [
            -5.1672417666666668,
            58.021510099999993
          ],
          [
            -5.1659317333333323,
            58.020828866666676
          ],
          [
            -5.164537133333333,
            58.020068183333329
          ],
          [
            -5.1633563190300702,
            58.019146762702775
          ],
          [
            -5.162563445684845,
            58.018217736069012
          ],
          [
            -5.161402166666667,
            58.017278783333332
          ],
          [
            -5.1605520833333332,
            58.016359016666669
          ],
          [
            -5.1591304829546276,
            58.015545433555616
          ],
          [
            -5.1577642137747501,
            58.014954849499361
          ],
          [
            -5.1570223672725861,
            58.014074848746965
          ],
          [
            -5.1558830220792808,
            58.013360818618928
          ],
          [
            -5.154756400000001,
            58.012624283333331
          ],
          [
            -5.1534525833333333,
            58.011618166666658
          ],
          [
            -5.1527716333333329,
            58.01115011666667
          ],
          [
            -5.1512974333333332,
            58.010636300000002
          ],
          [
            -5.1496633666666671,
            58.0101674
          ],
          [
            -5.1481455000000009,
            58.009570583333335
          ],
          [
            -5.1468142333333331,
            58.008903700000005
          ],
          [
            -5.145376875580939,
            58.008346418739713
          ],
          [
            -5.144026844332056,
            58.007774519073401
          ],
          [
            -5.1430931833333338,
            58.006985783333327
          ],
          [
            -5.141835050000001,
            58.006257766666678
          ],
          [
            -5.1405152166666657,
            58.005711999999995
          ],
          [
            -5.1395862499999998,
            58.00492513333333
          ],
          [
            -5.1380318666666662,
            58.004525783333342
          ],
          [
            -5.1363936166666671,
            58.004296133333334
          ],
          [
            -5.135408383333333,
            58.003492766666675
          ],
          [
            -5.1339970166666671,
            58.002966783333342
          ],
          [
            -5.132414199358692,
            58.002371990272152
          ],
          [
            -5.1305325999999996,
            58.001993899999995
          ],
          [
            -5.1289354999999999,
            58.001635366666669
          ],
          [
            -5.1274305751659153,
            58.001176334838867
          ],
          [
            -5.1256555166666669,
            58.001161066666661
          ],
          [
            -5.1236592333333331,
            58.000789300000001
          ],
          [
            -5.1218749000000008,
            58.000700049999992
          ],
          [
            -5.1201656833333331,
            58.000907233333329
          ],
          [
            -5.1185966431055592,
            58.001360736293272
          ],
          [
            -5.1169169666666665,
            58.001064383333336
          ],
          [
            -5.1156048563892726,
            58.000393781880405
          ],
          [
            -5.114154683333334,
            57.999788833333326
          ],
          [
            -5.112410067557235,
            57.999598247238197
          ],
          [
            -5.109828666666667,
            57.999338666666674
          ],
          [
            -5.109062097947116,
            57.998997656345836
          ],
          [
            -5.1073079211088181,
            57.999251251056641
          ],
          [
            -5.105683616666667,
            57.999653633333338
          ],
          [
            -5.1038285999999999,
            57.999415433333326
          ],
          [
            -5.1059148666666667,
            57.998171566666663
          ],
          [
            -5.1078819666666657,
            57.996578516666659
          ],
          [
            -5.1095355833333329,
            57.994618566666666
          ],
          [
            -5.1107996999999994,
            57.992594283333332
          ],
          [
            -5.1122639968670596,
            57.990839595322214
          ],
          [
            -5.113643183333334,
            57.989123716666668
          ],
          [
            -5.1149056333333336,
            57.987283783333332
          ],
          [
            -5.1163634166666663,
            57.985491599999989
          ],
          [
            -5.1176476166666669,
            57.983938016666663
          ],
          [
            -5.1187910333333324,
            57.982520866666668
          ],
          [
            -5.1191820097579628,
            57.980962816208958
          ],
          [
            -5.1189971833333328,
            57.979284549999996
          ],
          [
            -5.1203493499999997,
            57.977454583333333
          ],
          [
            -5.1216955166666676,
            57.975899599999998
          ],
          [
            -5.1231072499999994,
            57.974234783333337
          ],
          [
            -5.1241866333333332,
            57.97262516666666
          ],
          [
            -5.1255369666666661,
            57.971113566666659
          ],
          [
            -5.1270836666666666,
            57.969809033333327
          ],
          [
            -5.1286911166666664,
            57.968469266666666
          ],
          [
            -5.1307604666666666,
            57.967064566666679
          ],
          [
            -5.1323341833333336,
            57.965891799999994
          ],
          [
            -5.1343598132889436,
            57.964295549028954
          ],
          [
            -5.135966016666667,
            57.962776033333334
          ],
          [
            -5.1355908333333335,
            57.960936766666663
          ],
          [
            -5.1344983666666666,
            57.959309249999997
          ],
          [
            -5.1342667500000001,
            57.957839166666659
          ],
          [
            -5.1358088500000001,
            57.956536966666668
          ],
          [
            -5.138071383333334,
            57.955309783333327
          ],
          [
            -5.1403537000000004,
            57.954027566666674
          ],
          [
            -5.1423352166666669,
            57.952844866666659
          ],
          [
            -5.144446883333333,
            57.95172625
          ],
          [
            -5.1471113333333331,
            57.950740199999998
          ],
          [
            -5.1495561999999993,
            57.949780250000011
          ],
          [
            -5.1525773833333339,
            57.948925433333336
          ],
          [
            -5.1553812500000005,
            57.948164616666659
          ],
          [
            -5.158215283333333,
            57.94733333333334
          ],
          [
            -5.1611995499999992,
            57.946317100000002
          ],
          [
            -5.1642790166666668,
            57.945287666666673
          ],
          [
            -5.1667900666666666,
            57.944311333333324
          ],
          [
            -5.1685283333333327,
            57.942945899999991
          ],
          [
            -5.1706933000000008,
            57.94186478333333
          ],
          [
            -5.1731315000000002,
            57.941133183333342
          ],
          [
            -5.1761667500000001,
            57.940614349999997
          ],
          [
            -5.1788220730359926,
            57.940037053449295
          ],
          [
            -5.1813797500000005,
            57.939384116666666
          ],
          [
            -5.183295133333333,
            57.938675850000003
          ],
          [
            -5.1844168333333327,
            57.93761258333334
          ],
          [
            -5.1860797666666665,
            57.936631883333334
          ],
          [
            -5.1860797666666665,
            57.936631883333334
          ],
          [
            -5.1885668666666671,
            57.936087116666677
          ],
          [
            -5.191409366666667,
            57.935287500000001
          ],
          [
            -5.1941609499999997,
            57.934590099999994
          ],
          [
            -5.196200966666666,
            57.934010800000003
          ],
          [
            -5.1963704499999999,
            57.932740716666665
          ],
          [
            -5.1964576000000005,
            57.931475383333328
          ],
          [
            -5.1971525000000014,
            57.929971566666673
          ],
          [
            -5.197816183333333,
            57.928842216666666
          ],
          [
            -5.1964521561639332,
            57.928001722432867
          ],
          [
            -5.194830191861084,
            57.927281493221884
          ],
          [
            -5.1941546275429316,
            57.926142591493921
          ],
          [
            -5.1937367475013581,
            57.925011459816332
          ],
          [
            -5.1923639314651533,
            57.923782406004193
          ],
          [
            -5.1908083801375904,
            57.922417627380121
          ],
          [
            -5.1907252899459939,
            57.920966987211656
          ],
          [
            -5.1919502705550364,
            57.919749722196642
          ],
          [
            -5.1929131532206396,
            57.918592239843697
          ],
          [
            -5.1909412462447966,
            57.917497494849286
          ],
          [
            -5.188447342354829,
            57.916760637062175
          ],
          [
            -5.1861116635879947,
            57.916024331823138
          ],
          [
            -5.1844915667371891,
            57.915192466242338
          ],
          [
            -5.1846738460088329,
            57.913937056142345
          ],
          [
            -5.1832000193006351,
            57.912518570400273
          ],
          [
            -5.1813295322261368,
            57.911323537077571
          ],
          [
            -5.1791746689178986,
            57.910095696812206
          ],
          [
            -5.1770261975268115,
            57.908977036662797
          ],
          [
            -5.1757767226732234,
            57.908326757861317
          ],
          [
            -5.173311825137282,
            57.907693900371967
          ],
          [
            -5.1708004634970575,
            57.907604693256523
          ],
          [
            -5.1708004634970575,
            57.907604693256523
          ],
          [
            -5.1683406467522275,
            57.907026946363509
          ],
          [
            -5.1661812745280224,
            57.906420448930945
          ],
          [
            -5.1625535284485693,
            57.905874539090206
          ],
          [
            -5.1630149608029363,
            57.896539653025791
          ],
          [
            -5.1573170833333339,
            57.898004683333333
          ],
          [
            -5.1566363833333337,
            57.898836850000002
          ],
          [
            -5.1570978833333339,
            57.899716433333332
          ],
          [
            -5.1577261333333331,
            57.900587766666668
          ],
          [
            -5.1583394685199737,
            57.90146115489042
          ],
          [
            -5.1593017000000003,
            57.902247850000002
          ],
          [
            -5.1600647999999998,
            57.903092050000005
          ],
          [
            -5.1595832000000001,
            57.904013299999995
          ],
          [
            -5.1604337180570532,
            57.904892312330524
          ],
          [
            -5.1621251652639764,
            57.905356518471905
          ],
          [
            -5.1629090333333334,
            57.906201166666676
          ],
          [
            -5.1646311000000003,
            57.906045716666661
          ],
          [
            -5.1671957499999994,
            57.906747766666669
          ],
          [
            -5.1695310333333326,
            57.907454600000001
          ],
          [
            -5.1723891666666661,
            57.907632600000007
          ],
          [
            -5.1749967666666663,
            57.908035416666671
          ],
          [
            -5.1774125499999997,
            57.909196050000006
          ],
          [
            -5.1798465427039204,
            57.910473958128875
          ],
          [
            -5.182118732946325,
            57.911864509440321
          ],
          [
            -5.1837834170983452,
            57.912919517731297
          ],
          [
            -5.1844950000000001,
            57.914310583333332
          ],
          [
            -5.1848858,
            57.915586200000007
          ],
          [
            -5.1872911666666663,
            57.916463999999998
          ],
          [
            -5.1896172500000004,
            57.917144883333336
          ],
          [
            -5.1918710666666668,
            57.917821249999996
          ],
          [
            -5.1927261666666666,
            57.919070766666671
          ],
          [
            -5.1911761644299874,
            57.920246353507267
          ],
          [
            -5.1906734666666665,
            57.921836266666666
          ],
          [
            -5.191607883333333,
            57.923253283333331
          ],
          [
            -5.1924154499999995,
            57.923850466666664
          ],
          [
            -5.1933424666666665,
            57.924563933333339
          ],
          [
            -5.194051616666667,
            57.92599726666667
          ],
          [
            -5.1945837499999996,
            57.927259183333341
          ],
          [
            -5.1967749666666663,
            57.928235399999991
          ],
          [
            -5.1973339000000003,
            57.929678516666677
          ],
          [
            -5.1963999499999991,
            57.931098333333331
          ],
          [
            -5.1961936333333334,
            57.9325118
          ],
          [
            -5.1963462166666661,
            57.933655249999994
          ],
          [
            -5.1940938666666669,
            57.934539600000008
          ],
          [
            -5.1915667000000001,
            57.935174633333325
          ],
          [
            -5.189289810291621,
            57.935748060197007
          ],
          [
            -5.1869697833333328,
            57.936251616666674
          ],
          [
            -5.1850146666666674,
            57.936890116666667
          ],
          [
            -5.1840728000000009,
            57.93805316666667
          ],
          [
            -5.1823575210535653,
            57.938911039676768
          ],
          [
            -5.1802859199953879,
            57.939653710200652
          ],
          [
            -5.1773554737702403,
            57.940220465033562
          ],
          [
            -5.1746892355166212,
            57.940791312422142
          ],
          [
            -5.1716376258386658,
            57.941369832209269
          ],
          [
            -5.1696445919714815,
            57.942113758656987
          ],
          [
            -5.1678300499999992,
            57.94324855
          ],
          [
            -5.1661358333333336,
            57.944440383333323
          ],
          [
            -5.1635689500000002,
            57.945381283333333
          ],
          [
            -5.1609302499999998,
            57.9462683
          ],
          [
            -5.1582284410744403,
            57.947193710277404
          ],
          [
            -5.1553679350078605,
            57.948013407095353
          ],
          [
            -5.1523699054391603,
            57.948932476038401
          ],
          [
            -5.149563135067714,
            57.949622506966811
          ],
          [
            -5.148093080568259,
            57.950215737185069
          ],
          [
            -5.1468317558413874,
            57.950695705316626
          ],
          [
            -5.144628622741716,
            57.95152043601702
          ],
          [
            -5.1423975333333338,
            57.952672600000007
          ],
          [
            -5.1400741166666668,
            57.954086216666667
          ],
          [
            -5.1378797333333335,
            57.955327366666673
          ],
          [
            -5.1357555166666673,
            57.956481100000005
          ],
          [
            -5.134200016666667,
            57.9578974
          ],
          [
            -5.1346008666666663,
            57.959612783333327
          ],
          [
            -5.135535,
            57.961207050000006
          ],
          [
            -5.1355589166666666,
            57.962848533333336
          ],
          [
            -5.1338138155457873,
            57.964439841427769
          ],
          [
            -5.1320700261441488,
            57.965870208090287
          ],
          [
            -5.1302653666666673,
            57.967191050000004
          ],
          [
            -5.1284746333333331,
            57.968476849999988
          ],
          [
            -5.1268901666666666,
            57.969845083333333
          ],
          [
            -5.1252041666666672,
            57.971292999999996
          ],
          [
            -5.123908300000001,
            57.972878383333331
          ],
          [
            -5.1229457500000013,
            57.974337466666668
          ],
          [
            -5.1217084040179648,
            57.9757585987496
          ],
          [
            -5.1208672933951513,
            57.976681492596434
          ],
          [
            -5.1196230028141319,
            57.978184130700129
          ],
          [
            -5.1189193807687836,
            57.97961885733266
          ],
          [
            -5.1191089370608482,
            57.980986927910685
          ],
          [
            -5.118898672724792,
            57.9821567873554
          ],
          [
            -5.1183311723375331,
            57.983089213685368
          ],
          [
            -5.1174530666666671,
            57.984057216666663
          ],
          [
            -5.1164226128694086,
            57.985290895561107
          ],
          [
            -5.115291954286449,
            57.986654061019621
          ],
          [
            -5.1141919077819971,
            57.98801037878151
          ],
          [
            -5.1134454166666661,
            57.989324999999994
          ],
          [
            -5.1121940000000006,
            57.990727883333328
          ],
          [
            -5.1109578666666664,
            57.9921048
          ],
          [
            -5.1100924666666669,
            57.993479583333325
          ],
          [
            -5.1090863833333335,
            57.994930766666656
          ],
          [
            -5.1079542333333334,
            57.996287899999999
          ],
          [
            -5.1065405000000004,
            57.997505883333325
          ],
          [
            -5.1049759166666666,
            57.998617349999996
          ],
          [
            -5.1042978833333335,
            57.999034950000002
          ],
          [
            -5.1032089166666665,
            57.999762333333329
          ],
          [
            -5.1018983499999999,
            58.000922266666677
          ],
          [
            -5.1001903666666664,
            58.002026883333336
          ],
          [
            -5.0974847333333333,
            58.002526466666659
          ],
          [
            -5.0949152333333334,
            58.00367
          ],
          [
            -5.0927951,
            58.004788599999998
          ],
          [
            -5.0906802333333339,
            58.005681750000001
          ],
          [
            -5.0893534333333337,
            58.007060183333337
          ],
          [
            -5.0875089500000001,
            58.008532633333331
          ],
          [
            -5.0858047333333332,
            58.010042016666659
          ],
          [
            -5.0844767833333329,
            58.01158723333333
          ],
          [
            -5.0829436833333341,
            58.012977716666668
          ],
          [
            -5.0812861333333332,
            58.014270616666664
          ],
          [
            -5.0795428666666673,
            58.015497633333339
          ],
          [
            -5.0787047666666663,
            58.017078583333323
          ],
          [
            -5.0779847333333326,
            58.018673400000004
          ],
          [
            -5.0772717166666661,
            58.020053433333338
          ],
          [
            -5.076456283333334,
            58.021649499999995
          ],
          [
            -5.0757065500000005,
            58.023128449999994
          ],
          [
            -5.0749393666666665,
            58.024620849999998
          ],
          [
            -5.0740681333333333,
            58.026252833333338
          ],
          [
            -5.0731704999999998,
            58.028001016666671
          ],
          [
            -5.0732884736572652,
            58.029587095923006
          ],
          [
            -5.0736061929469845,
            58.031161647356605
          ],
          [
            -5.0727379166666671,
            58.032698133333334
          ],
          [
            -5.0717034333333331,
            58.034055050000006
          ],
          [
            -5.0707590182872186,
            58.035320634048105
          ],
          [
            -5.0689474452549304,
            58.036648289466214
          ],
          [
            -5.0670179929626915,
            58.037441499528818
          ],
          [
            -5.0649518521067121,
            58.038333837678714
          ],
          [
            -5.0629331462565057,
            58.039339600754737
          ],
          [
            -5.0606557802780019,
            58.040206961582314
          ],
          [
            -5.0584154404861295,
            58.041384051527629
          ],
          [
            -5.0565926184378993,
            58.042250605983632
          ],
          [
            -5.0552220600973268,
            58.042780830095253
          ],
          [
            -5.0531262333333338,
            58.043584683333336
          ],
          [
            -5.0509789999999999,
            58.044380783333324
          ],
          [
            -5.0490255666666668,
            58.04507018333333
          ],
          [
            -5.0466130666666666,
            58.045538833333332
          ],
          [
            -5.0440278666666671,
            58.045832683333337
          ],
          [
            -5.0415917666666656,
            58.046219466666663
          ],
          [
            -5.0391939174337699,
            58.046269113168265
          ],
          [
            -5.0373258637044209,
            58.045712101536942
          ],
          [
            -5.0354382833333338,
            58.04639130000001
          ],
          [
            -5.0337905999999997,
            58.047230433333333
          ],
          [
            -5.0315474927665154,
            58.047924036959053
          ],
          [
            -5.0300346166666667,
            58.048722700000006
          ],
          [
            -5.030849533333333,
            58.049894766666661
          ],
          [
            -5.032559681143205,
            58.050758026215043
          ],
          [
            -5.0319677666666669,
            58.05197325000001
          ],
          [
            -5.030582766666666,
            58.053283083333326
          ],
          [
            -5.030108516666667,
            58.054523716666672
          ],
          [
            -5.0295340666666659,
            58.055995550000006
          ],
          [
            -5.0293665166666663,
            58.05738663333333
          ],
          [
            -5.0291745188953838,
            58.058764401528556
          ],
          [
            -5.0291745188953838,
            58.058764401528556
          ],
          [
            -5.0279843499999997,
            58.060035016666674
          ],
          [
            -5.0258436666666659,
            58.060725233333336
          ],
          [
            -5.0235795166666666,
            58.061412216666668
          ],
          [
            -5.0209313333333334,
            58.061780699999993
          ],
          [
            -5.0181569333333345,
            58.06215723333333
          ],
          [
            -5.0157472499999995,
            58.062682500000001
          ],
          [
            -5.0128010833333327,
            58.062790999999997
          ],
          [
            -5.0100875833333331,
            58.062407683333333
          ],
          [
            -5.0072837333333338,
            58.061924883333333
          ],
          [
            -5.0042152499999997,
            58.061864800000002
          ],
          [
            -5.0014963000000012,
            58.062620683333336
          ],
          [
            -4.9982014166666664,
            58.062941749999993
          ],
          [
            -4.9951493499999993,
            58.063286166666664
          ],
          [
            -4.9923129166666662,
            58.063862850000007
          ],
          [
            -4.9894347833333326,
            58.063803249999999
          ],
          [
            -4.986802683333333,
            58.063718249999994
          ],
          [
            -4.9840717666666672,
            58.064252383333326
          ],
          [
            -4.9820890000000002,
            58.065300566666672
          ],
          [
            -4.9805291166666663,
            58.066053016666672
          ],
          [
            -4.9778264499999993,
            58.066111100000008
          ],
          [
            -4.9755149504983232,
            58.066207179069586
          ],
          [
            -4.9736182833333338,
            58.066254950000001
          ],
          [
            -4.9725691333333328,
            58.067397383333343
          ],
          [
            -4.9739527666666667,
            58.068754583333337
          ],
          [
            -4.9756610833333337,
            58.070049133333335
          ],
          [
            -4.977838583333333,
            58.071132166666665
          ],
          [
            -4.9793605000000003,
            58.072417883333337
          ],
          [
            -4.9784932333333334,
            58.073969583333337
          ],
          [
            -4.9768605499999996,
            58.075280466666662
          ],
          [
            -4.9753289666666669,
            58.076739283333332
          ],
          [
            -4.9740314000000003,
            58.078308299999996
          ],
          [
            -4.9729103414722537,
            58.079944325010196
          ],
          [
            -4.9713979333333329,
            58.081385400000002
          ],
          [
            -4.9708934999999999,
            58.083087499999998
          ],
          [
            -4.9716623333333327,
            58.084856016666663
          ],
          [
            -4.9721964999999999,
            58.086725433333342
          ],
          [
            -4.9726726000000001,
            58.088454583333338
          ],
          [
            -4.9728825499999996,
            58.090139083333327
          ],
          [
            -4.9726195666666664,
            58.091734866666663
          ],
          [
            -4.9727566999999997,
            58.093313366666671
          ],
          [
            -4.9726940833333337,
            58.093858433333331
          ],
          [
            -4.9721110500000005,
            58.094802466666671
          ],
          [
            -4.9711463499999997,
            58.09632928333334
          ],
          [
            -4.9709494333333328,
            58.097914499999995
          ],
          [
            -4.970548833333333,
            58.09942328333333
          ],
          [
            -4.9698552666666655,
            58.100926566666679
          ],
          [
            -4.9688631833333341,
            58.102568433333332
          ],
          [
            -4.9682796833333338,
            58.104247183333335
          ],
          [
            -4.9673986833333332,
            58.105904833333334
          ],
          [
            -4.9669052000000002,
            58.107402766666667
          ],
          [
            -4.9664119333333332,
            58.108979916666677
          ],
          [
            -4.9658000833333338,
            58.11046618333333
          ],
          [
            -4.965573833333333,
            58.111924500000001
          ],
          [
            -4.9655322833333333,
            58.113218833333335
          ],
          [
            -4.9657215646718385,
            58.114154801609061
          ],
          [
            -4.9666697500000003,
            58.114940116666666
          ],
          [
            -4.9679330666666663,
            58.11588145000001
          ],
          [
            -4.9683869019728188,
            58.117353803821075
          ],
          [
            -4.9690810684268181,
            58.118864011232517
          ],
          [
            -4.9696761333333335,
            58.120235366666677
          ],
          [
            -4.9707489666666671,
            58.121547250000006
          ],
          [
            -4.9719128000000001,
            58.122885933333329
          ],
          [
            -4.9735085333333329,
            58.124069399999989
          ],
          [
            -4.9751993333333333,
            58.124924183333327
          ],
          [
            -4.9758722500000001,
            58.126303433333341
          ],
          [
            -4.9764212333333342,
            58.127779016666665
          ],
          [
            -4.9764596666666661,
            58.128502966666673
          ],
          [
            -4.97671755,
            58.129235466666657
          ],
          [
            -4.9772698833333333,
            58.130797049999998
          ],
          [
            -4.9777267500000004,
            58.132275450000002
          ],
          [
            -4.9771117666666669,
            58.133828883333337
          ],
          [
            -4.9769466999999992,
            58.135401466666664
          ],
          [
            -4.9769741666666665,
            58.136831916666672
          ],
          [
            -4.9765435333333325,
            58.138441683333333
          ],
          [
            -4.9761057000000006,
            58.139929550000005
          ],
          [
            -4.9764015333333331,
            58.14129921666666
          ],
          [
            -4.9766401,
            58.14270976666667
          ],
          [
            -4.9761644499999997,
            58.144098700000001
          ],
          [
            -4.9759630499999989,
            58.145428883333338
          ],
          [
            -4.974935283333334,
            58.146909133333338
          ],
          [
            -4.9740462833333323,
            58.148198916666658
          ],
          [
            -4.9736745166666667,
            58.149376899999993
          ],
          [
            -4.9742972432733996,
            58.150526993392376
          ],
          [
            -4.9746709113985617,
            58.151888741338013
          ],
          [
            -4.9750754803732038,
            58.153152521354677
          ],
          [
            -4.9757178511576532,
            58.154449991273573
          ],
          [
            -4.9767412405351523,
            58.155662584688109
          ],
          [
            -4.9777716858197065,
            58.156975294599995
          ],
          [
            -4.9786785499999997,
            58.158147533333342
          ],
          [
            -4.9803822166666656,
            58.158987616666678
          ],
          [
            -4.9822797166666666,
            58.159800750000009
          ],
          [
            -4.9839026389509629,
            58.160840210264951
          ],
          [
            -4.9856483499999991,
            58.161966
          ],
          [
            -4.9868478450065643,
            58.163019451594302
          ],
          [
            -4.9863907965997445,
            58.164277911667405
          ],
          [
            -4.988001721260436,
            58.165663061124931
          ],
          [
            -4.9890247333333333,
            58.166317383333336
          ],
          [
            -4.9898679152623622,
            58.167149645159768
          ],
          [
            -4.9907702999999994,
            58.16799335000001
          ],
          [
            -4.9928876166666667,
            58.16852801666667
          ],
          [
            -4.9947307500000004,
            58.169453116666666
          ],
          [
            -4.9971524166666663,
            58.169758833333326
          ],
          [
            -4.9990974081182955,
            58.170376468385719
          ],
          [
            -5.0008169110847795,
            58.17139482216492
          ],
          [
            -5.0022022885159174,
            58.172424224070056
          ],
          [
            -5.0043669478199391,
            58.17334355067181
          ],
          [
            -5.0068989499999992,
            58.173638833333342
          ],
          [
            -5.0094636333333336,
            58.173804016666658
          ],
          [
            -5.0114980999999998,
            58.175071583333327
          ],
          [
            -5.0143405000000003,
            58.175806366666663
          ],
          [
            -5.0173599166666669,
            58.175515433333338
          ],
          [
            -5.0200462666666663,
            58.17590713333334
          ],
          [
            -5.0224485166666666,
            58.176623783333326
          ],
          [
            -5.0249655500000001,
            58.177220199999994
          ],
          [
            -5.0279160666666662,
            58.177287300000003
          ],
          [
            -5.0310021333333328,
            58.177696133333335
          ],
          [
            -5.0337019499999993,
            58.178298750000003
          ],
          [
            -5.0362677333333332,
            58.178845449999997
          ],
          [
            -5.0390495499999997,
            58.178919549999996
          ],
          [
            -5.0416242166666665,
            58.179545783333332
          ],
          [
            -5.0439779666666666,
            58.180625466666662
          ],
          [
            -5.0463174666666664,
            58.181439916666676
          ],
          [
            -5.0490456833333335,
            58.182645566666665
          ],
          [
            -5.0504781333333328,
            58.183735266666659
          ],
          [
            -5.0526899500000004,
            58.18492688333334
          ],
          [
            -5.0557037499999993,
            58.185541616666661
          ],
          [
            -5.0584650666666668,
            58.185930099999993
          ],
          [
            -5.06097895,
            58.186505866666664
          ],
          [
            -5.0637907166666665,
            58.186764866666671
          ],
          [
            -5.06661245,
            58.186655733333325
          ],
          [
            -5.0693866166666677,
            58.186490533333334
          ],
          [
            -5.0718472999999991,
            58.186987166666661
          ],
          [
            -5.0745394666666677,
            58.187604383333337
          ],
          [
            -5.0770057999999993,
            58.188245600000002
          ],
          [
            -5.0791601833333333,
            58.189121916666664
          ],
          [
            -5.0816886999999999,
            58.189306916666659
          ],
          [
            -5.0842935833333334,
            58.190150049999993
          ],
          [
            -5.0869768666666673,
            58.191058866666658
          ],
          [
            -5.0898319666666669,
            58.191582933333329
          ],
          [
            -5.0925893666666671,
            58.191601233333323
          ],
          [
            -5.0951000999999998,
            58.191346033333339
          ],
          [
            -5.0978457999439986,
            58.191124992493066
          ],
          [
            -5.1005833666666671,
            58.19117275
          ],
          [
            -5.1036315166666668,
            58.191370850000006
          ],
          [
            -5.1056259166666669,
            58.190592000000002
          ],
          [
            -5.106313216666666,
            58.189165533333338
          ],
          [
            -5.1073456833333326,
            58.18796055
          ],
          [
            -5.1089214500000004,
            58.18687491666666
          ],
          [
            -5.1104727166666661,
            58.18571455
          ],
          [
            -5.1116357999999993,
            58.184492900000002
          ],
          [
            -5.1131986333333339,
            58.183414866666666
          ],
          [
            -5.1139571333333329,
            58.183080133333334
          ],
          [
            -5.1151769666666667,
            58.18258243333333
          ],
          [
            -5.1172852666666664,
            58.181628900000007
          ],
          [
            -5.1188232333333339,
            58.180613599999994
          ],
          [
            -5.1202476000000008,
            58.17955645
          ],
          [
            -5.1219070499999999,
            58.178354633333328
          ],
          [
            -5.123755533333334,
            58.177413399999999
          ],
          [
            -5.1262426166666675,
            58.176480016666666
          ],
          [
            -5.1290737499999999,
            58.175872666666656
          ],
          [
            -5.1319327833333341,
            58.175380949999997
          ],
          [
            -5.1344697333333329,
            58.174996233333339
          ],
          [
            -5.1368852166666672,
            58.175116600000003
          ],
          [
            -5.1397079000000003,
            58.175818799999995
          ],
          [
            -5.1424912833333334,
            58.17651819999999
          ],
          [
            -5.1451396000000003,
            58.176867400000006
          ],
          [
            -5.1478824333333328,
            58.177004050000008
          ],
          [
            -5.1504510666666663,
            58.177278783333335
          ],
          [
            -5.1529092500000004,
            58.177723566666657
          ],
          [
            -5.1558759999999992,
            58.177667233333338
          ],
          [
            -5.1590139666666666,
            58.177173700000004
          ],
          [
            -5.1615500499999989,
            58.176407166666664
          ],
          [
            -5.1636812166666672,
            58.175486733333344
          ],
          [
            -5.1650629500000003,
            58.174347999999995
          ],
          [
            -5.1671080333333332,
            58.173430616666671
          ],
          [
            -5.1693350166666665,
            58.172610883333327
          ],
          [
            -5.171362666666667,
            58.171976833333339
          ],
          [
            -5.1739351833333327,
            58.171438366666671
          ],
          [
            -5.1764327666666672,
            58.170969899999996
          ],
          [
            -5.1790373333333335,
            58.170665216666677
          ],
          [
            -5.181864533333334,
            58.170195333333339
          ],
          [
            -5.181864533333334,
            58.170195333333339
          ],
          [
            -5.1842342333333331,
            58.169461533333333
          ],
          [
            -5.1867127666666661,
            58.168920700000001
          ],
          [
            -5.1892357666666671,
            58.168606099999998
          ],
          [
            -5.1918402500000003,
            58.168282266666665
          ],
          [
            -5.1949160666666669,
            58.168071633333327
          ],
          [
            -5.1978700666666668,
            58.167681466666664
          ],
          [
            -5.1998824166666671,
            58.166797016666671
          ],
          [
            -5.2019689666666675,
            58.166115000000005
          ],
          [
            -5.2046106666666674,
            58.165409566666661
          ],
          [
            -5.2073547500000004,
            58.164608899999998
          ],
          [
            -5.2100591333333339,
            58.163889416666677
          ],
          [
            -5.2124978833333335,
            58.163138516666677
          ],
          [
            -5.2148560333333327,
            58.162536916666674
          ],
          [
            -5.217463866666666,
            58.161874950000005
          ],
          [
            -5.2196627499999995,
            58.161209750000005
          ],
          [
            -5.2216467333333334,
            58.160564566666672
          ],
          [
            -5.2238295499999996,
            58.159857516666669
          ],
          [
            -5.2262604092607132,
            58.159701132202038
          ],
          [
            -5.228812787120285,
            58.160204408052472
          ],
          [
            -5.2309462499999997,
            58.160063133333338
          ],
          [
            -5.2326507666666657,
            58.159873666666662
          ],
          [
            -5.2343111666666662,
            58.160197716666673
          ],
          [
            -5.2352897,
            58.160943166666662
          ],
          [
            -5.2358391166666669,
            58.161858500000001
          ],
          [
            -5.2374777833333326,
            58.162137683333341
          ],
          [
            -5.2397180666666676,
            58.162368283333336
          ],
          [
            -5.2409398666666673,
            58.162523166666674
          ],
          [
            -5.242840216666667,
            58.162671066666661
          ],
          [
            -5.2445128833333348,
            58.162915733333335
          ],
          [
            -5.2460777000000016,
            58.163302716666671
          ],
          [
            -5.2470971832233957,
            58.164058252429868
          ],
          [
            -5.2475362666666658,
            58.165001249999996
          ],
          [
            -5.2484562833333337,
            58.165908099999989
          ],
          [
            -5.2498212166666667,
            58.166463916666665
          ],
          [
            -5.2515556666666665,
            58.166886733333328
          ],
          [
            -5.2534100666666665,
            58.167159249999997
          ],
          [
            -5.2551568333333325,
            58.167378016666667
          ],
          [
            -5.2568829666666659,
            58.167726899999998
          ],
          [
            -5.2583827333333337,
            58.168256383333329
          ],
          [
            -5.2597868000000005,
            58.16877341666666
          ],
          [
            -5.2611920166666666,
            58.169340600000005
          ],
          [
            -5.2616787854867351,
            58.170214313555213
          ],
          [
            -5.2611525666666674,
            58.171100616666671
          ],
          [
            -5.2599006726694615,
            58.171779612739662
          ],
          [
            -5.2603262500000012,
            58.172725350000007
          ],
          [
            -5.2615648666666663,
            58.173432516666658
          ],
          [
            -5.263347183333333,
            58.173555583333339
          ],
          [
            -5.2650426833333333,
            58.173644400000001
          ],
          [
            -5.2673641999999985,
            58.174316516666671
          ],
          [
            -5.2681237321528487,
            58.174530272667639
          ],
          [
            -5.2696081119934766,
            58.175104935661196
          ],
          [
            -5.270989743409328,
            58.176017661676781
          ],
          [
            -5.274091707858843,
            58.176947931716768
          ]
        ]
      },
      "properties" : {
        "source" : "Geory 5.3.2",
        "start" : "2026-10-06T23:00:00Z",
        "type" : "route",
        "device" : "B9E47AEB-E54C-4563-96B6-06995DD4BC56 (iPhone 16 Pro)",
        "end" : "2026-10-07T20:17:24Z"
      },
      "type" : "Feature"
    }
  ]
}