{
  "type" : "FeatureCollection",
  "features" : [
    {
      "type" : "Feature",
      "geometry" : {
        "type" : "Point",
        "coordinates" : [
          -4.741654555125181,
          58.569386737148619
        ]
      },
      "properties" : {
        "rating" : 0,
        "departure" : "2026-10-02T04:21:57Z",
        "weather" : "Klarer Himmel (13,5 °C)",
        "source" : "Geory 5.3.2",
        "type" : "visit",
        "device" : "B9E47AEB-E54C-4563-96B6-06995DD4BC56 (iPhone 16 Pro)",
        "timestamp" : "2026-10-01T16:55:05Z",
        "duration" : 41212.851414680481,
        "arrival" : "2026-10-01T16:55:05Z",
        "address" : "A838, Sangomore, Durness, Lairg, IV27, Schottland"
      }
    },
    {
      "geometry" : {
        "type" : "Point",
        "coordinates" : [
          -4.7446142117884955,
          58.568666551941348
        ]
      },
      "properties" : {
        "source" : "Geory 5.3.2",
        "type" : "visit",
        "departure" : "2026-10-02T09:26:49Z",
        "arrival" : "2026-10-02T04:22:12Z",
        "device" : "B9E47AEB-E54C-4563-96B6-06995DD4BC56 (iPhone 16 Pro)",
        "duration" : 18277.1284968853,
        "weather" : "Überwiegend bewölkt (11,9 °C)",
        "timestamp" : "2026-10-02T04:22:12Z",
        "rating" : 0,
        "address" : "A838, Durine, Durness, Lairg, IV27, Schottland"
      },
      "type" : "Feature"
    },
    {
      "geometry" : {
        "type" : "Point",
        "coordinates" : [
          -4.9465013148973895,
          58.446029115900608
        ]
      },
      "properties" : {
        "rating" : 0,
        "address" : "A838, Lairg, IV27, Schottland",
        "device" : "B9E47AEB-E54C-4563-96B6-06995DD4BC56 (iPhone 16 Pro)",
        "weather" : "Bedeckter Himmel (13,2 °C)",
        "type" : "visit",
        "source" : "Geory 5.3.2",
        "departure" : "2026-10-02T10:46:06Z",
        "duration" : 921.60498237609863,
        "arrival" : "2026-10-02T10:30:45Z",
        "timestamp" : "2026-10-02T10:30:45Z"
      },
      "type" : "Feature"
    },
    {
      "type" : "Feature",
      "geometry" : {
        "type" : "Point",
        "coordinates" : [
          -5.0517805234591018,
          58.456754143413207
        ]
      },
      "properties" : {
        "departure" : "2026-10-02T11:33:18Z",
        "arrival" : "2026-10-02T11:12:28Z",
        "weather" : "Bedeckter Himmel (14,7 °C)",
        "type" : "visit",
        "rating" : 0,
        "source" : "Geory 5.3.2",
        "duration" : 1249.9990088939667,
        "timestamp" : "2026-10-02T11:12:28Z",
        "device" : "B9E47AEB-E54C-4563-96B6-06995DD4BC56 (iPhone 16 Pro)",
        "address" : "B801, Kinlochbervie, Lairg, IV27, Schottland"
      }
    },
    {
      "geometry" : {
        "type" : "Point",
        "coordinates" : [
          -5.0147646571344691,
          58.4541412734118
        ]
      },
      "type" : "Feature",
      "properties" : {
        "timestamp" : "2026-10-02T11:37:29Z",
        "source" : "Geory 5.3.2",
        "departure" : "2026-10-02T12:16:54Z",
        "type" : "visit",
        "duration" : 2365.0028369426727,
        "arrival" : "2026-10-02T11:37:29Z",
        "address" : "Glencoe, Badcall, Rhiconich, Lairg, IV27 4RQ, Schottland",
        "device" : "B9E47AEB-E54C-4563-96B6-06995DD4BC56 (iPhone 16 Pro)",
        "weather" : "Leichter Regen (14,7 °C)",
        "rating" : 0
      }
    },
    {
      "geometry" : {
        "coordinates" : [
          -5.0176988302596159,
          58.374718375215586
        ],
        "type" : "Point"
      },
      "properties" : {
        "rating" : 0,
        "weather" : "Bedeckter Himmel (16,3 °C)",
        "address" : "A838, Lairg, IV27, Schottland",
        "type" : "visit",
        "timestamp" : "2026-10-02T12:32:28Z",
        "departure" : "2026-10-02T13:31:31Z",
        "duration" : 3543.6975994110107,
        "device" : "B9E47AEB-E54C-4563-96B6-06995DD4BC56 (iPhone 16 Pro)",
        "source" : "Geory 5.3.2",
        "arrival" : "2026-10-02T12:32:28Z"
      },
      "type" : "Feature"
    },
    {
      "properties" : {
        "departure" : "2026-10-02T17:09:39Z",
        "weather" : "Leichter Regen (14,2 °C)",
        "arrival" : "2026-10-02T13:42:34Z",
        "address" : "Scourie Caravan and Camping Site, The Anchorage, Scouriemore, Scourie, Lairg, IV27 4TG, Schottland",
        "timestamp" : "2026-10-02T13:42:34Z",
        "source" : "Geory 5.3.2",
        "device" : "B9E47AEB-E54C-4563-96B6-06995DD4BC56 (iPhone 16 Pro)",
        "duration" : 12425.70021033287,
        "rating" : 0,
        "type" : "visit"
      },
      "type" : "Feature",
      "geometry" : {
        "type" : "Point",
        "coordinates" : [
          -5.1571588611199939,
          58.351547348517514
        ]
      }
    },
    {
      "properties" : {
        "rating" : 0,
        "departure" : "2026-10-02T18:05:20Z",
        "timestamp" : "2026-10-02T17:09:40Z",
        "address" : "Lairg, IV27, Schottland",
        "duration" : 3340.00022315979,
        "arrival" : "2026-10-02T17:09:40Z",
        "source" : "Geory 5.3.2",
        "type" : "visit",
        "device" : "B9E47AEB-E54C-4563-96B6-06995DD4BC56 (iPhone 16 Pro)",
        "weather" : "Regen (14,7 °C)"
      },
      "geometry" : {
        "type" : "Point",
        "coordinates" : [
          -5.1613451021382621,
          58.350326878587587
        ]
      },
      "type" : "Feature"
    },
    {
      "geometry" : {
        "coordinates" : [
          -5.1570997315892955,
          58.351594418075955
        ],
        "type" : "Point"
      },
      "type" : "Feature",
      "properties" : {
        "source" : "Geory 5.3.2",
        "type" : "visit",
        "device" : "B9E47AEB-E54C-4563-96B6-06995DD4BC56 (iPhone 16 Pro)",
        "arrival" : "2026-10-02T18:05:21Z",
        "duration" : 54833.999823570251,
        "rating" : 0,
        "address" : "Scourie Caravan and Camping Site, The Anchorage, Scouriemore, Scourie, Lairg, IV27 4TG, Schottland",
        "departure" : "2026-10-03T09:19:15Z",
        "timestamp" : "2026-10-02T18:05:21Z",
        "weather" : "Regen (12,3 °C)"
      }
    },
    {
      "properties" : {
        "device" : "B9E47AEB-E54C-4563-96B6-06995DD4BC56 (iPhone 16 Pro)",
        "start" : "2026-10-01T23:00:00Z",
        "end" : "2026-10-02T22:59:59Z",
        "type" : "route",
        "source" : "Geory 5.3.2"
      },
      "type" : "Feature",
      "geometry" : {
        "coordinates" : [
          [
            -5.1570997315892955,
            58.351594418075955
          ],
          [
            -5.1613451021382621,
            58.350326878587587
          ],
          [
            -5.1571588611199939,
            58.351547348517514
          ],
          [
            -5.1556678333333332,
            58.351499616666665
          ],
          [
            -5.1537868833333329,
            58.351497299999998
          ],
          [
            -5.1519873833333332,
            58.351697999999999
          ],
          [
            -5.1502288333333341,
            58.351960916666663
          ],
          [
            -5.1483072666666665,
            58.352177583333329
          ],
          [
            -5.1448282833333341,
            58.351730583333328
          ],
          [
            -5.1429575833333336,
            58.351408016666667
          ],
          [
            -5.140428233333334,
            58.350809700000006
          ],
          [
            -5.1381656166666669,
            58.3497822
          ],
          [
            -5.1359544666666661,
            58.348921616666665
          ],
          [
            -5.1335007166666662,
            58.34852823333334
          ],
          [
            -5.1307494499999997,
            58.348601783333336
          ],
          [
            -5.1279875833333337,
            58.348582299999997
          ],
          [
            -5.1252928499999992,
            58.348698266666666
          ],
          [
            -5.1217635499999998,
            58.348786233333342
          ],
          [
            -5.1191992499999994,
            58.348863416666667
          ],
          [
            -5.1170371333333335,
            58.349717600000005
          ],
          [
            -5.1163407166666657,
            58.350967616666665
          ],
          [
            -5.1158405108344134,
            58.352495942453253
          ],
          [
            -5.1134531333333335,
            58.353742833333342
          ],
          [
            -5.1103196861840097,
            58.354655690968144
          ],
          [
            -5.1075017193637455,
            58.355491923080081
          ],
          [
            -5.1043906701709378,
            58.356167314663651
          ],
          [
            -5.1014773315969286,
            58.356578697186215
          ],
          [
            -5.0992755166666663,
            58.357756183333336
          ],
          [
            -5.0966783563422435,
            58.358696714240345
          ],
          [
            -5.094694716666667,
            58.359864600000009
          ],
          [
            -5.0923073499999996,
            58.361065700000005
          ],
          [
            -5.0918024666666666,
            58.362475766666662
          ],
          [
            -5.0921342333333328,
            58.363857716666672
          ],
          [
            -5.0904506874305238,
            58.364804586893577
          ],
          [
            -5.0877363245617682,
            58.364287594573362
          ],
          [
            -5.0849133819188408,
            58.364930824798414
          ],
          [
            -5.0831904000000003,
            58.366113200000001
          ],
          [
            -5.0819219333333336,
            58.367343900000002
          ],
          [
            -5.0808064721592361,
            58.368637903143082
          ],
          [
            -5.0788230103699341,
            58.369736086513768
          ],
          [
            -5.0765080376641913,
            58.370554725997117
          ],
          [
            -5.0747292332552263,
            58.371852100475976
          ],
          [
            -5.0738702015371588,
            58.373232920030532
          ],
          [
            -5.0723621333333329,
            58.374503116666666
          ],
          [
            -5.0712207499999993,
            58.375978249999996
          ],
          [
            -5.0702615333333334,
            58.377391433333329
          ],
          [
            -5.0687911000000003,
            58.378665866666672
          ],
          [
            -5.0663928833333332,
            58.379268766666669
          ],
          [
            -5.0637840403965804,
            58.379219734111146
          ],
          [
            -5.0616280142267769,
            58.378253242414281
          ],
          [
            -5.0598881166666665,
            58.377464049999993
          ],
          [
            -5.057717709955516,
            58.376303367173193
          ],
          [
            -5.0550290531669591,
            58.375254821506303
          ],
          [
            -5.0521017672715596,
            58.374526740624141
          ],
          [
            -5.0492327338684229,
            58.3739829421583
          ],
          [
            -5.0460404435506154,
            58.373357754047106
          ],
          [
            -5.0431590053067179,
            58.372750743035802
          ],
          [
            -5.0405182488058191,
            58.372189727718272
          ],
          [
            -5.0379788574289446,
            58.371747155120055
          ],
          [
            -5.035606416666667,
            58.372215699999998
          ],
          [
            -5.0329682341068001,
            58.372377099996307
          ],
          [
            -5.030194144645904,
            58.371751014443632
          ],
          [
            -5.0280958954091535,
            58.371266762796729
          ],
          [
            -5.0258341367315715,
            58.370734671816017
          ],
          [
            -5.023520594155273,
            58.370661903913273
          ],
          [
            -5.0201619333333332,
            58.372499266666672
          ],
          [
            -5.0176988302596159,
            58.374718375215586
          ],
          [
            -5.0166769166666665,
            58.374830933333335
          ],
          [
            -5.0167588833333339,
            58.375788
          ],
          [
            -5.0172168333333333,
            58.376563999999988
          ],
          [
            -5.01796475,
            58.377098933333343
          ],
          [
            -5.0204282499999993,
            58.377824516666671
          ],
          [
            -5.0229601666666674,
            58.378490883333335
          ],
          [
            -5.0256071666666662,
            58.379073199999993
          ],
          [
            -5.0281494301478267,
            58.37955607664135
          ],
          [
            -5.0306064879428529,
            58.380154796468638
          ],
          [
            -5.0323890166666665,
            58.381200766666666
          ],
          [
            -5.03314605,
            58.382529566666669
          ],
          [
            -5.0327862333333329,
            58.383822766666661
          ],
          [
            -5.0314244500000003,
            58.384943383333336
          ],
          [
            -5.0296443000000002,
            58.386124416666675
          ],
          [
            -5.0278613500000002,
            58.387305566666662
          ],
          [
            -5.0261622333333333,
            58.388689116666669
          ],
          [
            -5.024906333333333,
            58.390225999999998
          ],
          [
            -5.0237510500000004,
            58.391677949999995
          ],
          [
            -5.022519383333333,
            58.393232033333334
          ],
          [
            -5.0207112,
            58.394745999999998
          ],
          [
            -5.0185854333333335,
            58.395895599999996
          ],
          [
            -5.0165650166666671,
            58.396976883333338
          ],
          [
            -5.0149860166666667,
            58.398073933333336
          ],
          [
            -5.0137482666666671,
            58.399365683333322
          ],
          [
            -5.0126339666666668,
            58.400590466666664
          ],
          [
            -5.0114524166666667,
            58.401894966666667
          ],
          [
            -5.0101908499999999,
            58.403301450000001
          ],
          [
            -5.0085999166666664,
            58.40443346666666
          ],
          [
            -5.0060785000000001,
            58.405283866666664
          ],
          [
            -5.0038273500000008,
            58.406302783333331
          ],
          [
            -5.0026030500000003,
            58.407756399999997
          ],
          [
            -5.0024893666666665,
            58.408498216666672
          ],
          [
            -5.0026150666666664,
            58.409369166666664
          ],
          [
            -5.0029170000000009,
            58.411008933333335
          ],
          [
            -5.0032191166666671,
            58.412640466666666
          ],
          [
            -5.0035180499999994,
            58.414261900000007
          ],
          [
            -5.003815883333333,
            58.415919583333334
          ],
          [
            -5.0041024500000004,
            58.417465800000009
          ],
          [
            -5.0043196000000005,
            58.418873016666673
          ],
          [
            -5.0036076166666659,
            58.420309766666662
          ],
          [
            -5.0019026333333327,
            58.421331466666672
          ],
          [
            -4.9995427833333341,
            58.421900600000001
          ],
          [
            -4.9967810333333338,
            58.422298166666657
          ],
          [
            -4.9939697666666669,
            58.422698183333324
          ],
          [
            -4.9914624666666674,
            58.423331933333337
          ],
          [
            -4.9900791833333331,
            58.424142200000006
          ],
          [
            -4.9886502499999992,
            58.424728183333336
          ],
          [
            -4.9869982333333338,
            58.425098883333341
          ],
          [
            -4.9867357166666668,
            58.425991433333337
          ],
          [
            -4.9877204166666669,
            58.426781099999999
          ],
          [
            -4.9888885833333338,
            58.427509783333342
          ],
          [
            -4.9890702000000005,
            58.42854053333334
          ],
          [
            -4.9894903499999996,
            58.429433100000004
          ],
          [
            -4.9905054166666662,
            58.430281533333329
          ],
          [
            -4.9919998833333334,
            58.430794366666667
          ],
          [
            -4.9933012000000003,
            58.431453166666671
          ],
          [
            -4.99377855,
            58.432347166666659
          ],
          [
            -4.9946129500000005,
            58.43321344999999
          ],
          [
            -4.9962634666666661,
            58.433578750000002
          ],
          [
            -4.9974023333333326,
            58.434252249999993
          ],
          [
            -4.9971518999999995,
            58.43526709999999
          ],
          [
            -4.9974028666666666,
            58.436259500000006
          ],
          [
            -4.9965731701324181,
            58.43710381089344
          ],
          [
            -4.9946431207398225,
            58.437582973272775
          ],
          [
            -4.9931170833333329,
            58.438353049999989
          ],
          [
            -4.9915335440011734,
            58.438856544040988
          ],
          [
            -4.9901606362235533,
            58.439696841506411
          ],
          [
            -4.989109187684468,
            58.440490497433402
          ],
          [
            -4.9895300249693939,
            58.441364636098882
          ],
          [
            -4.990419544105329,
            58.442157883941377
          ],
          [
            -4.9911545500000001,
            58.443012133333333
          ],
          [
            -4.9919959500000006,
            58.443821966666668
          ],
          [
            -4.9936390166666662,
            58.444101500000002
          ],
          [
            -4.9952778499999999,
            58.444366616666663
          ],
          [
            -4.9965786833333325,
            58.445009200000001
          ],
          [
            -4.997357533333334,
            58.445873799999994
          ],
          [
            -4.9979127666666674,
            58.446747683333328
          ],
          [
            -4.9995655000000001,
            58.447104366666657
          ],
          [
            -5.0004001166666665,
            58.448045833333332
          ],
          [
            -5.0014824000000004,
            58.448995550000006
          ],
          [
            -5.002677666666667,
            58.449751283333342
          ],
          [
            -5.0040332499999991,
            58.450388900000007
          ],
          [
            -5.0058194999999994,
            58.450642449999997
          ],
          [
            -5.0075892499999997,
            58.450894783333325
          ],
          [
            -5.0090511333333332,
            58.451432999999994
          ],
          [
            -5.0105410499999996,
            58.451962783333322
          ],
          [
            -5.0131499166666664,
            58.452648666666661
          ],
          [
            -5.0147646571344691,
            58.4541412734118
          ],
          [
            -5.0194303666666666,
            58.455098799999995
          ],
          [
            -5.0211711166666664,
            58.454988116666662
          ],
          [
            -5.0228691000000003,
            58.455289750000006
          ],
          [
            -5.0246545499999993,
            58.455865416666661
          ],
          [
            -5.0264051000000007,
            58.456412866666675
          ],
          [
            -5.0281442666666658,
            58.456949633333338
          ],
          [
            -5.0298704500000007,
            58.457479216666663
          ],
          [
            -5.0318438666666667,
            58.457952549999995
          ],
          [
            -5.0341033833333331,
            58.458476266666672
          ],
          [
            -5.036286116666667,
            58.458063899999992
          ],
          [
            -5.0379745000000007,
            58.457375450000001
          ],
          [
            -5.0395838333333325,
            58.457048550000003
          ],
          [
            -5.041634600000001,
            58.456968916666668
          ],
          [
            -5.0433656833333336,
            58.457152550000004
          ],
          [
            -5.0452610333333343,
            58.457539449999999
          ],
          [
            -5.0473768785545046,
            58.457846223782141
          ],
          [
            -5.0485822184226699,
            58.458599706335441
          ],
          [
            -5.0499461666666674,
            58.459262808891474
          ],
          [
            -5.0519693833333328,
            58.459032883333343
          ],
          [
            -5.0517805234591018,
            58.456754143413207
          ],
          [
            -5.0544379333333334,
            58.458956099999995
          ],
          [
            -5.0556453815892635,
            58.459621024531756
          ],
          [
            -5.054504716666667,
            58.458929583333344
          ],
          [
            -5.0527266763572376,
            58.458782413630601
          ],
          [
            -5.0506926539963075,
            58.459172735145266
          ],
          [
            -5.0487789333333328,
            58.458782966666661
          ],
          [
            -5.0474873636458577,
            58.457844057846224
          ],
          [
            -5.0453197166666666,
            58.457579416666668
          ],
          [
            -5.0433403157749392,
            58.457097352034623
          ],
          [
            -5.0413332826924719,
            58.456935458399784
          ],
          [
            -5.038444893753157,
            58.457172418965648
          ],
          [
            -5.0366619133838171,
            58.457837881544016
          ],
          [
            -5.0352654803361894,
            58.458385325411172
          ],
          [
            -5.0333242706874142,
            58.458251838705742
          ],
          [
            -5.0316577554020459,
            58.457866109157919
          ],
          [
            -5.0299860020379858,
            58.457474324894036
          ],
          [
            -5.0283759061503499,
            58.456991545394928
          ],
          [
            -5.0268722640197048,
            58.456543126731638
          ],
          [
            -5.0253971016465186,
            58.456077254348841
          ],
          [
            -5.0238073301958952,
            58.455564686979507
          ],
          [
            -5.0222008333333328,
            58.455234166666663
          ],
          [
            -5.0204931641621275,
            58.454960839748011
          ],
          [
            -5.0187189391564244,
            58.454948107526256
          ],
          [
            -5.0170944523612473,
            58.454522235476148
          ],
          [
            -5.0154253994534779,
            58.454233523658999
          ],
          [
            -5.0144208215234238,
            58.45346926107986
          ],
          [
            -5.0130964612087858,
            58.452608149184464
          ],
          [
            -5.0111027728483553,
            58.452084940948481
          ],
          [
            -5.0094126034320414,
            58.451521279377197
          ],
          [
            -5.007787272812477,
            58.45091171591767
          ],
          [
            -5.0061038412929122,
            58.450628915741198
          ],
          [
            -5.0044116588137104,
            58.450452537173845
          ],
          [
            -5.00287374862092,
            58.44982318205868
          ],
          [
            -5.0018336926289999,
            58.449162837831636
          ],
          [
            -5.000705318261093,
            58.448404777165152
          ],
          [
            -5.0001808941851689,
            58.447526012478562
          ],
          [
            -4.9988934021834392,
            58.446906790216559
          ],
          [
            -4.9975957000000006,
            58.446248533333332
          ],
          [
            -4.9969190000000001,
            58.445349183333335
          ],
          [
            -4.9956767886994076,
            58.444475320849321
          ],
          [
            -4.9936521190520562,
            58.444078513842371
          ],
          [
            -4.991886579333384,
            58.443705593954121
          ],
          [
            -4.9910188500000006,
            58.442672733333332
          ],
          [
            -4.989930516666667,
            58.441600133333331
          ],
          [
            -4.9892159462843848,
            58.440687204731418
          ],
          [
            -4.9901640373552185,
            58.439791371628871
          ],
          [
            -4.9914787981774857,
            58.439072099910632
          ],
          [
            -4.992902363335749,
            58.438507286388393
          ],
          [
            -4.994223686572818,
            58.437925400123369
          ],
          [
            -4.9955765009184532,
            58.437249913939958
          ],
          [
            -4.9972658906374336,
            58.436729475510553
          ],
          [
            -4.997621443884527,
            58.43571285961194
          ],
          [
            -4.9972212955303528,
            58.434750785552289
          ],
          [
            -4.9965742833333335,
            58.433627933333334
          ],
          [
            -4.9950745377072785,
            58.433194413197626
          ],
          [
            -4.9934975765320084,
            58.432783802795008
          ],
          [
            -4.9935801999999994,
            58.431570499999999
          ],
          [
            -4.9929568833333331,
            58.43112923333333
          ],
          [
            -4.9913360174942891,
            58.430542144422262
          ],
          [
            -4.9899366357926915,
            58.429877411154827
          ],
          [
            -4.9892591333333343,
            58.429019699999998
          ],
          [
            -4.9892315500000004,
            58.428084500000011
          ],
          [
            -4.9884437333333338,
            58.427224383333339
          ],
          [
            -4.9872599072060728,
            58.426532923903899
          ],
          [
            -4.9868409333333341,
            58.42564358333334
          ],
          [
            -4.986700083333333,
            58.42454428333334
          ],
          [
            -4.9848245666666662,
            58.424601133333326
          ],
          [
            -4.9839709166666664,
            58.425520516666666
          ],
          [
            -4.9844546333333328,
            58.426405549999998
          ],
          [
            -4.9839756312196419,
            58.427378609499094
          ],
          [
            -4.9823039983337436,
            58.428025727173328
          ],
          [
            -4.980553929712765,
            58.428347021460908
          ],
          [
            -4.9787473009950514,
            58.428601524739989
          ],
          [
            -4.9762393333333339,
            58.428930250000001
          ],
          [
            -4.9751769166666664,
            58.42908705
          ],
          [
            -4.973427833333333,
            58.429606899999996
          ],
          [
            -4.9720261666666667,
            58.430125733333334
          ],
          [
            -4.9714458316228312,
            58.431011309757942
          ],
          [
            -4.9711974232259211,
            58.431908158799665
          ],
          [
            -4.970543934887429,
            58.432863787376199
          ],
          [
            -4.9693408206423788,
            58.433764592962227
          ],
          [
            -4.9681150414356052,
            58.43457590863629
          ],
          [
            -4.9669340475348918,
            58.43533500071247
          ],
          [
            -4.9656033895183436,
            58.43600249267125
          ],
          [
            -4.9645337700028627,
            58.43677627891384
          ],
          [
            -4.9630156899830808,
            58.437404147085871
          ],
          [
            -4.9616743814410169,
            58.438024434711423
          ],
          [
            -4.960767076779355,
            58.438813688733475
          ],
          [
            -4.9594791585657463,
            58.439526148810913
          ],
          [
            -4.9582454953563984,
            58.44031732048424
          ],
          [
            -4.9570276729990885,
            58.440992018742719
          ],
          [
            -4.9555549050801906,
            58.441597598521788
          ],
          [
            -4.9538793191800004,
            58.442362743197627
          ],
          [
            -4.9519484759362991,
            58.442996963653052
          ],
          [
            -4.9507944251948439,
            58.443737701813724
          ],
          [
            -4.9465013148973895,
            58.446029115900608
          ],
          [
            -4.9462137166666666,
            58.446211733333328
          ],
          [
            -4.9447451666666673,
            58.446734383333322
          ],
          [
            -4.9433492333333335,
            58.44739701666667
          ],
          [
            -4.9418950166666669,
            58.447966583333326
          ],
          [
            -4.9403541666666664,
            58.448737916666673
          ],
          [
            -4.9390028833333339,
            58.449751466666669
          ],
          [
            -4.9375245166666666,
            58.450719450000001
          ],
          [
            -4.9358799500000003,
            58.451627500000001
          ],
          [
            -4.9346166166666663,
            58.452268966666665
          ],
          [
            -4.932812433333333,
            58.452982766666672
          ],
          [
            -4.9311498999999994,
            58.453488566666664
          ],
          [
            -4.9295272499999996,
            58.454441016666671
          ],
          [
            -4.9279945999999999,
            58.455427166666674
          ],
          [
            -4.9260673500000003,
            58.456234266666662
          ],
          [
            -4.9242946666666665,
            58.456969283333336
          ],
          [
            -4.9226802166666666,
            58.45763973333333
          ],
          [
            -4.9214010491178017,
            58.458613893804063
          ],
          [
            -4.9200357333333331,
            58.45938171666667
          ],
          [
            -4.9181303500000002,
            58.459861233333335
          ],
          [
            -4.9165124666666662,
            58.460377249999993
          ],
          [
            -4.9148367166666667,
            58.460939466666673
          ],
          [
            -4.9135240166666669,
            58.461481283333327
          ],
          [
            -4.9115260833333334,
            58.462067666666655
          ],
          [
            -4.9092913999999999,
            58.462622333333343
          ],
          [
            -4.9072621166666668,
            58.463566666666672
          ],
          [
            -4.9051219500000007,
            58.464206949999998
          ],
          [
            -4.9032210833333334,
            58.464774566666669
          ],
          [
            -4.9018797333333328,
            58.465640016666676
          ],
          [
            -4.9010794471134425,
            58.46670382055477
          ],
          [
            -4.9002444155412626,
            58.467644704992829
          ],
          [
            -4.8992364465299882,
            58.468390607260702
          ],
          [
            -4.8967977581503233,
            58.468862286220997
          ],
          [
            -4.8947133601883648,
            58.469555233508139
          ],
          [
            -4.8931480027718299,
            58.470153354336205
          ],
          [
            -4.8919554981399482,
            58.470930429925104
          ],
          [
            -4.8910202999999992,
            58.471927766666674
          ],
          [
            -4.8897411230556225,
            58.472820569952859
          ],
          [
            -4.8885202152233118,
            58.473922532107046
          ],
          [
            -4.8875746281703014,
            58.474934241954308
          ],
          [
            -4.8865607833333335,
            58.475742499999996
          ],
          [
            -4.8853715666666675,
            58.476766299999994
          ],
          [
            -4.8842407666666663,
            58.477697616666667
          ],
          [
            -4.8830124000000001,
            58.478370133333328
          ],
          [
            -4.881341683333333,
            58.479194100000001
          ],
          [
            -4.8797722500000003,
            58.479979883333328
          ],
          [
            -4.8782187666666665,
            58.480873716666665
          ],
          [
            -4.8767298333333331,
            58.481802616666663
          ],
          [
            -4.8754478666666667,
            58.482611283333334
          ],
          [
            -4.8742565666666673,
            58.483344416666661
          ],
          [
            -4.8729449333333328,
            58.48402123333333
          ],
          [
            -4.8717380666666665,
            58.48468603333334
          ],
          [
            -4.8706643666666665,
            58.485444916666665
          ],
          [
            -4.8693419999999996,
            58.486083066666666
          ],
          [
            -4.8680743499999988,
            58.486694683333326
          ],
          [
            -4.8666843999999996,
            58.487305333333339
          ],
          [
            -4.8652745999999993,
            58.48800576666666
          ],
          [
            -4.8638126999999995,
            58.48866185
          ],
          [
            -4.8621295666666668,
            58.489163216666668
          ],
          [
            -4.8604234500000008,
            58.489723750000003
          ],
          [
            -4.8588821833333338,
            58.490331666666663
          ],
          [
            -4.8572027999999996,
            58.490863233333329
          ],
          [
            -4.8556352333333335,
            58.491347949999998
          ],
          [
            -4.8541167833333336,
            58.491809250000003
          ],
          [
            -4.8525082166666662,
            58.492273383333334
          ],
          [
            -4.8509336690924245,
            58.492727478721257
          ],
          [
            -4.8489616112086651,
            58.493189050127427
          ],
          [
            -4.846891874022222,
            58.493449786610277
          ],
          [
            -4.8452041639461294,
            58.493641420960657
          ],
          [
            -4.8435082500000002,
            58.493842966666676
          ],
          [
            -4.8416920333333335,
            58.494074050000002
          ],
          [
            -4.8399553833333329,
            58.4942888
          ],
          [
            -4.8381818666666661,
            58.494513583333344
          ],
          [
            -4.835929049999999,
            58.494870633333321
          ],
          [
            -4.8348210500000004,
            58.495137066666665
          ],
          [
            -4.8330817833333333,
            58.495532750000002
          ],
          [
            -4.8311713666666662,
            58.495772383333332
          ],
          [
            -4.8294023333333334,
            58.495957566666661
          ],
          [
            -4.8277278666666676,
            58.496299616666661
          ],
          [
            -4.8259973,
            58.496657999999989
          ],
          [
            -4.8246261333333331,
            58.497240666666663
          ],
          [
            -4.8231713333333337,
            58.497749766666658
          ],
          [
            -4.8217726666666669,
            58.498339916666666
          ],
          [
            -4.8203092666666665,
            58.498844033333341
          ],
          [
            -4.8187533333333334,
            58.499326216666667
          ],
          [
            -4.8173865833333336,
            58.499924783333334
          ],
          [
            -4.8162696333333335,
            58.500652049999992
          ],
          [
            -4.8163764789676007,
            58.501657380094372
          ],
          [
            -4.8151932166666667,
            58.502516616666668
          ],
          [
            -4.813648699999999,
            58.503399916666659
          ],
          [
            -4.8125044999999993,
            58.504249233333326
          ],
          [
            -4.8116756000000001,
            58.505359333333345
          ],
          [
            -4.8109834666666664,
            58.506426966666673
          ],
          [
            -4.8102506833333338,
            58.507526800000001
          ],
          [
            -4.8098154500000003,
            58.508560699999997
          ],
          [
            -4.8097005666666668,
            58.509569200000001
          ],
          [
            -4.8094034333333333,
            58.510545016666676
          ],
          [
            -4.808901033333334,
            58.511432183333334
          ],
          [
            -4.8080911666666672,
            58.512607549999998
          ],
          [
            -4.8073359999999994,
            58.513702233333333
          ],
          [
            -4.8066368333333331,
            58.514661599999997
          ],
          [
            -4.8056898500000003,
            58.515981216666667
          ],
          [
            -4.8049059999999999,
            58.517079566666673
          ],
          [
            -4.8044598000000001,
            58.517731000000005
          ],
          [
            -4.8038215499999994,
            58.518590083333329
          ],
          [
            -4.8031424666666673,
            58.519454233333335
          ],
          [
            -4.8021842499999998,
            58.520231266666663
          ],
          [
            -4.8010390666666662,
            58.520960166666661
          ],
          [
            -4.7998200499999992,
            58.521609000000005
          ],
          [
            -4.7985128333333336,
            58.522197583333345
          ],
          [
            -4.7976087999999999,
            58.522983116666666
          ],
          [
            -4.7976087999999999,
            58.522983116666666
          ],
          [
            -4.7974517980693978,
            58.52395164381123
          ],
          [
            -4.7975129304269615,
            58.525035289136724
          ],
          [
            -4.7975419481877166,
            58.526123160249426
          ],
          [
            -4.7973708499999992,
            58.52709496666666
          ],
          [
            -4.796807666666667,
            58.528031716666668
          ],
          [
            -4.7957883493321098,
            58.528955991959862
          ],
          [
            -4.794539598534814,
            58.529772450304179
          ],
          [
            -4.7934136789700981,
            58.530450216483594
          ],
          [
            -4.791989351385161,
            58.531165864116581
          ],
          [
            -4.7909169499999997,
            58.531998350000002
          ],
          [
            -4.7902857166666672,
            58.532875849999996
          ],
          [
            -4.7900811861774129,
            58.533858810388139
          ],
          [
            -4.7894451000000009,
            58.534744166666663
          ],
          [
            -4.7884563534620295,
            58.535677417405559
          ],
          [
            -4.787366229900452,
            58.536440459780856
          ],
          [
            -4.7857862000000004,
            58.536941449999993
          ],
          [
            -4.7842752381886369,
            58.537479557442794
          ],
          [
            -4.7833383432700289,
            58.53826878777982
          ],
          [
            -4.7824861869973061,
            58.539232243260344
          ],
          [
            -4.7816713195306546,
            58.540162084401338
          ],
          [
            -4.7811586102478554,
            58.541093884240404
          ],
          [
            -4.7810825319134374,
            58.542041204931131
          ],
          [
            -4.7804828427228374,
            58.542911109610834
          ],
          [
            -4.7796054863660409,
            58.543862743110139
          ],
          [
            -4.7791232666666668,
            58.54496296666666
          ],
          [
            -4.7787799333333334,
            58.545991466666663
          ],
          [
            -4.7779740833333344,
            58.547451116666657
          ],
          [
            -4.7778665169683929,
            58.549227064674511
          ],
          [
            -4.7768953999999999,
            58.549568666666666
          ],
          [
            -4.7753421442163644,
            58.550369476139586
          ],
          [
            -4.7743695865526261,
            58.551492935317512
          ],
          [
            -4.7737510926023923,
            58.552633934221433
          ],
          [
            -4.7728087999307434,
            58.553500801183525
          ],
          [
            -4.7718207643566721,
            58.554326618762204
          ],
          [
            -4.7707047885604226,
            58.555061235961475
          ],
          [
            -4.7690365035430906,
            58.555627168750725
          ],
          [
            -4.7681404747786456,
            58.55660967710439
          ],
          [
            -4.7672787297672246,
            58.557660869784677
          ],
          [
            -4.7659721146984131,
            58.55865726319184
          ],
          [
            -4.7652987842796639,
            58.559766131021817
          ],
          [
            -4.7643540963072315,
            58.560713217852729
          ],
          [
            -4.7631629693764452,
            58.561666662577089
          ],
          [
            -4.7615192586510853,
            58.562485628583453
          ],
          [
            -4.7598495319783254,
            58.563130357039192
          ],
          [
            -4.7582606200170243,
            58.563670495702425
          ],
          [
            -4.7565025078325469,
            58.564239841034315
          ],
          [
            -4.7550565499999999,
            58.564824766666668
          ],
          [
            -4.753449101304172,
            58.565492999815639
          ],
          [
            -4.7519251035105459,
            58.566024930687306
          ],
          [
            -4.7503629354187797,
            58.566464706938248
          ],
          [
            -4.7487127154514663,
            58.566892223617558
          ],
          [
            -4.7474541312687126,
            58.56768125453592
          ],
          [
            -4.7462869306283881,
            58.568541882384238
          ],
          [
            -4.7446142117884955,
            58.568666551941348
          ],
          [
            -4.741654555125181,
            58.569386737148619
          ]
        ],
        "type" : "LineString"
      }
    }
  ]
}