{
  "features" : [
    {
      "properties" : {
        "duration" : 61077.998759746552,
        "departure" : "2026-10-06T09:10:35Z",
        "device" : "B9E47AEB-E54C-4563-96B6-06995DD4BC56 (iPhone 16 Pro)",
        "address" : "A837, Assynt, Lairg, IV27, Schottland",
        "rating" : 0,
        "arrival" : "2026-10-05T16:12:38Z",
        "timestamp" : "2026-10-05T16:12:38Z",
        "weather" : "Leichter Regen (12,0 °C)",
        "source" : "Geory 5.3.2",
        "type" : "visit"
      },
      "geometry" : {
        "type" : "Point",
        "coordinates" : [
          -5.1092153562488116,
          58.186494579315465
        ]
      },
      "type" : "Feature"
    },
    {
      "properties" : {
        "duration" : 3928.0054161548615,
        "departure" : "2026-10-06T10:26:56Z",
        "source" : "Geory 5.3.2",
        "device" : "B9E47AEB-E54C-4563-96B6-06995DD4BC56 (iPhone 16 Pro)",
        "rating" : 0,
        "type" : "visit",
        "weather" : "Aufgelockert bewölkt (10,2 °C)",
        "timestamp" : "2026-10-06T09:21:28Z",
        "address" : "1 New Buildings, Lochinver, Lairg, IV27 4JY, Schottland",
        "arrival" : "2026-10-06T09:21:28Z"
      },
      "type" : "Feature",
      "geometry" : {
        "type" : "Point",
        "coordinates" : [
          -5.2398929026518033,
          58.153586382515186
        ]
      }
    },
    {
      "properties" : {
        "timestamp" : "2026-10-06T10:40:26Z",
        "address" : "26–48 A837, Lochinver, Lairg, IV27, Schottland",
        "duration" : 2023.7034606933594,
        "rating" : 0,
        "weather" : "Überwiegend bewölkt (11,6 °C)",
        "source" : "Geory 5.3.2",
        "device" : "B9E47AEB-E54C-4563-96B6-06995DD4BC56 (iPhone 16 Pro)",
        "departure" : "2026-10-06T11:14:09Z",
        "arrival" : "2026-10-06T10:40:26Z",
        "type" : "visit"
      },
      "geometry" : {
        "coordinates" : [
          -5.2408915762104336,
          58.150964435844934
        ],
        "type" : "Point"
      },
      "type" : "Feature"
    },
    {
      "properties" : {
        "weather" : "Aufgelockert bewölkt (11,6 °C)",
        "departure" : "2026-10-06T12:09:50Z",
        "timestamp" : "2026-10-06T11:51:43Z",
        "address" : "Lairg, IV27, Schottland",
        "duration" : 1087.0004503726959,
        "arrival" : "2026-10-06T11:51:43Z",
        "rating" : 0,
        "source" : "Geory 5.3.2",
        "type" : "visit",
        "device" : "B9E47AEB-E54C-4563-96B6-06995DD4BC56 (iPhone 16 Pro)"
      },
      "geometry" : {
        "type" : "Point",
        "coordinates" : [
          -5.2157046619330911,
          58.144337525180255
        ]
      },
      "type" : "Feature"
    },
    {
      "geometry" : {
        "type" : "Point",
        "coordinates" : [
          -5.2018940056018872,
          58.147687471487863
        ]
      },
      "type" : "Feature",
      "properties" : {
        "address" : "Glencanisp Lodge, Lochinver, Lairg, IV27 4LW, Schottland",
        "timestamp" : "2026-10-06T12:23:32Z",
        "departure" : "2026-10-06T12:50:33Z",
        "duration" : 1621.0005784034729,
        "arrival" : "2026-10-06T12:23:32Z",
        "device" : "B9E47AEB-E54C-4563-96B6-06995DD4BC56 (iPhone 16 Pro)",
        "rating" : 0,
        "type" : "visit",
        "source" : "Geory 5.3.2"
      }
    },
    {
      "type" : "Feature",
      "properties" : {
        "type" : "visit",
        "source" : "Geory 5.3.2",
        "address" : "Lairg, IV27, Schottland",
        "departure" : "2026-10-06T13:10:15Z",
        "arrival" : "2026-10-06T12:50:34Z",
        "duration" : 1180.000452041626,
        "weather" : "Überwiegend bewölkt (11,3 °C)",
        "timestamp" : "2026-10-06T12:50:34Z",
        "rating" : 0,
        "device" : "B9E47AEB-E54C-4563-96B6-06995DD4BC56 (iPhone 16 Pro)"
      },
      "geometry" : {
        "coordinates" : [
          -5.1963599320187859,
          58.150343895018139
        ],
        "type" : "Point"
      }
    },
    {
      "properties" : {
        "device" : "B9E47AEB-E54C-4563-96B6-06995DD4BC56 (iPhone 16 Pro)",
        "type" : "visit",
        "rating" : 0,
        "address" : "Lairg, IV27, Schottland",
        "weather" : "Bedeckter Himmel (11,0 °C)",
        "source" : "Geory 5.3.2",
        "timestamp" : "2026-10-06T13:36:20Z",
        "departure" : "2026-10-06T14:07:44Z",
        "duration" : 1883.0003509521484,
        "arrival" : "2026-10-06T13:36:20Z"
      },
      "geometry" : {
        "type" : "Point",
        "coordinates" : [
          -5.2051324640345484,
          58.158438460120593
        ]
      },
      "type" : "Feature"
    },
    {
      "type" : "Feature",
      "properties" : {
        "duration" : 964.9995059967041,
        "weather" : "Aufgelockert bewölkt (11,6 °C)",
        "departure" : "2026-10-06T14:35:33Z",
        "address" : "Lairg, IV27, Schottland",
        "rating" : 0,
        "timestamp" : "2026-10-06T14:19:28Z",
        "arrival" : "2026-10-06T14:19:28Z",
        "type" : "visit",
        "source" : "Geory 5.3.2",
        "device" : "B9E47AEB-E54C-4563-96B6-06995DD4BC56 (iPhone 16 Pro)"
      },
      "geometry" : {
        "coordinates" : [
          -5.2188645794385762,
          58.158789552728472
        ],
        "type" : "Point"
      }
    },
    {
      "type" : "Feature",
      "properties" : {
        "arrival" : "2026-10-06T15:08:55Z",
        "device" : "B9E47AEB-E54C-4563-96B6-06995DD4BC56 (iPhone 16 Pro)",
        "address" : "50–54 A837, Lochinver, Lairg, IV27, Schottland",
        "source" : "Geory 5.3.2",
        "duration" : 2190.0002284049988,
        "type" : "visit",
        "rating" : 0,
        "timestamp" : "2026-10-06T15:08:55Z",
        "weather" : "Aufgelockert bewölkt (11,8 °C)",
        "departure" : "2026-10-06T15:45:25Z"
      },
      "geometry" : {
        "type" : "Point",
        "coordinates" : [
          -5.2406305636159249,
          58.151919065563455
        ]
      }
    },
    {
      "geometry" : {
        "coordinates" : [
          -5.274091707858843,
          58.176947931716768
        ],
        "type" : "Point"
      },
      "type" : "Feature",
      "properties" : {
        "address" : "B869, Lochinver, Lairg, IV27, Schottland",
        "weather" : "Überwiegend bewölkt (10,7 °C)",
        "source" : "Geory 5.3.2",
        "duration" : 66636.70287156105,
        "departure" : "2026-10-07T10:25:55Z",
        "type" : "visit",
        "timestamp" : "2026-10-06T15:55:19Z",
        "rating" : 0,
        "arrival" : "2026-10-06T15:55:19Z",
        "device" : "B9E47AEB-E54C-4563-96B6-06995DD4BC56 (iPhone 16 Pro)"
      }
    },
    {
      "properties" : {
        "source" : "Geory 5.3.2",
        "start" : "2026-10-05T23:00:00Z",
        "device" : "B9E47AEB-E54C-4563-96B6-06995DD4BC56 (iPhone 16 Pro)",
        "type" : "route",
        "end" : "2026-10-06T22:59:59Z"
      },
      "type" : "Feature",
      "geometry" : {
        "type" : "LineString",
        "coordinates" : [
          [
            -5.274091707858843,
            58.176947931716768
          ],
          [
            -5.2739669666666682,
            58.177077083333344
          ],
          [
            -5.2725395666666675,
            58.176566500000007
          ],
          [
            -5.2710417166666677,
            58.175995300000004
          ],
          [
            -5.2698726000000011,
            58.17520103333333
          ],
          [
            -5.2685094406246051,
            58.174567699478388
          ],
          [
            -5.2669321333333343,
            58.174071549999994
          ],
          [
            -5.2652654070564138,
            58.173628314043107
          ],
          [
            -5.263436173632825,
            58.17350005192138
          ],
          [
            -5.2616209013704553,
            58.173404460826141
          ],
          [
            -5.2604379702420694,
            58.172756436184642
          ],
          [
            -5.2599464715717756,
            58.171817810743356
          ],
          [
            -5.2611712554140322,
            58.171134159547833
          ],
          [
            -5.2617398797854129,
            58.170216249803737
          ],
          [
            -5.2613748741237245,
            58.169320479210995
          ],
          [
            -5.2599673775647382,
            58.168748081697132
          ],
          [
            -5.2585475370245671,
            58.168247954223794
          ],
          [
            -5.2569842550408703,
            58.167708397616742
          ],
          [
            -5.2552609524623541,
            58.167363372801198
          ],
          [
            -5.2533405078187139,
            58.16709781408391
          ],
          [
            -5.2516311324501839,
            58.166861909877873
          ],
          [
            -5.250061705318755,
            58.166487955483433
          ],
          [
            -5.2486259637593191,
            58.165929486318142
          ],
          [
            -5.2475040415733281,
            58.164764951810376
          ],
          [
            -5.2472523943706957,
            58.164249751087546
          ],
          [
            -5.2467129333333329,
            58.1633584
          ],
          [
            -5.2450871050828116,
            58.162984766600701
          ],
          [
            -5.2434894967718666,
            58.162648095906313
          ],
          [
            -5.2417064685091175,
            58.162553929017022
          ],
          [
            -5.2399562488694214,
            58.162371236408845
          ],
          [
            -5.238183924296516,
            58.162187363669439
          ],
          [
            -5.2339047000000001,
            58.161069700000006
          ],
          [
            -5.2325056780141148,
            58.159419706381669
          ],
          [
            -5.2342040687939813,
            58.15870867738721
          ],
          [
            -5.2356850808895929,
            58.157804305409201
          ],
          [
            -5.2363378469536226,
            58.156732913146804
          ],
          [
            -5.2371927015411375,
            58.155429590556473
          ],
          [
            -5.2372754027168273,
            58.155360995456434
          ],
          [
            -5.2406305636159249,
            58.151919065563455
          ],
          [
            -5.2388259419518581,
            58.154457513202111
          ],
          [
            -5.2376692082325986,
            58.155117724208012
          ],
          [
            -5.2366443720015772,
            58.155854738537748
          ],
          [
            -5.234125247099362,
            58.156419871385594
          ],
          [
            -5.2341259285235289,
            58.156419371861176
          ],
          [
            -5.2321022108634274,
            58.157733461920365
          ],
          [
            -5.2309309184403814,
            58.158177918100087
          ],
          [
            -5.2293380357135142,
            58.158497360167381
          ],
          [
            -5.2276449803940874,
            58.158577639615515
          ],
          [
            -5.2259490219103713,
            58.158630464436733
          ],
          [
            -5.224237853067268,
            58.158538445093477
          ],
          [
            -5.2188645794385762,
            58.158789552728472
          ],
          [
            -5.2149475077715417,
            58.159000758787514
          ],
          [
            -5.2131036017129633,
            58.15845743128655
          ],
          [
            -5.2117604233318335,
            58.158378527350386
          ],
          [
            -5.2100580047349467,
            58.158583293008959
          ],
          [
            -5.2051324640345484,
            58.158438460120593
          ],
          [
            -5.2034970919030012,
            58.157127889759714
          ],
          [
            -5.2005653294059417,
            58.156194033804894
          ],
          [
            -5.1989382815771217,
            58.155931017967077
          ],
          [
            -5.1972303257092545,
            58.155802243155442
          ],
          [
            -5.1958848786726399,
            58.154646933695524
          ],
          [
            -5.1939100704984984,
            58.153393169046232
          ],
          [
            -5.1945851631880426,
            58.152850056453048
          ],
          [
            -5.1963599320187859,
            58.150343895018139
          ],
          [
            -5.2018940056018872,
            58.147687471487863
          ],
          [
            -5.2084207860353189,
            58.146511733614965
          ],
          [
            -5.2093192469772189,
            58.146520959950955
          ],
          [
            -5.2124917059819733,
            58.146470791893343
          ],
          [
            -5.2157046619330911,
            58.144337525180255
          ],
          [
            -5.2155593340881712,
            58.144194281303058
          ],
          [
            -5.2163021801333889,
            58.145009739618239
          ],
          [
            -5.216910273960127,
            58.145851859163926
          ],
          [
            -5.2184493079475187,
            58.146266371267394
          ],
          [
            -5.2200589052037882,
            58.146554836335412
          ],
          [
            -5.2216598340248117,
            58.146855814076446
          ],
          [
            -5.2232663244153832,
            58.147162657833647
          ],
          [
            -5.2245425803415628,
            58.147760351035068
          ],
          [
            -5.225120486632032,
            58.148605751170656
          ],
          [
            -5.2268224639642922,
            58.148698705490425
          ],
          [
            -5.2285340887953167,
            58.148719134988063
          ],
          [
            -5.2300926045757139,
            58.14909334167578
          ],
          [
            -5.2317959402528844,
            58.149058044206299
          ],
          [
            -5.2333723406724904,
            58.148689702189721
          ],
          [
            -5.2358271097078131,
            58.148102204628415
          ],
          [
            -5.2388742246087148,
            58.147998069433307
          ],
          [
            -5.2405885823953744,
            58.148011980350617
          ],
          [
            -5.2408894568439059,
            58.148908040685292
          ],
          [
            -5.2408915762104336,
            58.150964435844934
          ],
          [
            -5.2397125947713343,
            58.146335974097028
          ],
          [
            -5.2420790814936122,
            58.14532134526867
          ],
          [
            -5.2410541871269487,
            58.144823084537052
          ],
          [
            -5.239116872054149,
            58.144890215660169
          ],
          [
            -5.2397047529386445,
            58.145764519090676
          ],
          [
            -5.239295437960414,
            58.146765045100267
          ],
          [
            -5.2402169499999998,
            58.147545949999994
          ],
          [
            -5.2405974500000001,
            58.148437899999998
          ],
          [
            -5.240801133333334,
            58.14935393333333
          ],
          [
            -5.2409952999999989,
            58.150271766666677
          ],
          [
            -5.2398929026518033,
            58.153586382515186
          ],
          [
            -5.2368247833333328,
            58.155708250000004
          ],
          [
            -5.2362033333333331,
            58.156883116666656
          ],
          [
            -5.2355767833333324,
            58.157834399999999
          ],
          [
            -5.2341077666666669,
            58.158644299999999
          ],
          [
            -5.2326775333333329,
            58.159250466666663
          ],
          [
            -5.2311055499644468,
            58.159884456604139
          ],
          [
            -5.2286597833333346,
            58.160092716666668
          ],
          [
            -5.2260292666666652,
            58.159601166666668
          ],
          [
            -5.2234482499999997,
            58.159945866666675
          ],
          [
            -5.2212067666666675,
            58.160669183333326
          ],
          [
            -5.2186732833333345,
            58.161466249999997
          ],
          [
            -5.2159658666666662,
            58.162219966666662
          ],
          [
            -5.2131375833333342,
            58.162909350000007
          ],
          [
            -5.2106257666666673,
            58.163605099999991
          ],
          [
            -5.2080149999999996,
            58.164340716666665
          ],
          [
            -5.2052979499999994,
            58.165118866666674
          ],
          [
            -5.2028616333333328,
            58.165766050000002
          ],
          [
            -5.2005697666666668,
            58.16641580000001
          ],
          [
            -5.1984626833333332,
            58.167393999999994
          ],
          [
            -5.1960897833333322,
            58.167953199999999
          ],
          [
            -5.1936702499999994,
            58.167973933333336
          ],
          [
            -5.1913971833333337,
            58.168340850000007
          ],
          [
            -5.1894654000000005,
            58.168517533333336
          ],
          [
            -5.1871476000000003,
            58.168745833333332
          ],
          [
            -5.184492633333333,
            58.169331750000005
          ],
          [
            -5.1821274166666669,
            58.170033866666671
          ],
          [
            -5.1802391666666665,
            58.170510283333336
          ],
          [
            -5.1773643462000143,
            58.170757889697896
          ],
          [
            -5.1743256333333338,
            58.171281499999999
          ],
          [
            -5.1714149666666671,
            58.171841950000001
          ],
          [
            -5.1687745833333336,
            58.172713666666667
          ],
          [
            -5.1663986999999993,
            58.173531566666668
          ],
          [
            -5.1645658666666661,
            58.174631849999997
          ],
          [
            -5.1627085500000005,
            58.17584505
          ],
          [
            -5.1603992333333339,
            58.176636916666666
          ],
          [
            -5.1581363500000004,
            58.177258550000005
          ],
          [
            -5.1552508499999998,
            58.17761908333334
          ],
          [
            -5.1525764999999994,
            58.177595466666666
          ],
          [
            -5.1497870833333339,
            58.17705693333334
          ],
          [
            -5.1469816000000002,
            58.176890100000001
          ],
          [
            -5.1445557666666666,
            58.176749366666677
          ],
          [
            -5.1419740247284098,
            58.176353528392916
          ],
          [
            -5.1397039410566823,
            58.17576991763255
          ],
          [
            -5.1376084475731165,
            58.175224952633116
          ],
          [
            -5.1354587387851254,
            58.174937167783916
          ],
          [
            -5.133047625931348,
            58.175121749926731
          ],
          [
            -5.1307559784452828,
            58.175554369069765
          ],
          [
            -5.1285812387965217,
            58.175881179510291
          ],
          [
            -5.1261671955493533,
            58.176458837912676
          ],
          [
            -5.123906476084044,
            58.177309254216944
          ],
          [
            -5.122088233383165,
            58.178202203736689
          ],
          [
            -5.1205276884385214,
            58.179314414894115
          ],
          [
            -5.1191367191856783,
            58.180330229814061
          ],
          [
            -5.1180604917945711,
            58.18111838356203
          ],
          [
            -5.1163507460315678,
            58.182047704506012
          ],
          [
            -5.1141934321176024,
            58.182947043861951
          ],
          [
            -5.1125611562722808,
            58.183727256451242
          ],
          [
            -5.1112859286665406,
            58.184790095891643
          ],
          [
            -5.1092153562488116,
            58.186494579315465
          ]
        ]
      }
    }
  ],
  "type" : "FeatureCollection"
}