{
  "type" : "FeatureCollection",
  "features" : [
    {
      "type" : "Feature",
      "properties" : {
        "duration" : 69255.999412059784,
        "timestamp" : "2026-10-07T14:46:59Z",
        "source" : "Geory 5.3.2",
        "type" : "visit",
        "arrival" : "2026-10-07T14:46:59Z",
        "weather" : "Leichter Regen (10,6 °C)",
        "device" : "B9E47AEB-E54C-4563-96B6-06995DD4BC56 (iPhone 16 Pro)",
        "departure" : "2026-10-08T10:01:15Z",
        "rating" : 0,
        "address" : "Ullapool, IV26, Schottland"
      },
      "geometry" : {
        "coordinates" : [
          -5.4113071928893621,
          58.052862065517211
        ],
        "type" : "Point"
      }
    },
    {
      "geometry" : {
        "coordinates" : [
          -5.3663076316158129,
          58.070592762252836
        ],
        "type" : "Point"
      },
      "properties" : {
        "arrival" : "2026-10-08T10:12:21Z",
        "departure" : "2026-10-08T10:29:28Z",
        "device" : "B9E47AEB-E54C-4563-96B6-06995DD4BC56 (iPhone 16 Pro)",
        "source" : "Geory 5.3.2",
        "type" : "visit",
        "address" : "Ullapool, IV26, Schottland",
        "duration" : 1027.131844997406,
        "timestamp" : "2026-10-08T10:12:21Z",
        "rating" : 0,
        "weather" : "Bedeckter Himmel (8,5 °C)"
      },
      "type" : "Feature"
    },
    {
      "properties" : {
        "source" : "Geory 5.3.2",
        "rating" : 0,
        "type" : "visit",
        "timestamp" : "2026-10-08T10:35:56Z",
        "arrival" : "2026-10-08T10:35:56Z",
        "address" : "Achnahaird Beach, Ullapool, IV26, Schottland",
        "departure" : "2026-10-08T10:51:27Z",
        "duration" : 931.61009168624878,
        "weather" : "Bedeckter Himmel (10,2 °C)",
        "device" : "B9E47AEB-E54C-4563-96B6-06995DD4BC56 (iPhone 16 Pro)"
      },
      "type" : "Feature",
      "geometry" : {
        "coordinates" : [
          -5.3599793755858265,
          58.067559845989436
        ],
        "type" : "Point"
      }
    },
    {
      "geometry" : {
        "type" : "Point",
        "coordinates" : [
          -5.3738275033897507,
          58.063531920315143
        ]
      },
      "type" : "Feature",
      "properties" : {
        "timestamp" : "2026-10-08T11:18:49Z",
        "address" : "Ullapool, IV26, Schottland",
        "device" : "B9E47AEB-E54C-4563-96B6-06995DD4BC56 (iPhone 16 Pro)",
        "rating" : 0,
        "source" : "Geory 5.3.2",
        "duration" : 1057.6940360069275,
        "weather" : "Bedeckter Himmel (10,2 °C)",
        "type" : "visit",
        "departure" : "2026-10-08T11:36:26Z",
        "arrival" : "2026-10-08T11:18:49Z"
      }
    },
    {
      "properties" : {
        "timestamp" : "2026-10-08T11:39:01Z",
        "rating" : 0,
        "type" : "visit",
        "arrival" : "2026-10-08T11:39:01Z",
        "address" : "Ullapool, IV26, Schottland",
        "duration" : 1859.6975121498108,
        "weather" : "Bedeckter Himmel (10,2 °C)",
        "device" : "B9E47AEB-E54C-4563-96B6-06995DD4BC56 (iPhone 16 Pro)",
        "departure" : "2026-10-08T12:10:00Z",
        "source" : "Geory 5.3.2"
      },
      "geometry" : {
        "type" : "Point",
        "coordinates" : [
          -5.3555212695733028,
          58.056555991169873
        ]
      },
      "type" : "Feature"
    },
    {
      "type" : "Feature",
      "properties" : {
        "device" : "B9E47AEB-E54C-4563-96B6-06995DD4BC56 (iPhone 16 Pro)",
        "address" : "Elphin Tearoom, Elphin, Lairg, IV27 4HH, Schottland",
        "weather" : "Bedeckter Himmel (9,9 °C)",
        "source" : "Geory 5.3.2",
        "timestamp" : "2026-10-08T13:19:09Z",
        "arrival" : "2026-10-08T13:19:09Z",
        "rating" : 0,
        "duration" : 3107.701446056366,
        "departure" : "2026-10-08T14:10:56Z",
        "type" : "visit"
      },
      "geometry" : {
        "coordinates" : [
          -5.0289699143986386,
          58.054122876802808
        ],
        "type" : "Point"
      }
    },
    {
      "properties" : {
        "address" : "16 Seaforth Road, Ullapool, IV26 2UY, Schottland",
        "type" : "visit",
        "rating" : 0,
        "source" : "Geory 5.3.2",
        "arrival" : "2026-10-08T14:47:13Z",
        "timestamp" : "2026-10-08T14:47:13Z",
        "duration" : 4308.6953909397125,
        "weather" : "Leichter Regen (10,9 °C)",
        "device" : "B9E47AEB-E54C-4563-96B6-06995DD4BC56 (iPhone 16 Pro)",
        "departure" : "2026-10-08T15:59:01Z"
      },
      "type" : "Feature",
      "geometry" : {
        "coordinates" : [
          -5.1630793929046632,
          57.896657001870089
        ],
        "type" : "Point"
      }
    },
    {
      "geometry" : {
        "type" : "Point",
        "coordinates" : [
          -5.5611110028893735,
          57.90183610152507
        ]
      },
      "type" : "Feature",
      "properties" : {
        "device" : "B9E47AEB-E54C-4563-96B6-06995DD4BC56 (iPhone 16 Pro)",
        "timestamp" : "2026-10-08T17:22:51Z",
        "duration" : 58869.045534849167,
        "rating" : 0,
        "source" : "Geory 5.3.2",
        "arrival" : "2026-10-08T17:22:51Z",
        "type" : "visit",
        "departure" : "2026-10-09T09:44:00Z",
        "address" : "Achnasheen, IV22, Schottland",
        "weather" : "Regen (9,3 °C)"
      }
    },
    {
      "geometry" : {
        "coordinates" : [
          [
            -5.5611110028893735,
            57.90183610152507
          ],
          [
            -5.5628089000000012,
            57.90208299999999
          ],
          [
            -5.5634214429303617,
            57.901194782005859
          ],
          [
            -5.5638239232225537,
            57.900259626645941
          ],
          [
            -5.5642874704823191,
            57.899348271133157
          ],
          [
            -5.5646902147176469,
            57.898465611611293
          ],
          [
            -5.5651049909886598,
            57.897542014184545
          ],
          [
            -5.5655378056930136,
            57.896662747940589
          ],
          [
            -5.5659296751874159,
            57.895745861020416
          ],
          [
            -5.566482262178492,
            57.894829756891944
          ],
          [
            -5.5667054725664116,
            57.893831944981791
          ],
          [
            -5.5672285282933105,
            57.892932421218994
          ],
          [
            -5.5675114852849603,
            57.891960331145334
          ],
          [
            -5.5680936166666664,
            57.890835166666662
          ],
          [
            -5.5671519333333341,
            57.889822633333338
          ],
          [
            -5.5662855346661333,
            57.888626488299117
          ],
          [
            -5.565703618415716,
            57.887443481409392
          ],
          [
            -5.565495140502045,
            57.886424371101484
          ],
          [
            -5.5648173666666674,
            57.885585183333333
          ],
          [
            -5.5634383333333322,
            57.885031550000001
          ],
          [
            -5.5616310833333324,
            57.884613716666671
          ],
          [
            -5.5597517500000002,
            57.884031783333334
          ],
          [
            -5.5579080541358694,
            57.883618685959163
          ],
          [
            -5.5560787242156175,
            57.883220895459871
          ],
          [
            -5.5557799345052734,
            57.882263804076331
          ],
          [
            -5.5552687602638704,
            57.881406331664813
          ],
          [
            -5.5536382845827328,
            57.881076082569429
          ],
          [
            -5.5519518736667672,
            57.880723575174578
          ],
          [
            -5.5504483679865686,
            57.880180666124893
          ],
          [
            -5.5489240448069701,
            57.879711121793996
          ],
          [
            -5.5474718833333325,
            57.878923216666664
          ],
          [
            -5.5464070666666663,
            57.878093033333336
          ],
          [
            -5.5453426333333331,
            57.877301050000007
          ],
          [
            -5.5441652666666661,
            57.876603700000004
          ],
          [
            -5.5436351166666666,
            57.875732833333331
          ],
          [
            -5.5429562166666662,
            57.874864383333332
          ],
          [
            -5.5421481166666675,
            57.874001333333339
          ],
          [
            -5.5417599271447209,
            57.873105740046277
          ],
          [
            -5.5415648999999991,
            57.872186599999999
          ],
          [
            -5.5415031988522081,
            57.871145252921366
          ],
          [
            -5.5414477666666659,
            57.870306916666671
          ],
          [
            -5.5408538333333341,
            57.869172399999989
          ],
          [
            -5.5404253717406942,
            57.868038683821069
          ],
          [
            -5.5410315715935461,
            57.86681169495656
          ],
          [
            -5.5414437506769687,
            57.865814995527593
          ],
          [
            -5.5417085666666672,
            57.86487506666667
          ],
          [
            -5.5399461166666653,
            57.865732883333337
          ],
          [
            -5.5378763666666684,
            57.866339216666667
          ],
          [
            -5.5356957666666666,
            57.86660418333333
          ],
          [
            -5.5334493500000006,
            57.866444000000001
          ],
          [
            -5.530736216666666,
            57.865838400000001
          ],
          [
            -5.528077633333333,
            57.865399916666668
          ],
          [
            -5.5260076000000007,
            57.865035233333344
          ],
          [
            -5.5239944000000003,
            57.864473633333333
          ],
          [
            -5.521751000000001,
            57.863916066666661
          ],
          [
            -5.519073699999999,
            57.864104783333339
          ],
          [
            -5.5161598333333339,
            57.863614400000003
          ],
          [
            -5.5138803999999988,
            57.862939549999993
          ],
          [
            -5.5118182666666673,
            57.861828916666674
          ],
          [
            -5.5092316833333328,
            57.8609528
          ],
          [
            -5.5062305500000006,
            57.8605819
          ],
          [
            -5.5032758753226121,
            57.860597483217276
          ],
          [
            -5.5002829373158182,
            57.860264804742066
          ],
          [
            -5.4976266754009027,
            57.859697533429568
          ],
          [
            -5.4950434156910735,
            57.859099672399765
          ],
          [
            -5.4928443725388867,
            57.858206148395894
          ],
          [
            -5.4920210424414018,
            57.857459320685066
          ],
          [
            -5.4915901815053383,
            57.856964020737799
          ],
          [
            -5.490508092456662,
            57.855702062989856
          ],
          [
            -5.4898942084493596,
            57.854494857004426
          ],
          [
            -5.4882230483934684,
            57.853575286592651
          ],
          [
            -5.4859213370084872,
            57.853621360048884
          ],
          [
            -5.4837247134769278,
            57.853983032268623
          ],
          [
            -5.4815983999466287,
            57.853664773836513
          ],
          [
            -5.4806679532185472,
            57.852624994106179
          ],
          [
            -5.4799429198074261,
            57.851455242688665
          ],
          [
            -5.4776488344478071,
            57.851770770363515
          ],
          [
            -5.4761364662054337,
            57.852568165832686
          ],
          [
            -5.4740902170322112,
            57.853019033647499
          ],
          [
            -5.4721804940650172,
            57.852488440449136
          ],
          [
            -5.4711456264277158,
            57.851536849229923
          ],
          [
            -5.4696220523091217,
            57.850715254278505
          ],
          [
            -5.4684576333310249,
            57.849834105327055
          ],
          [
            -5.4663031995598841,
            57.849467843250608
          ],
          [
            -5.4643270898951597,
            57.850025169144033
          ],
          [
            -5.4617373881974327,
            57.850195322944714
          ],
          [
            -5.4592040491310145,
            57.850604411560454
          ],
          [
            -5.4569232210051126,
            57.850920185353644
          ],
          [
            -5.4549402020097499,
            57.850818970528699
          ],
          [
            -5.4532273134993163,
            57.851419142270387
          ],
          [
            -5.4519869925683793,
            57.852040089241775
          ],
          [
            -5.451870454650301,
            57.85310524961514
          ],
          [
            -5.4509106743233007,
            57.85432386456057
          ],
          [
            -5.4489316947236537,
            57.85505142929383
          ],
          [
            -5.448314570927419,
            57.856579081236418
          ],
          [
            -5.4477318195411968,
            57.858005058182691
          ],
          [
            -5.4460501451764678,
            57.859374502371075
          ],
          [
            -5.444009445887831,
            57.860625339395696
          ],
          [
            -5.4414802622403595,
            57.861745910035744
          ],
          [
            -5.4392792382225981,
            57.862818267257978
          ],
          [
            -5.4376927146333935,
            57.863713022097187
          ],
          [
            -5.4367923598395755,
            57.865032408704991
          ],
          [
            -5.4374816979127356,
            57.86639698039864
          ],
          [
            -5.4392554513084095,
            57.867468196629524
          ],
          [
            -5.4406215427502422,
            57.868615550822845
          ],
          [
            -5.4403397974786536,
            57.869876682425939
          ],
          [
            -5.439509351589213,
            57.871177827483699
          ],
          [
            -5.4395700684042714,
            57.872461292427488
          ],
          [
            -5.4396601243918603,
            57.873995167838466
          ],
          [
            -5.4402607166666668,
            57.87576168333333
          ],
          [
            -5.441506266666666,
            57.877216716666659
          ],
          [
            -5.4405767003977052,
            57.878808484808104
          ],
          [
            -5.4387263363313085,
            57.879921245735233
          ],
          [
            -5.4372132154742578,
            57.880143833526446
          ],
          [
            -5.4358574565519593,
            57.880251180539858
          ],
          [
            -5.4329549047578247,
            57.880931102631493
          ],
          [
            -5.4295814440083241,
            57.880961919101857
          ],
          [
            -5.4266606903816124,
            57.880819155147073
          ],
          [
            -5.4237758274565655,
            57.880918482522247
          ],
          [
            -5.4217323707712186,
            57.881720365423647
          ],
          [
            -5.4191839234239483,
            57.8823024186892
          ],
          [
            -5.4167681666666665,
            57.883039633333325
          ],
          [
            -5.4136309999999996,
            57.883628899999998
          ],
          [
            -5.4106133666666665,
            57.884149683333334
          ],
          [
            -5.4078260500000006,
            57.884402249999994
          ],
          [
            -5.4047144166666667,
            57.884407350000004
          ],
          [
            -5.4014201166666664,
            57.884572616666674
          ],
          [
            -5.3980224333333338,
            57.884488366666659
          ],
          [
            -5.3944037666666667,
            57.88403636666667
          ],
          [
            -5.3910072333333332,
            57.883659199999997
          ],
          [
            -5.3879190833333332,
            57.883163466666673
          ],
          [
            -5.3850552166666663,
            57.882246266666662
          ],
          [
            -5.3824900499999995,
            57.881289100000004
          ],
          [
            -5.3797137312658716,
            57.880386320944659
          ],
          [
            -5.3770191443509443,
            57.879636242123482
          ],
          [
            -5.3744831999999993,
            57.879292033333329
          ],
          [
            -5.3725840833333338,
            57.879305083333335
          ],
          [
            -5.3707352366122292,
            57.879510057816823
          ],
          [
            -5.369207666666667,
            57.879241333333326
          ],
          [
            -5.366786883333333,
            57.878616533333329
          ],
          [
            -5.3640701999999996,
            57.877931266666671
          ],
          [
            -5.3611760166666675,
            57.877217533333337
          ],
          [
            -5.3582297666666667,
            57.876201466666664
          ],
          [
            -5.3558799500000003,
            57.875244366666657
          ],
          [
            -5.3530015833333344,
            57.874148033333334
          ],
          [
            -5.3498797666666675,
            57.873021950000009
          ],
          [
            -5.3468419999999997,
            57.872011833333332
          ],
          [
            -5.3441390666666653,
            57.871022599999996
          ],
          [
            -5.3417018833333332,
            57.870105783333337
          ],
          [
            -5.3393204266291701,
            57.869288362663724
          ],
          [
            -5.336272066666667,
            57.868930933333331
          ],
          [
            -5.3346259339503401,
            57.867574249133959
          ],
          [
            -5.3306205605049009,
            57.865617333842749
          ],
          [
            -5.3282626698824602,
            57.86476045766684
          ],
          [
            -5.3268177774355321,
            57.863576578207102
          ],
          [
            -5.3243342308383728,
            57.86281306809947
          ],
          [
            -5.3216144488740138,
            57.862330614610023
          ],
          [
            -5.3187566322606781,
            57.861815129049276
          ],
          [
            -5.315879804119457,
            57.861439776132698
          ],
          [
            -5.313173145407843,
            57.86111227198429
          ],
          [
            -5.3099591400247954,
            57.860560580008766
          ],
          [
            -5.3066202114831942,
            57.860150696189116
          ],
          [
            -5.3036011801067087,
            57.859376650258348
          ],
          [
            -5.30083730102782,
            57.858295982702749
          ],
          [
            -5.30083730102782,
            57.858295982702749
          ],
          [
            -5.29836292134926,
            57.857263046453255
          ],
          [
            -5.2954232461243302,
            57.85649728054932
          ],
          [
            -5.2925153865053254,
            57.855514749431897
          ],
          [
            -5.2894820766683912,
            57.85481338675752
          ],
          [
            -5.2869155058963546,
            57.853950323041353
          ],
          [
            -5.2841735605384965,
            57.85331423798695
          ],
          [
            -5.2811918814094252,
            57.853143686943639
          ],
          [
            -5.2780862811708493,
            57.853228984537779
          ],
          [
            -5.2750837806464865,
            57.853037828195767
          ],
          [
            -5.2720585554541568,
            57.852688611026899
          ],
          [
            -5.2692070879804609,
            57.852262340590258
          ],
          [
            -5.2665724577104198,
            57.851884057955793
          ],
          [
            -5.2641667913159367,
            57.851571380416537
          ],
          [
            -5.262411173923792,
            57.850578243649863
          ],
          [
            -5.2604246309392222,
            57.849459360719798
          ],
          [
            -5.2578982049985132,
            57.848858232598111
          ],
          [
            -5.2554289893704338,
            57.848408942657827
          ],
          [
            -5.2535209164518317,
            57.848086090397828
          ],
          [
            -5.2517983843394136,
            57.84787897458547
          ],
          [
            -5.2503217833333329,
            57.847397000000001
          ],
          [
            -5.2476776333333328,
            57.846805866666664
          ],
          [
            -5.24511445,
            57.846237383333332
          ],
          [
            -5.2425284999999997,
            57.84571618333333
          ],
          [
            -5.2397988333333334,
            57.845239899999989
          ],
          [
            -5.2372606333333334,
            57.844698633333337
          ],
          [
            -5.2349426333333327,
            57.844208716666664
          ],
          [
            -5.2321047333333333,
            57.843957783333323
          ],
          [
            -5.2292809333333325,
            57.843432033333329
          ],
          [
            -5.2264124999999995,
            57.842768700000001
          ],
          [
            -5.2236985499999999,
            57.842277216666666
          ],
          [
            -5.2211435833333324,
            57.84179446666667
          ],
          [
            -5.2184475166666662,
            57.841029449999994
          ],
          [
            -5.2155322166666664,
            57.840082583333334
          ],
          [
            -5.2131046000000012,
            57.839027399999999
          ],
          [
            -5.2103237,
            57.838533466666661
          ],
          [
            -5.2070491475465106,
            57.838105591237515
          ],
          [
            -5.2038958351597318,
            57.837593864195384
          ],
          [
            -5.2010032324237887,
            57.836852324018245
          ],
          [
            -5.1984172439149869,
            57.835928615686832
          ],
          [
            -5.1961348857351366,
            57.834438554874311
          ],
          [
            -5.1939955293148712,
            57.833050031174352
          ],
          [
            -5.1913878794669444,
            57.83196773418878
          ],
          [
            -5.1887467588843803,
            57.83121137526485
          ],
          [
            -5.1863870183972711,
            57.83059355676675
          ],
          [
            -5.1857022873035667,
            57.828974958776982
          ],
          [
            -5.1855207393885507,
            57.827300503746962
          ],
          [
            -5.1850308808209489,
            57.825623155447332
          ],
          [
            -5.184243159658771,
            57.824153991820815
          ],
          [
            -5.1827910049876369,
            57.82289777557687
          ],
          [
            -5.1810420446813934,
            57.821817925914615
          ],
          [
            -5.1789937787675955,
            57.820897804460557
          ],
          [
            -5.1779898503612216,
            57.8196503211649
          ],
          [
            -5.1772643616256548,
            57.818025967868124
          ],
          [
            -5.1766179246586299,
            57.81637520335326
          ],
          [
            -5.1760101404917993,
            57.81479891277877
          ],
          [
            -5.1747688094607636,
            57.813269346041274
          ],
          [
            -5.1729220838441936,
            57.812151200247733
          ],
          [
            -5.1696924360011129,
            57.811834819629226
          ],
          [
            -5.16647101428602,
            57.811982919455566
          ],
          [
            -5.1632946050050652,
            57.811692682898148
          ],
          [
            -5.1600967978868644,
            57.811494575498727
          ],
          [
            -5.1576441823172896,
            57.810215357665633
          ],
          [
            -5.1555959963083975,
            57.808952392806681
          ],
          [
            -5.1534692306580423,
            57.808295967614875
          ],
          [
            -5.1519230523112265,
            57.80757375396724
          ],
          [
            -5.1510669462746117,
            57.806594552821899
          ],
          [
            -5.1508588239925697,
            57.80561354195634
          ],
          [
            -5.1507914244654067,
            57.804603804012089
          ],
          [
            -5.1509755864709952,
            57.803760023024417
          ],
          [
            -5.1516352666666663,
            57.80291818333334
          ],
          [
            -5.152377566666666,
            57.802102500000004
          ],
          [
            -5.1540864666666666,
            57.800705500000007
          ],
          [
            -5.1564959897653715,
            57.799139257980521
          ],
          [
            -5.1586652833333337,
            57.797659433333337
          ],
          [
            -5.1605344666666673,
            57.796300249999994
          ],
          [
            -5.1619877190740535,
            57.794988928386772
          ],
          [
            -5.1631595606704428,
            57.793710937480931
          ],
          [
            -5.1637027500000006,
            57.792183299999998
          ],
          [
            -5.1645781464726568,
            57.790638955690874
          ],
          [
            -5.1645372500000004,
            57.789224849999997
          ],
          [
            -5.1644654333333335,
            57.788010600000007
          ],
          [
            -5.1651211865070294,
            57.786968436499073
          ],
          [
            -5.1653998999999997,
            57.785997033333324
          ],
          [
            -5.1644272999999998,
            57.784592416666662
          ],
          [
            -5.1633713666666665,
            57.78394551666667
          ],
          [
            -5.1615146279155795,
            57.782828542591957
          ],
          [
            -5.1599108666666664,
            57.781419233333324
          ],
          [
            -5.1582841753294382,
            57.779965793091748
          ],
          [
            -5.1564661129012235,
            57.778496838582136
          ],
          [
            -5.1543921166666671,
            57.776843533333334
          ],
          [
            -5.1525726833333332,
            57.775360466666669
          ],
          [
            -5.1506582666666665,
            57.773808533333344
          ],
          [
            -5.1485919999999998,
            57.772139066666661
          ],
          [
            -5.1465987833333333,
            57.770511950000007
          ],
          [
            -5.144124866666667,
            57.769051633333326
          ],
          [
            -5.1415345166666668,
            57.767858733333334
          ],
          [
            -5.1383499333333331,
            57.766880066666666
          ],
          [
            -5.135469266666667,
            57.766023016666665
          ],
          [
            -5.1328132999999996,
            57.765037583333331
          ],
          [
            -5.1303455499999995,
            57.763653199999993
          ],
          [
            -5.1280985499999998,
            57.762362100000004
          ],
          [
            -5.1256353666666667,
            57.761314200000001
          ],
          [
            -5.1231907499999991,
            57.76042378333333
          ],
          [
            -5.1214383999999997,
            57.759080849999997
          ],
          [
            -5.1195916000000006,
            57.757700700000001
          ],
          [
            -5.1166266833333331,
            57.756588716666663
          ],
          [
            -5.1141517666666667,
            57.755502766666659
          ],
          [
            -5.1121246166666667,
            57.754044516666667
          ],
          [
            -5.1103196222496186,
            57.752705626163369
          ],
          [
            -5.1084361542414971,
            57.751174899671675
          ],
          [
            -5.1069363833333332,
            57.749741799999988
          ],
          [
            -5.1053650166666671,
            57.748088433333336
          ],
          [
            -5.1037985666666668,
            57.747151183333337
          ],
          [
            -5.1028143000000004,
            57.746627350000004
          ],
          [
            -5.1000351833333335,
            57.745146949999999
          ],
          [
            -5.0975361333333327,
            57.743816283333338
          ],
          [
            -5.0952212499999998,
            57.742563866666664
          ],
          [
            -5.0935442333333327,
            57.740868716666661
          ],
          [
            -5.0919520333333326,
            57.739173116666677
          ],
          [
            -5.0904639333333339,
            57.737636833333333
          ],
          [
            -5.0876805666666671,
            57.736521716666658
          ],
          [
            -5.0842117833333331,
            57.735934466666677
          ],
          [
            -5.0805428833333339,
            57.736108216666665
          ],
          [
            -5.0773962666666668,
            57.737213216666667
          ],
          [
            -5.0753717499999995,
            57.738607800000004
          ],
          [
            -5.0731354333333334,
            57.739950566666657
          ],
          [
            -5.0703496833333332,
            57.740883333333336
          ],
          [
            -5.0674652666666669,
            57.741801366666671
          ],
          [
            -5.0646579333333337,
            57.742718766666663
          ],
          [
            -5.0623021000000001,
            57.743687516666661
          ],
          [
            -5.0595620420166254,
            57.744488877440126
          ],
          [
            -5.056973366666667,
            57.74600195
          ],
          [
            -5.055423791944655,
            57.74776088159409
          ],
          [
            -5.0527758109442429,
            57.749147571994925
          ],
          [
            -5.0507513588781396,
            57.750478415270273
          ],
          [
            -5.0485341007934181,
            57.751749520459683
          ],
          [
            -5.0467225500000001,
            57.753368950000002
          ],
          [
            -5.0452823333333336,
            57.754918933333329
          ],
          [
            -5.0439710333333325,
            57.756410416666661
          ],
          [
            -5.0422513999999996,
            57.757435016666676
          ],
          [
            -5.0395301166666666,
            57.75842578333333
          ],
          [
            -5.0372648333333334,
            57.758721449999996
          ],
          [
            -5.03461845,
            57.758992300000003
          ],
          [
            -5.0313557833333329,
            57.75827335000001
          ],
          [
            -5.028607366666666,
            57.757595533333337
          ],
          [
            -5.025935183333333,
            57.756610166666668
          ],
          [
            -5.0239120000000002,
            57.755605283333338
          ],
          [
            -5.0224407833333338,
            57.754444883333328
          ],
          [
            -5.0200238906714265,
            57.753601281499371
          ],
          [
            -5.017827116666667,
            57.752647633333325
          ],
          [
            -5.0155270666666665,
            57.752098333333336
          ],
          [
            -5.0134728666666666,
            57.752092250000004
          ],
          [
            -5.0116762166666673,
            57.752122233333331
          ],
          [
            -5.0104295524377953,
            57.752737628380729
          ],
          [
            -5.0138875894071822,
            57.753531025164733
          ],
          [
            -5.0169947515136677,
            57.754698678848683
          ],
          [
            -5.0198137333333337,
            57.755881049999999
          ],
          [
            -5.0221633499999996,
            57.757004683333328
          ],
          [
            -5.0240178833333333,
            57.75825376666667
          ],
          [
            -5.0259043389766749,
            57.759579337207605
          ],
          [
            -5.0284909369489128,
            57.760661783957723
          ],
          [
            -5.0305154961423675,
            57.762126694623696
          ],
          [
            -5.0326785233945666,
            57.763545048092752
          ],
          [
            -5.034629516369753,
            57.765170022261856
          ],
          [
            -5.0356634730400529,
            57.767038580885476
          ],
          [
            -5.0363843811043676,
            57.769472776737047
          ],
          [
            -5.0362255546939965,
            57.771902528090351
          ],
          [
            -5.0359979635813925,
            57.774510560218673
          ],
          [
            -5.0356765724187902,
            57.776391503117104
          ],
          [
            -5.0359199232492475,
            57.778588794359287
          ],
          [
            -5.0366019744660129,
            57.78071021089508
          ],
          [
            -5.0372644830906204,
            57.782605427132623
          ],
          [
            -5.0386837581480615,
            57.784473757888975
          ],
          [
            -5.039922259454495,
            57.78608717513216
          ],
          [
            -5.0413527365296389,
            57.787841421374964
          ],
          [
            -5.0426946333333325,
            57.78950725
          ],
          [
            -5.0439452166666667,
            57.791208800000007
          ],
          [
            -5.0458391366818249,
            57.7926703516396
          ],
          [
            -5.0488286333333328,
            57.794010849999992
          ],
          [
            -5.050929833333333,
            57.795873183333335
          ],
          [
            -5.052631773018657,
            57.797600531734503
          ],
          [
            -5.054184756964597,
            57.799348649003754
          ],
          [
            -5.0555415935637011,
            57.80103301981643
          ],
          [
            -5.0562267132614043,
            57.802770531188308
          ],
          [
            -5.0559446729063513,
            57.804646110955638
          ],
          [
            -5.0562617714891278,
            57.806362660022913
          ],
          [
            -5.0568596982286156,
            57.80826470182253
          ],
          [
            -5.0574195832408808,
            57.810081403118211
          ],
          [
            -5.0580709788756257,
            57.812119332551497
          ],
          [
            -5.059120428738594,
            57.81387239394671
          ],
          [
            -5.0590307489889259,
            57.815694431472494
          ],
          [
            -5.060067889805719,
            57.817284979544972
          ],
          [
            -5.0619698537447055,
            57.818602944813534
          ],
          [
            -5.0628176540005594,
            57.820360542364583
          ],
          [
            -5.0632614102405071,
            57.822138616241574
          ],
          [
            -5.0638339766151885,
            57.824059961460584
          ],
          [
            -5.0641262734243231,
            57.824759925717494
          ],
          [
            -5.0645697990632561,
            57.825827945150849
          ],
          [
            -5.0654459600219646,
            57.827895656142694
          ],
          [
            -5.0666868540278172,
            57.829718696824656
          ],
          [
            -5.06849297648996,
            57.831412027483708
          ],
          [
            -5.0701875599372634,
            57.833105992655575
          ],
          [
            -5.0716192648817726,
            57.8349368225863
          ],
          [
            -5.0728839727497075,
            57.836934507327435
          ],
          [
            -5.0740165034360452,
            57.838739612741151
          ],
          [
            -5.0752152579003624,
            57.840520461324452
          ],
          [
            -5.0763869695053341,
            57.842190145695881
          ],
          [
            -5.0768955566990526,
            57.844049292304661
          ],
          [
            -5.077170178849074,
            57.845840736014658
          ],
          [
            -5.0774743524581112,
            57.84766393172422
          ],
          [
            -5.0782117843713284,
            57.849351355457358
          ],
          [
            -5.079267878966661,
            57.851148515604081
          ],
          [
            -5.0810942977173559,
            57.852774521516508
          ],
          [
            -5.0829339899898276,
            57.85418378207531
          ],
          [
            -5.0848581998036542,
            57.855485288250144
          ],
          [
            -5.086918318046556,
            57.856514408820466
          ],
          [
            -5.0872194411456153,
            57.858212210724908
          ],
          [
            -5.0869584376636388,
            57.859767215693829
          ],
          [
            -5.0872811121883705,
            57.861422765324726
          ],
          [
            -5.0887628618305447,
            57.862941685816089
          ],
          [
            -5.0902237387071354,
            57.864278835433161
          ],
          [
            -5.0918510396213028,
            57.86552317273761
          ],
          [
            -5.0937778600154928,
            57.86674481667486
          ],
          [
            -5.095423379869823,
            57.868150444354917
          ],
          [
            -5.0957037284920368,
            57.869770696840725
          ],
          [
            -5.0977195156195174,
            57.871490190028986
          ],
          [
            -5.0998017215478546,
            57.872404415468012
          ],
          [
            -5.1023078786207652,
            57.873406756207203
          ],
          [
            -5.1050898922572934,
            57.874347943797353
          ],
          [
            -5.1077387402294123,
            57.875240896803618
          ],
          [
            -5.1103910253583029,
            57.876125624699533
          ],
          [
            -5.1130435660485061,
            57.876986080680489
          ],
          [
            -5.1158269214149188,
            57.878000861481027
          ],
          [
            -5.118409501574809,
            57.878873325685639
          ],
          [
            -5.1206942689646144,
            57.879774228386914
          ],
          [
            -5.1230393155255527,
            57.880573222153004
          ],
          [
            -5.1250070706455855,
            57.881765560761451
          ],
          [
            -5.1268731731540491,
            57.882760056012252
          ],
          [
            -5.128591257023281,
            57.883779716338083
          ],
          [
            -5.1301284632275213,
            57.884968255094556
          ],
          [
            -5.1323914298518538,
            57.885936864777285
          ],
          [
            -5.1345132293247184,
            57.886898244233151
          ],
          [
            -5.1356144336242142,
            57.88819184788958
          ],
          [
            -5.1374906333221269,
            57.889120749645954
          ],
          [
            -5.1389179295545153,
            57.890316201593556
          ],
          [
            -5.1405915083011795,
            57.891318571517935
          ],
          [
            -5.1419882623488196,
            57.892392674497536
          ],
          [
            -5.1425962908975746,
            57.893641061130459
          ],
          [
            -5.1439557321593554,
            57.894665140264024
          ],
          [
            -5.1459077582012727,
            57.895307129077118
          ],
          [
            -5.1479099501417007,
            57.895730534294358
          ],
          [
            -5.149806155639105,
            57.89620186037839
          ],
          [
            -5.1514035531012974,
            57.896815193018689
          ],
          [
            -5.1532325016262224,
            57.89678743478175
          ],
          [
            -5.1630793929046632,
            57.896657001870089
          ],
          [
            -5.1616855499999996,
            57.898092966666674
          ],
          [
            -5.1623544666666668,
            57.89893275
          ],
          [
            -5.161310883333333,
            57.89967016666666
          ],
          [
            -5.1601426666666672,
            57.900319966666665
          ],
          [
            -5.1590861833333337,
            57.90102508333333
          ],
          [
            -5.1590361833333329,
            57.901956999999989
          ],
          [
            -5.1600149166666665,
            57.902752633333328
          ],
          [
            -5.1597204999999997,
            57.903642400000003
          ],
          [
            -5.1596797999999993,
            57.904704766666661
          ],
          [
            -5.1617137666666668,
            57.905271550000002
          ],
          [
            -5.1638868833333333,
            57.905867183333335
          ],
          [
            -5.1661989666666672,
            57.906499099999998
          ],
          [
            -5.1685256333333331,
            57.907182183333326
          ],
          [
            -5.1710635500000013,
            57.907612783333335
          ],
          [
            -5.1737739999999999,
            57.907770733333336
          ],
          [
            -5.17605395,
            57.90852841666667
          ],
          [
            -5.1781303333333328,
            57.909609716666665
          ],
          [
            -5.1802117000000001,
            57.910692133333335
          ],
          [
            -5.1818944499999997,
            57.911738383333343
          ],
          [
            -5.1836662833333333,
            57.912829383333332
          ],
          [
            -5.1844929499999992,
            57.914155916666672
          ],
          [
            -5.1846955999999995,
            57.915490366666667
          ],
          [
            -5.1868979166666662,
            57.916344366666664
          ],
          [
            -5.1892383500000001,
            57.917024249999997
          ],
          [
            -5.190689466666667,
            57.917431800000003
          ],
          [
            -5.1914880393457645,
            57.917690200053322
          ],
          [
            -5.19275895,
            57.918793533333343
          ],
          [
            -5.1913033813399556,
            57.920038729151734
          ],
          [
            -5.1905049500000002,
            57.921685916666668
          ],
          [
            -5.1912076000000003,
            57.923011633333331
          ],
          [
            -5.1928661333333332,
            57.924231416666665
          ],
          [
            -5.1937902833333336,
            57.925499800000004
          ],
          [
            -5.1942569333333335,
            57.926792033333342
          ],
          [
            -5.1957494710082894,
            57.927848125304038
          ],
          [
            -5.1975740333333338,
            57.928750116666663
          ],
          [
            -5.1967675666666677,
            57.930250533333343
          ],
          [
            -5.1961930000000001,
            57.931589516666662
          ],
          [
            -5.1961919000000005,
            57.932704433333342
          ],
          [
            -5.1963638333333337,
            57.933612300000007
          ],
          [
            -5.1948339333333333,
            57.934363183333332
          ],
          [
            -5.1924157333333332,
            57.934973883333335
          ],
          [
            -5.1900920505719279,
            57.935600867482229
          ],
          [
            -5.1877971166666672,
            57.936154716666664
          ],
          [
            -5.1855212333333336,
            57.936736666666668
          ],
          [
            -5.1842575166666665,
            57.937802683333331
          ],
          [
            -5.182829083333333,
            57.9388097
          ],
          [
            -5.1806683333333332,
            57.939574366666662
          ],
          [
            -5.1780282166666662,
            57.940075183333327
          ],
          [
            -5.1754298666666667,
            57.94067858333333
          ],
          [
            -5.1726717666666664,
            57.941123783333332
          ],
          [
            -5.1701091333333329,
            57.941940916666667
          ],
          [
            -5.1680988833333332,
            57.943073416666657
          ],
          [
            -5.1664100499999996,
            57.944366366666664
          ],
          [
            -5.1638516166666664,
            57.945352266666667
          ],
          [
            -5.1609362166666664,
            57.94634405
          ],
          [
            -5.1582885000000012,
            57.947239450000005
          ],
          [
            -5.1552810166666667,
            57.948099050000003
          ],
          [
            -5.1518760666666674,
            57.949018216666673
          ],
          [
            -5.1487768999999997,
            57.950009433333328
          ],
          [
            -5.1460551666666658,
            57.951044349999997
          ],
          [
            -5.1434799333333325,
            57.952092016666661
          ],
          [
            -5.1411903500000005,
            57.953436666666661
          ],
          [
            -5.1388155666666666,
            57.95482444999999
          ],
          [
            -5.136655133333333,
            57.95598356666666
          ],
          [
            -5.1346995499999997,
            57.957103350000004
          ],
          [
            -5.1341744333333335,
            57.958731633333343
          ],
          [
            -5.1350216333333334,
            57.960337899999999
          ],
          [
            -5.1358811333333332,
            57.962023966666656
          ],
          [
            -5.1345960000000002,
            57.963859416666672
          ],
          [
            -5.1324833666666665,
            57.96560328333333
          ],
          [
            -5.13051645,
            57.967071350000005
          ],
          [
            -5.1285316999999999,
            57.968449100000001
          ],
          [
            -5.1266750500000002,
            57.969995199999993
          ],
          [
            -5.1249006000000001,
            57.971523999999995
          ],
          [
            -5.1237590333333332,
            57.973068716666667
          ],
          [
            -5.1227155499999997,
            57.974572033333331
          ],
          [
            -5.1213130333333323,
            57.976104050000004
          ],
          [
            -5.1199803000000008,
            57.977663466666677
          ],
          [
            -5.1188883833333341,
            57.979441100000003
          ],
          [
            -5.1191158333333329,
            57.981104016666663
          ],
          [
            -5.1189502333333339,
            57.982013466666665
          ],
          [
            -5.118465116666667,
            57.982723283333343
          ],
          [
            -5.1172431166666668,
            57.984258966666658
          ],
          [
            -5.1159817499999996,
            57.985797916666655
          ],
          [
            -5.1147058333333328,
            57.987363533333337
          ],
          [
            -5.1135966833333342,
            57.989004466666664
          ],
          [
            -5.1125251166666672,
            57.9904048
          ],
          [
            -5.1111785666666663,
            57.991791283333335
          ],
          [
            -5.1102418666666667,
            57.993182833333343
          ],
          [
            -5.1093288333333335,
            57.994629449999998
          ],
          [
            -5.1082722333333326,
            57.995914049999989
          ],
          [
            -5.1071057666666668,
            57.997047199999997
          ],
          [
            -5.1056341333333339,
            57.998194633333334
          ],
          [
            -5.1042234999999989,
            57.999061266666665
          ],
          [
            -5.1027455166666673,
            58.000131716666665
          ],
          [
            -5.1015920333333344,
            58.001192800000005
          ],
          [
            -5.1002724666666666,
            58.002006766666668
          ],
          [
            -5.0978282499999992,
            58.002399583333336
          ],
          [
            -5.0953031333333332,
            58.003450416666666
          ],
          [
            -5.0931461166666665,
            58.004607416666673
          ],
          [
            -5.0909769166666674,
            58.005528933333338
          ],
          [
            -5.0894756833333332,
            58.006927133333328
          ],
          [
            -5.0878418000000005,
            58.00829408333334
          ],
          [
            -5.0862017833333324,
            58.009581116666666
          ],
          [
            -5.0847785166666668,
            58.011261716666667
          ],
          [
            -5.0832298666666658,
            58.01272869999999
          ],
          [
            -5.0815450666666662,
            58.014098550000007
          ],
          [
            -5.0795073666666664,
            58.015512216666671
          ],
          [
            -5.0786936000000003,
            58.017033116666667
          ],
          [
            -5.0778392333333331,
            58.018915283333335
          ],
          [
            -5.0770091999999991,
            58.0205415
          ],
          [
            -5.0760760166666667,
            58.022373683333335
          ],
          [
            -5.0752554166666668,
            58.023967400000004
          ],
          [
            -5.0744896166666669,
            58.025423266666671
          ],
          [
            -5.07360905,
            58.02703154999999
          ],
          [
            -5.0730360999999995,
            58.02853793333334
          ],
          [
            -5.0734575833333331,
            58.030218266666665
          ],
          [
            -5.0732035333333334,
            58.031972416666669
          ],
          [
            -5.0721725333333332,
            58.033418266666665
          ],
          [
            -5.0712433666666668,
            58.034713883333339
          ],
          [
            -5.069901016666666,
            58.036118899999998
          ],
          [
            -5.0676869333333334,
            58.037184750000009
          ],
          [
            -5.065306783333333,
            58.038182333333332
          ],
          [
            -5.0634877999999999,
            58.039163099999996
          ],
          [
            -5.0612268999999994,
            58.039991283333336
          ],
          [
            -5.0591670166666667,
            58.041047949999999
          ],
          [
            -5.0573020666666668,
            58.041997916666666
          ],
          [
            -5.0553852499999996,
            58.042777199999996
          ],
          [
            -5.0536091166666663,
            58.043467666666658
          ],
          [
            -5.0518870499999995,
            58.044107133333334
          ],
          [
            -5.0502898833333338,
            58.044667749999995
          ],
          [
            -5.0485667000000003,
            58.045225799999997
          ],
          [
            -5.0466232333333334,
            58.045573299999994
          ],
          [
            -5.0444942499999996,
            58.045807633333332
          ],
          [
            -5.0424376333333338,
            58.046109016666669
          ],
          [
            -5.0404783999999996,
            58.046388549999996
          ],
          [
            -5.0383176833333332,
            58.046040916666662
          ],
          [
            -5.035846552455209,
            58.046225799815787
          ],
          [
            -5.0338380046105318,
            58.047375549311177
          ],
          [
            -5.0325568072818037,
            58.047696963706507
          ],
          [
            -5.0310020460721665,
            58.048177881909119
          ],
          [
            -5.0300672024661655,
            58.049000305028407
          ],
          [
            -5.0310564106589846,
            58.049969995752619
          ],
          [
            -5.0321944332460289,
            58.050391698294689
          ],
          [
            -5.0327198277854359,
            58.051285734599716
          ],
          [
            -5.0289699143986386,
            58.054122876802808
          ],
          [
            -5.0304795499999999,
            58.053891633333322
          ],
          [
            -5.0307198833333331,
            58.052931633333337
          ],
          [
            -5.0321614000000006,
            58.052024766666662
          ],
          [
            -5.0328729666666661,
            58.05107113333333
          ],
          [
            -5.031733683333333,
            58.050200466666674
          ],
          [
            -5.0302043014916951,
            58.049350830139765
          ],
          [
            -5.0307217958867101,
            58.0483335879983
          ],
          [
            -5.0325665666666666,
            58.047722683333333
          ],
          [
            -5.034656817919851,
            58.047016550385358
          ],
          [
            -5.0367469764341841,
            58.045836156175284
          ],
          [
            -5.0380976000000004,
            58.04601018333333
          ],
          [
            -5.0401340000000001,
            58.046430533333321
          ],
          [
            -5.0423682166666675,
            58.046166350000007
          ],
          [
            -5.0444884500000002,
            58.045876183333334
          ],
          [
            -5.0470365500000005,
            58.045610233333342
          ],
          [
            -5.0492142166666669,
            58.045155733333331
          ],
          [
            -5.0512147166666663,
            58.044467450000006
          ],
          [
            -5.0534998333333334,
            58.043648866666672
          ],
          [
            -5.0557992669275436,
            58.042764546936894
          ],
          [
            -5.05803508392178,
            58.041807285203497
          ],
          [
            -5.0599441000000001,
            58.040810666666658
          ],
          [
            -5.0619153000000008,
            58.039891033333333
          ],
          [
            -5.0640359999999998,
            58.039026200000009
          ],
          [
            -5.0657990999999996,
            58.03812623333333
          ],
          [
            -5.0676686166666665,
            58.037357400000005
          ],
          [
            -5.0693818500000001,
            58.036628633333336
          ],
          [
            -5.0707198666666669,
            58.03563501666666
          ],
          [
            -5.0713244666666668,
            58.03468878333333
          ],
          [
            -5.0710681278238177,
            58.033337467517015
          ],
          [
            -5.0708617011437092,
            58.033821657669094
          ],
          [
            -5.0715140166666668,
            58.034658166666667
          ],
          [
            -5.0724498000000002,
            58.033346699999989
          ],
          [
            -5.0734415166666675,
            58.031913366666672
          ],
          [
            -5.0735617366695331,
            58.030290230357629
          ],
          [
            -5.073127195274175,
            58.028537136369636
          ],
          [
            -5.0738712499999998,
            58.026805783333337
          ],
          [
            -5.0746745333333338,
            58.025302083333322
          ],
          [
            -5.0754542500000008,
            58.023788616666657
          ],
          [
            -5.0763341999999998,
            58.02205858333334
          ],
          [
            -5.0772002666666678,
            58.020362416666664
          ],
          [
            -5.0781448500000002,
            58.018532066666666
          ],
          [
            -5.0787933666666669,
            58.016865233333327
          ],
          [
            -5.0799714333333332,
            58.015288066666663
          ],
          [
            -5.0819305333333338,
            58.013917000000006
          ],
          [
            -5.0835966833333339,
            58.012491300000001
          ],
          [
            -5.0851378,
            58.010960283333333
          ],
          [
            -5.0862129500000002,
            58.009683916666667
          ],
          [
            -5.0878915666666673,
            58.008374266666671
          ],
          [
            -5.0893007166666671,
            58.007213599999993
          ],
          [
            -5.0903806166666667,
            58.006019116666657
          ],
          [
            -5.0923495333333335,
            58.00511066666666
          ],
          [
            -5.0942707166666663,
            58.00409719999999
          ],
          [
            -5.0960284666666666,
            58.00317488333333
          ],
          [
            -5.0979367166666663,
            58.002462699999995
          ],
          [
            -5.1003879333333337,
            58.002081833333342
          ],
          [
            -5.1019102333333333,
            58.001052916666666
          ],
          [
            -5.1028915333333336,
            58.000083199999999
          ],
          [
            -5.1045033333333336,
            57.999621566666676
          ],
          [
            -5.1062201333333332,
            57.999698183333336
          ],
          [
            -5.1076625702405938,
            57.999208736779345
          ],
          [
            -5.1093739666666664,
            57.999198233333331
          ],
          [
            -5.1111347152181965,
            57.999421885684754
          ],
          [
            -5.1127238025661628,
            57.999774287207451
          ],
          [
            -5.1144170540745204,
            57.999881335191148
          ],
          [
            -5.1157128790775905,
            58.000588186118797
          ],
          [
            -5.1170619687398853,
            58.001157139076199
          ],
          [
            -5.1187350971387033,
            58.001345369286973
          ],
          [
            -5.1202594796233774,
            58.000947539216043
          ],
          [
            -5.1219393833333342,
            58.000748566666672
          ],
          [
            -5.1237942499999996,
            58.000843749999994
          ],
          [
            -5.1253446166666654,
            58.001169916666669
          ],
          [
            -5.1270587666666669,
            58.001132133333336
          ],
          [
            -5.1286840500000004,
            58.001644666666664
          ],
          [
            -5.1304100166666657,
            58.002051633333338
          ],
          [
            -5.1321724333333334,
            58.00236353333333
          ],
          [
            -5.1335791166666667,
            58.002882233333331
          ],
          [
            -5.1350855500000003,
            58.003397033333336
          ],
          [
            -5.1359260999999998,
            58.004180283333334
          ],
          [
            -5.137457901950425,
            58.004569136808627
          ],
          [
            -5.1391112333333329,
            58.004804033333322
          ],
          [
            -5.1402246726193406,
            58.005496185880531
          ],
          [
            -5.1414323333333334,
            58.006138333333332
          ],
          [
            -5.1429171778681591,
            58.006681646830238
          ],
          [
            -5.1434380166666669,
            58.007566700000005
          ],
          [
            -5.144742766666667,
            58.0081536
          ],
          [
            -5.1461958000000001,
            58.008657366666668
          ],
          [
            -5.1474692666666666,
            58.009363900000004
          ],
          [
            -5.1492355333333339,
            58.010098800000002
          ],
          [
            -5.1503755666666668,
            58.010440866666677
          ],
          [
            -5.1518786666666667,
            58.010874949999994
          ],
          [
            -5.1531439333333333,
            58.011483516666672
          ],
          [
            -5.1542581833333339,
            58.012219833333333
          ],
          [
            -5.1551288499999997,
            58.013023000000004
          ],
          [
            -5.1563784000000004,
            58.013677266666669
          ],
          [
            -5.1572823666666663,
            58.014477950000007
          ],
          [
            -5.1583854499999999,
            58.015220766666673
          ],
          [
            -5.159561833333334,
            58.015942099999997
          ],
          [
            -5.1608050500000004,
            58.016561716666665
          ],
          [
            -5.1615176833333338,
            58.017415616666661
          ],
          [
            -5.1624804666666666,
            58.018225749999999
          ],
          [
            -5.1632318000000001,
            58.019112999999997
          ],
          [
            -5.164301916666667,
            58.019913083333329
          ],
          [
            -5.165471966666666,
            58.020649999999989
          ],
          [
            -5.1668234000000002,
            58.021347466666668
          ],
          [
            -5.1681398333333339,
            58.021988200000003
          ],
          [
            -5.1694993833333331,
            58.022637749999994
          ],
          [
            -5.1698603666666667,
            58.023566666666667
          ],
          [
            -5.1702820666666662,
            58.024479683333325
          ],
          [
            -5.1705410999999994,
            58.025421900000012
          ],
          [
            -5.1711021666666666,
            58.026321350000003
          ],
          [
            -5.1717127833333336,
            58.02723996666667
          ],
          [
            -5.1729232166666659,
            58.028293866666672
          ],
          [
            -5.1734753666666666,
            58.028856949999998
          ],
          [
            -5.1741549750727929,
            58.029695008680683
          ],
          [
            -5.1751382666666661,
            58.030486066666661
          ],
          [
            -5.176657048449484,
            58.030907622365703
          ],
          [
            -5.1784301428985726,
            58.031084929313103
          ],
          [
            -5.1801534300514591,
            58.031282850987125
          ],
          [
            -5.1818938000000001,
            58.031376133333332
          ],
          [
            -5.183690583333334,
            58.031402216666656
          ],
          [
            -5.1854897000000006,
            58.031610933333333
          ],
          [
            -5.1872335500000002,
            58.031745350000001
          ],
          [
            -5.1891384333333335,
            58.031705633333331
          ],
          [
            -5.1909469352602695,
            58.0317130805456
          ],
          [
            -5.192689407222117,
            58.032027258964689
          ],
          [
            -5.1943836325816761,
            58.03233788418779
          ],
          [
            -5.1959390675954884,
            58.032719302233602
          ],
          [
            -5.1977779135089852,
            58.033006875670807
          ],
          [
            -5.1994524641443354,
            58.033381218387163
          ],
          [
            -5.2010324333333342,
            58.033727050000003
          ],
          [
            -5.2021766452535578,
            58.034406989208762
          ],
          [
            -5.2037979057628938,
            58.034752788141581
          ],
          [
            -5.2054997837332246,
            58.034726904693592
          ],
          [
            -5.2072582833333341,
            58.034562300000005
          ],
          [
            -5.2090063843179255,
            58.034423067264989
          ],
          [
            -5.2105638767270985,
            58.033999737081828
          ],
          [
            -5.2118317710326192,
            58.033389144396658
          ],
          [
            -5.2135787106177007,
            58.033417297169954
          ],
          [
            -5.2152859547956671,
            58.033468809451854
          ],
          [
            -5.2169823060742457,
            58.033412078638044
          ],
          [
            -5.2193192866370701,
            58.033324303299509
          ],
          [
            -5.2210585744729974,
            58.033241538757672
          ],
          [
            -5.2227521994181831,
            58.033191089467238
          ],
          [
            -5.2244474874071569,
            58.03356519004388
          ],
          [
            -5.2263714999999991,
            58.03350008333333
          ],
          [
            -5.2282875500000001,
            58.033496966666675
          ],
          [
            -5.2301112833333336,
            58.033433049999999
          ],
          [
            -5.2319252500000006,
            58.033396266666664
          ],
          [
            -5.2337497666666666,
            58.03341176666666
          ],
          [
            -5.2351078833333347,
            58.033994800000002
          ],
          [
            -5.2361823333333328,
            58.03503103333334
          ],
          [
            -5.2367490287138105,
            58.035636100820987
          ],
          [
            -5.2384094499999998,
            58.035846899999996
          ],
          [
            -5.2400480499999995,
            58.036183533333329
          ],
          [
            -5.2412346666666663,
            58.036843600000012
          ],
          [
            -5.2422994166666665,
            58.03758478333333
          ],
          [
            -5.2432894999999995,
            58.038382666666664
          ],
          [
            -5.2441280666666676,
            58.039236966666671
          ],
          [
            -5.24546095,
            58.040019083333334
          ],
          [
            -5.2468297000000002,
            58.04058400000001
          ],
          [
            -5.2478812500000007,
            58.041403116666665
          ],
          [
            -5.2487114166666675,
            58.042333499999998
          ],
          [
            -5.249918366666666,
            58.042987899999993
          ],
          [
            -5.2513407333333344,
            58.043618433333329
          ],
          [
            -5.2528224187558248,
            58.044189631957153
          ],
          [
            -5.2545360666666658,
            58.044437299999998
          ],
          [
            -5.256179566666666,
            58.04470074999999
          ],
          [
            -5.2576690499999996,
            58.045144333333333
          ],
          [
            -5.2593681000000005,
            58.045615600000005
          ],
          [
            -5.2607794769021821,
            58.045926894899239
          ],
          [
            -5.2625319099392698,
            58.046215277953074
          ],
          [
            -5.264192924284993,
            58.046520366867242
          ],
          [
            -5.2658889000000011,
            58.046664849999992
          ],
          [
            -5.2675829500000004,
            58.046725133333332
          ],
          [
            -5.2692831166666654,
            58.046799633333336
          ],
          [
            -5.2710175833333341,
            58.046785050000004
          ],
          [
            -5.2728071999999999,
            58.04674279999999
          ],
          [
            -5.2744990833333345,
            58.046658700000002
          ],
          [
            -5.2762035833333334,
            58.046895333333339
          ],
          [
            -5.2779327333333335,
            58.047186700000005
          ],
          [
            -5.2796400166666677,
            58.047164283333331
          ],
          [
            -5.2812843000000003,
            58.047388399999996
          ],
          [
            -5.2829927999999997,
            58.047367950000002
          ],
          [
            -5.2845321999999992,
            58.047789799999997
          ],
          [
            -5.2860686166666673,
            58.048178350000008
          ],
          [
            -5.2877950666666669,
            58.048465116666662
          ],
          [
            -5.2895549666666657,
            58.048762000000004
          ],
          [
            -5.2912671833333338,
            58.049045716666662
          ],
          [
            -5.2929803333333325,
            58.049322200000006
          ],
          [
            -5.2945777833333327,
            58.049669883333337
          ],
          [
            -5.2960101166666673,
            58.05021283333334
          ],
          [
            -5.2973562166666657,
            58.050821116666668
          ],
          [
            -5.2984647689477962,
            58.051512950676404
          ],
          [
            -5.2994008551469767,
            58.052279654104368
          ],
          [
            -5.3003375680605416,
            58.053056365122217
          ],
          [
            -5.3015965264659215,
            58.053711081026826
          ],
          [
            -5.3030101666666667,
            58.054307616666662
          ],
          [
            -5.3044186166666671,
            58.054930449999993
          ],
          [
            -5.3057782833333329,
            58.055500249999994
          ],
          [
            -5.3072478333333342,
            58.056090233333329
          ],
          [
            -5.3086593666666664,
            58.056604500000006
          ],
          [
            -5.3101541999999995,
            58.057131399999996
          ],
          [
            -5.3115777666666659,
            58.057633933333335
          ],
          [
            -5.3130782833333345,
            58.058169916666671
          ],
          [
            -5.3145991666666665,
            58.058707966666667
          ],
          [
            -5.3160511166666673,
            58.059223700000004
          ],
          [
            -5.3175340833333333,
            58.059753066666666
          ],
          [
            -5.3190109166666675,
            58.060312133333341
          ],
          [
            -5.320385233333333,
            58.060839966666663
          ],
          [
            -5.3218663333333316,
            58.061416666666673
          ],
          [
            -5.323248566666666,
            58.061954849999999
          ],
          [
            -5.3247941666666669,
            58.062411900000008
          ],
          [
            -5.3264330341115151,
            58.062744472883409
          ],
          [
            -5.3280693619140411,
            58.063038702647695
          ],
          [
            -5.3298002150401524,
            58.06335028472764
          ],
          [
            -5.3315653628472335,
            58.063587175421162
          ],
          [
            -5.3331425774365071,
            58.063226070566834
          ],
          [
            -5.3345677868247847,
            58.062627901280877
          ],
          [
            -5.3359858925657688,
            58.062072961747809
          ],
          [
            -5.3373932598103258,
            58.061516866786647
          ],
          [
            -5.3388537388228299,
            58.06099894279081
          ],
          [
            -5.3403260832962163,
            58.06050346187758
          ],
          [
            -5.3417744676558279,
            58.060017066526093
          ],
          [
            -5.34324922390004,
            58.059525767887799
          ],
          [
            -5.3448863139243992,
            58.059097222464786
          ],
          [
            -5.3465923872481005,
            58.059128106504332
          ],
          [
            -5.3486564594469765,
            58.059244789907545
          ],
          [
            -5.349986375477723,
            58.05909410532152
          ],
          [
            -5.3506654778618712,
            58.058259392647088
          ],
          [
            -5.3523033192955225,
            58.056741559961772
          ],
          [
            -5.3555212695733028,
            58.056555991169873
          ],
          [
            -5.3566004378402967,
            58.056594491535847
          ],
          [
            -5.3577399768675269,
            58.057307081679561
          ],
          [
            -5.3590615030056252,
            58.05789460259826
          ],
          [
            -5.3603401409666525,
            58.058516556148682
          ],
          [
            -5.3615316742742909,
            58.059246479551071
          ],
          [
            -5.3628131666377277,
            58.059930702653553
          ],
          [
            -5.3641310499999992,
            58.060579599999997
          ],
          [
            -5.36534552738929,
            58.061211814533557
          ],
          [
            -5.3668547333333336,
            58.061756083333329
          ],
          [
            -5.3684798666666662,
            58.06211536666666
          ],
          [
            -5.3708170351286508,
            58.062683822324892
          ],
          [
            -5.3727860325711854,
            58.063230846936868
          ],
          [
            -5.3738275033897507,
            58.063531920315143
          ],
          [
            -5.3795268044668942,
            58.066003601350928
          ],
          [
            -5.3785300666666664,
            58.066734700000005
          ],
          [
            -5.3774810755733951,
            58.067498275701567
          ],
          [
            -5.3759419465724916,
            58.067884090978808
          ],
          [
            -5.3745443003503945,
            58.068421342141697
          ],
          [
            -5.3730933333333333,
            58.068893433333336
          ],
          [
            -5.3715654666666675,
            58.06931483333333
          ],
          [
            -5.3693802833333333,
            58.069700216666661
          ],
          [
            -5.3682830166666671,
            58.069949083333327
          ],
          [
            -5.3682830166666671,
            58.069949083333327
          ],
          [
            -5.3662473423483261,
            58.070641542841066
          ],
          [
            -5.3599793755858265,
            58.067559845989436
          ],
          [
            -5.3614232787296974,
            58.067610885248634
          ],
          [
            -5.3645333027388222,
            58.068679246725495
          ],
          [
            -5.3645389543028434,
            58.068686340721726
          ],
          [
            -5.3663076316158129,
            58.070592762252836
          ],
          [
            -5.369235342074143,
            58.069778415799185
          ],
          [
            -5.37087235146533,
            58.069456000443523
          ],
          [
            -5.3725418853552496,
            58.069094393717108
          ],
          [
            -5.374013566666668,
            58.068631116666666
          ],
          [
            -5.3754722499999996,
            58.068098466666669
          ],
          [
            -5.3769599670019623,
            58.067627008331037
          ],
          [
            -5.3782579944509399,
            58.066985589815019
          ],
          [
            -5.3792712302423293,
            58.066255126196772
          ],
          [
            -5.3809490333333327,
            58.066005133333327
          ],
          [
            -5.3823690999999991,
            58.066539283333334
          ],
          [
            -5.3839182999999986,
            58.066957699999989
          ],
          [
            -5.3856989333333329,
            58.066913283333335
          ],
          [
            -5.387437516666667,
            58.066518133333325
          ],
          [
            -5.3894389333333343,
            58.066550283333328
          ],
          [
            -5.3916156166666669,
            58.066611000000002
          ],
          [
            -5.3935008500000006,
            58.066447866666671
          ],
          [
            -5.3955657499999994,
            58.066234900000005
          ],
          [
            -5.3975223000000003,
            58.066039000000004
          ],
          [
            -5.3993870499999996,
            58.06584946666667
          ],
          [
            -5.4011674333333346,
            58.065661349999992
          ],
          [
            -5.4033537333333337,
            58.065434166666662
          ],
          [
            -5.4047303666666657,
            58.065242866666658
          ],
          [
            -5.4064809333333343,
            58.065191333333324
          ],
          [
            -5.4082785501152992,
            58.065156532164416
          ],
          [
            -5.4099698333333341,
            58.065388566666662
          ],
          [
            -5.4117051438322337,
            58.06550739038213
          ],
          [
            -5.4130986333333349,
            58.064970383333339
          ],
          [
            -5.4141771333333333,
            58.064200216666663
          ],
          [
            -5.4156822013696608,
            58.063633424474936
          ],
          [
            -5.4165764659370348,
            58.062774360720368
          ],
          [
            -5.4182698829221847,
            58.062341306106397
          ],
          [
            -5.4201589666666656,
            58.062248850000003
          ],
          [
            -5.421933300000001,
            58.06185155
          ],
          [
            -5.4233710417378251,
            58.061350324197775
          ],
          [
            -5.4249294333333333,
            58.060801666666677
          ],
          [
            -5.4262345500000002,
            58.060109583333329
          ],
          [
            -5.4253223333333347,
            58.059344533333324
          ],
          [
            -5.4238442333333339,
            58.058773599999995
          ],
          [
            -5.4222198833333337,
            58.058420750000003
          ],
          [
            -5.4207021088693104,
            58.057939997203739
          ],
          [
            -5.4194291776956813,
            58.057334855578361
          ],
          [
            -5.4186009201870871,
            58.056544961312561
          ],
          [
            -5.4173545047827645,
            58.055835809317017
          ],
          [
            -5.4173545047827645,
            58.055835809317017
          ],
          [
            -5.4159081356670509,
            58.055265543884502
          ],
          [
            -5.4113071928893621,
            58.052862065517211
          ]
        ],
        "type" : "LineString"
      },
      "type" : "Feature",
      "properties" : {
        "type" : "route",
        "source" : "Geory 5.3.2",
        "end" : "2026-10-08T22:59:59Z",
        "start" : "2026-10-07T23:00:00Z",
        "device" : "B9E47AEB-E54C-4563-96B6-06995DD4BC56 (iPhone 16 Pro)"
      }
    }
  ]
}