{
  "type" : "FeatureCollection",
  "features" : [
    {
      "properties" : {
        "timestamp" : "2026-10-03T16:01:24Z",
        "duration" : 147646.33621239662,
        "rating" : 0,
        "source" : "Geory 5.3.2",
        "type" : "visit",
        "address" : "Scourie Caravan and Camping Site, The Anchorage, Scouriemore, Scourie, Lairg, IV27 4TG, Schottland",
        "device" : "B9E47AEB-E54C-4563-96B6-06995DD4BC56 (iPhone 16 Pro)",
        "departure" : "2026-10-05T09:02:11Z",
        "weather" : "Bedeckter Himmel (13,1 °C)",
        "arrival" : "2026-10-03T16:01:24Z"
      },
      "type" : "Feature",
      "geometry" : {
        "coordinates" : [
          -5.1570088680159625,
          58.351571528217399
        ],
        "type" : "Point"
      }
    },
    {
      "geometry" : {
        "type" : "Point",
        "coordinates" : [
          -5.1565839893386318,
          58.351704121134269
        ]
      },
      "properties" : {
        "arrival" : "2026-10-05T09:02:32Z",
        "timestamp" : "2026-10-05T09:02:32Z",
        "type" : "visit",
        "duration" : 5192.9988822937012,
        "device" : "B9E47AEB-E54C-4563-96B6-06995DD4BC56 (iPhone 16 Pro)",
        "rating" : 0,
        "departure" : "2026-10-05T10:29:04Z",
        "source" : "Geory 5.3.2",
        "weather" : "Bedeckter Himmel (12,3 °C)",
        "address" : "Scourie Caravan and Camping Site, The Anchorage, Scouriemore, Scourie, Lairg, IV27 4TG, Schottland"
      },
      "type" : "Feature"
    },
    {
      "properties" : {
        "departure" : "2026-10-05T11:46:47Z",
        "source" : "Geory 5.3.2",
        "timestamp" : "2026-10-05T11:24:03Z",
        "device" : "B9E47AEB-E54C-4563-96B6-06995DD4BC56 (iPhone 16 Pro)",
        "arrival" : "2026-10-05T11:24:03Z",
        "rating" : 0,
        "type" : "visit",
        "address" : "A894, Achfary, Lairg, IV27, Schottland",
        "weather" : "Bedeckter Himmel (11,2 °C)",
        "duration" : 1363.7032487392426
      },
      "geometry" : {
        "coordinates" : [
          -4.9972108638192783,
          58.216863727479485
        ],
        "type" : "Point"
      },
      "type" : "Feature"
    },
    {
      "properties" : {
        "duration" : 1695.9990148544312,
        "weather" : "Überwiegend bewölkt (11,4 °C)",
        "type" : "visit",
        "timestamp" : "2026-10-05T11:46:48Z",
        "source" : "Geory 5.3.2",
        "device" : "B9E47AEB-E54C-4563-96B6-06995DD4BC56 (iPhone 16 Pro)",
        "arrival" : "2026-10-05T11:46:48Z",
        "departure" : "2026-10-05T12:15:03Z",
        "rating" : 0,
        "address" : "Lairg, IV27, Schottland"
      },
      "type" : "Feature",
      "geometry" : {
        "type" : "Point",
        "coordinates" : [
          -4.9949353254949678,
          58.217579891090075
        ]
      }
    },
    {
      "geometry" : {
        "coordinates" : [
          -4.9953372430138758,
          58.218706875612497
        ],
        "type" : "Point"
      },
      "properties" : {
        "rating" : 0,
        "arrival" : "2026-10-05T12:23:03Z",
        "duration" : 3394.9992582798004,
        "address" : "Allt Chrànaidh, Highland, Schottland",
        "timestamp" : "2026-10-05T12:23:03Z",
        "source" : "Geory 5.3.2",
        "departure" : "2026-10-05T13:19:37Z",
        "weather" : "Überwiegend bewölkt (12,1 °C)",
        "device" : "B9E47AEB-E54C-4563-96B6-06995DD4BC56 (iPhone 16 Pro)",
        "type" : "visit"
      },
      "type" : "Feature"
    },
    {
      "geometry" : {
        "type" : "Point",
        "coordinates" : [
          -4.9985737237659409,
          58.216394501095387
        ]
      },
      "type" : "Feature",
      "properties" : {
        "type" : "visit",
        "arrival" : "2026-10-05T13:19:38Z",
        "rating" : 0,
        "weather" : "Überwiegend bewölkt (11,6 °C)",
        "address" : "A894, Assynt, Lairg, IV27, Schottland",
        "device" : "B9E47AEB-E54C-4563-96B6-06995DD4BC56 (iPhone 16 Pro)",
        "departure" : "2026-10-05T13:49:59Z",
        "source" : "Geory 5.3.2",
        "duration" : 1820.3026211261749,
        "timestamp" : "2026-10-05T13:19:38Z"
      }
    },
    {
      "geometry" : {
        "type" : "Point",
        "coordinates" : [
          -5.1099610584326705,
          58.186350804881585
        ]
      },
      "properties" : {
        "arrival" : "2026-10-05T14:09:32Z",
        "rating" : 0,
        "duration" : 2191.6966242790222,
        "type" : "visit",
        "departure" : "2026-10-05T14:46:03Z",
        "timestamp" : "2026-10-05T14:09:32Z",
        "address" : "A837, Assynt, Lairg, IV27, Schottland",
        "source" : "Geory 5.3.2",
        "device" : "B9E47AEB-E54C-4563-96B6-06995DD4BC56 (iPhone 16 Pro)",
        "weather" : "Aufgelockert bewölkt (11,7 °C)"
      },
      "type" : "Feature"
    },
    {
      "properties" : {
        "rating" : 0,
        "arrival" : "2026-10-05T14:46:04Z",
        "address" : "Loch Leitir Easaidh, Highland, Schottland",
        "source" : "Geory 5.3.2",
        "device" : "B9E47AEB-E54C-4563-96B6-06995DD4BC56 (iPhone 16 Pro)",
        "duration" : 1796.0009522438049,
        "departure" : "2026-10-05T15:16:01Z",
        "weather" : "Aufgelockert bewölkt (12,0 °C)",
        "timestamp" : "2026-10-05T14:46:04Z",
        "type" : "visit"
      },
      "type" : "Feature",
      "geometry" : {
        "type" : "Point",
        "coordinates" : [
          -5.1181581370458593,
          58.187235604823158
        ]
      }
    },
    {
      "type" : "Feature",
      "geometry" : {
        "type" : "Point",
        "coordinates" : [
          -5.1235906638567785,
          58.186057574259387
        ]
      },
      "properties" : {
        "duration" : 2685.9997909069061,
        "departure" : "2026-10-05T16:00:47Z",
        "address" : "Lairg, IV27, Schottland",
        "type" : "visit",
        "timestamp" : "2026-10-05T15:16:02Z",
        "rating" : 0,
        "arrival" : "2026-10-05T15:16:02Z",
        "source" : "Geory 5.3.2",
        "weather" : "Aufgelockert bewölkt (12,0 °C)",
        "device" : "B9E47AEB-E54C-4563-96B6-06995DD4BC56 (iPhone 16 Pro)"
      }
    },
    {
      "geometry" : {
        "coordinates" : [
          -5.1107770591193047,
          58.1866481868364
        ],
        "type" : "Point"
      },
      "type" : "Feature",
      "properties" : {
        "rating" : 0,
        "timestamp" : "2026-10-05T16:12:38Z",
        "address" : "A837, Assynt, Lairg, IV27, Schottland",
        "arrival" : "2026-10-05T16:12:38Z",
        "type" : "visit",
        "device" : "B9E47AEB-E54C-4563-96B6-06995DD4BC56 (iPhone 16 Pro)",
        "weather" : "Leichter Regen (12,0 °C)",
        "source" : "Geory 5.3.2",
        "duration" : 22270.551072597504
      }
    },
    {
      "geometry" : {
        "type" : "LineString",
        "coordinates" : [
          [
            -5.1107770591193047,
            58.1866481868364
          ],
          [
            -5.1153376020211327,
            58.187254733086064
          ],
          [
            -5.1168713150063105,
            58.186859850091587
          ],
          [
            -5.1185854560884598,
            58.186795738828685
          ],
          [
            -5.1200534788109771,
            58.187174552242816
          ],
          [
            -5.1235906638567785,
            58.186057574259387
          ],
          [
            -5.1181581370458593,
            58.187235604823158
          ],
          [
            -5.1099610584326705,
            58.186350804881585
          ],
          [
            -5.1046475333333321,
            58.19103956666666
          ],
          [
            -5.1017915499999997,
            58.191316016666661
          ],
          [
            -5.0987754333333335,
            58.190938600000003
          ],
          [
            -5.0959497166666665,
            58.191292699999998
          ],
          [
            -5.0927640666666676,
            58.191533200000002
          ],
          [
            -5.0895652999999994,
            58.191463266666673
          ],
          [
            -5.086711666666667,
            58.190914199999995
          ],
          [
            -5.0842885999999998,
            58.190028566666662
          ],
          [
            -5.0820073333333333,
            58.189278666666667
          ],
          [
            -5.0791741999999998,
            58.189056899999997
          ],
          [
            -5.0767909166666669,
            58.188097849999998
          ],
          [
            -5.073943083333333,
            58.187407133333338
          ],
          [
            -5.0713056000000005,
            58.186791366666668
          ],
          [
            -5.0683861166666659,
            58.186450216666657
          ],
          [
            -5.0655881999999997,
            58.186673500000012
          ],
          [
            -5.0628958500000003,
            58.186649633333339
          ],
          [
            -5.0605149666666662,
            58.186280383333326
          ],
          [
            -5.0579876000000006,
            58.185696950000001
          ],
          [
            -5.0552063500000006,
            58.185363033333331
          ],
          [
            -5.0528169666666667,
            58.184817433333336
          ],
          [
            -5.0514448333333331,
            58.18420055
          ],
          [
            -5.0499042833333334,
            58.183108516666664
          ],
          [
            -5.048459516666667,
            58.182016383333327
          ],
          [
            -5.0477300437296719,
            58.181696574117979
          ],
          [
            -5.0462435575183626,
            58.181391856815729
          ],
          [
            -5.0443370950926143,
            58.180727547624755
          ],
          [
            -5.0424016000000007,
            58.179566883333337
          ],
          [
            -5.0417307263376099,
            58.179291196986014
          ],
          [
            -5.0401161166666668,
            58.178995216666664
          ],
          [
            -5.0378174166666669,
            58.178863016666675
          ],
          [
            -5.0354799333333338,
            58.17860628333333
          ],
          [
            -5.0329504333333333,
            58.178044916666671
          ],
          [
            -5.0307087666666668,
            58.177560683333333
          ],
          [
            -5.0284247666666673,
            58.177257350000005
          ],
          [
            -5.0259874666666677,
            58.177256166666659
          ],
          [
            -5.0236245166666667,
            58.176903999999993
          ],
          [
            -5.0211456333333331,
            58.176157133333326
          ],
          [
            -5.0189192333333335,
            58.175537749999997
          ],
          [
            -5.0163288499999998,
            58.175517433333333
          ],
          [
            -5.0139085500000009,
            58.175716666666666
          ],
          [
            -5.0116134499999996,
            58.175073300000001
          ],
          [
            -5.010133783333333,
            58.174005749999999
          ],
          [
            -5.0081359166666664,
            58.173614283333329
          ],
          [
            -5.0062779333333332,
            58.173578966666675
          ],
          [
            -5.0045795499999999,
            58.173320799999992
          ],
          [
            -5.0027755166666674,
            58.173160116666672
          ],
          [
            -5.002290733333334,
            58.174423250000004
          ],
          [
            -5.0028776574794493,
            58.175692916988645
          ],
          [
            -5.0038682538960204,
            58.176610584465372
          ],
          [
            -5.0035357833333336,
            58.177690433333332
          ],
          [
            -5.003004166666666,
            58.179102966666669
          ],
          [
            -5.0040844445677495,
            58.180175329879127
          ],
          [
            -5.0053758499999992,
            58.181097383333324
          ],
          [
            -5.0052368833333336,
            58.182457599999999
          ],
          [
            -5.0052368833333336,
            58.182457599999999
          ],
          [
            -5.0051013666666666,
            58.183518633333335
          ],
          [
            -5.0062801295992605,
            58.184487791063994
          ],
          [
            -5.008597789147986,
            58.185064720768146
          ],
          [
            -5.0104466666666667,
            58.186058750000001
          ],
          [
            -5.0116717833333331,
            58.187336599999995
          ],
          [
            -5.0129318360541371,
            58.18845285297779
          ],
          [
            -5.0142046643433442,
            58.189360785149134
          ],
          [
            -5.0137631999999996,
            58.190703016666674
          ],
          [
            -5.0132061833333337,
            58.192104866666654
          ],
          [
            -5.0122960950624931,
            58.193284142955278
          ],
          [
            -5.0111272833333329,
            58.194365733333342
          ],
          [
            -5.0105102499999994,
            58.195772433333332
          ],
          [
            -5.0102256833333332,
            58.19697695
          ],
          [
            -5.0101588499999998,
            58.19834543333333
          ],
          [
            -5.0095917692680754,
            58.199565439575757
          ],
          [
            -5.0077924556821749,
            58.200257245431096
          ],
          [
            -5.0069863833333326,
            58.201549333333332
          ],
          [
            -5.0069002580181579,
            58.202713532116434
          ],
          [
            -5.0060287911413717,
            58.204046675786536
          ],
          [
            -5.0047971833333333,
            58.205378083333336
          ],
          [
            -5.0041789343237495,
            58.206569240168548
          ],
          [
            -5.0025794561623087,
            58.207366225296902
          ],
          [
            -5.001035885992736,
            58.208813013918402
          ],
          [
            -4.9996022749161009,
            58.210031354732131
          ],
          [
            -4.9986081833333333,
            58.211647350000007
          ],
          [
            -4.9979585833333333,
            58.213042083333328
          ],
          [
            -4.997417266666667,
            58.214644783333334
          ],
          [
            -4.9985737237659409,
            58.216394501095387
          ],
          [
            -4.9953372430138758,
            58.218706875612497
          ],
          [
            -4.998811965695646,
            58.217676537352332
          ],
          [
            -5.00059833102127,
            58.216201200283557
          ],
          [
            -4.9988984291723009,
            58.21631408783955
          ],
          [
            -4.9949353254949678,
            58.217579891090075
          ],
          [
            -4.9972108638192783,
            58.216863727479485
          ],
          [
            -4.9990343500000005,
            58.21625876666667
          ],
          [
            -5.0007441999999998,
            58.216356916666669
          ],
          [
            -4.9992997500000005,
            58.216848666666664
          ],
          [
            -4.9985801333333342,
            58.218114900000003
          ],
          [
            -4.9979196166666666,
            58.218599399999995
          ],
          [
            -4.9974131000000002,
            58.219479566666664
          ],
          [
            -4.9981121333333327,
            58.220329433333333
          ],
          [
            -4.9989300666666674,
            58.22156360000001
          ],
          [
            -4.9998368833333329,
            58.222625900000004
          ],
          [
            -5.0016619000000002,
            58.223173616666656
          ],
          [
            -5.0023876833333327,
            58.224225999999994
          ],
          [
            -5.0031713666666677,
            58.225541300000003
          ],
          [
            -5.0051866999999994,
            58.226253049999997
          ],
          [
            -5.0066507333333332,
            58.227220599999995
          ],
          [
            -5.0075532333333337,
            58.228282133333344
          ],
          [
            -5.0082642000000002,
            58.229294949999996
          ],
          [
            -5.0090480166666671,
            58.230231900000007
          ],
          [
            -5.0100493833333326,
            58.231161766666673
          ],
          [
            -5.0106704000000004,
            58.232000550000002
          ],
          [
            -5.0119616833333334,
            58.232695700000008
          ],
          [
            -5.0138334499999999,
            58.233247766666665
          ],
          [
            -5.0149753000000006,
            58.234106699999998
          ],
          [
            -5.0141944333333335,
            58.235165866666662
          ],
          [
            -5.0131135499999999,
            58.235982166666659
          ],
          [
            -5.0115124666666668,
            58.236666399999997
          ],
          [
            -5.0103657500000001,
            58.237518299999998
          ],
          [
            -5.0106282437334215,
            58.238782405686237
          ],
          [
            -5.0100436566487989,
            58.240136426102609
          ],
          [
            -5.009517853938747,
            58.240584959960877
          ],
          [
            -5.0080922253551874,
            58.241734179662153
          ],
          [
            -5.0063680109077149,
            58.242636973397978
          ],
          [
            -5.0047156362918646,
            58.243501447585018
          ],
          [
            -5.0038493999999991,
            58.244499250000011
          ],
          [
            -5.0048452499999998,
            58.24544328333333
          ],
          [
            -5.0046588131736822,
            58.24666085133709
          ],
          [
            -5.0054311666666669,
            58.247768283333336
          ],
          [
            -5.0067352499999993,
            58.248787883333335
          ],
          [
            -5.0082547500000008,
            58.249665749999998
          ],
          [
            -5.0100984666666672,
            58.250014766666659
          ],
          [
            -5.0121225000000003,
            58.250136383333334
          ],
          [
            -5.014625183333334,
            58.25055179999999
          ],
          [
            -5.0168219333333335,
            58.251018450000004
          ],
          [
            -5.0190507000000002,
            58.251709250000012
          ],
          [
            -5.0211035000000006,
            58.252434333333333
          ],
          [
            -5.022419133333333,
            58.253643633333333
          ],
          [
            -5.0223434666666655,
            58.254868783333329
          ],
          [
            -5.0224765000000007,
            58.256098183333336
          ],
          [
            -5.023637466666667,
            58.25728376666666
          ],
          [
            -5.0254328333333333,
            58.257941116666672
          ],
          [
            -5.0273078,
            58.257732183333339
          ],
          [
            -5.0288069666666662,
            58.256877866666677
          ],
          [
            -5.0311570166666657,
            58.256721266666666
          ],
          [
            -5.0333025999999998,
            58.257339533333337
          ],
          [
            -5.035433883333333,
            58.257794583333329
          ],
          [
            -5.0366739166666674,
            58.259131916666668
          ],
          [
            -5.0383821166666669,
            58.260225616666673
          ],
          [
            -5.0390223333333335,
            58.261459449999997
          ],
          [
            -5.0403543666666675,
            58.262425450000002
          ],
          [
            -5.0406905000000002,
            58.26332158333333
          ],
          [
            -5.0410711932782224,
            58.264838916837526
          ],
          [
            -5.0427394820366187,
            58.266273088079409
          ],
          [
            -5.0427394820366187,
            58.266273088079409
          ],
          [
            -5.0454398899918687,
            58.266956824721838
          ],
          [
            -5.0481384165610885,
            58.26713658775526
          ],
          [
            -5.0512889223733684,
            58.26737524517192
          ],
          [
            -5.0520699000000002,
            58.267831233333332
          ],
          [
            -5.0541757499999997,
            58.268696166666665
          ],
          [
            -5.055923683333333,
            58.269959699999994
          ],
          [
            -5.0571763000000001,
            58.271540733333332
          ],
          [
            -5.0586945666666674,
            58.27302816666667
          ],
          [
            -5.0604759166666664,
            58.274479883333335
          ],
          [
            -5.0623672333333332,
            58.275947250000002
          ],
          [
            -5.0644612833333333,
            58.27726156666666
          ],
          [
            -5.0667801666666668,
            58.278404833333326
          ],
          [
            -5.0688198499999997,
            58.279555916666673
          ],
          [
            -5.0704628833333336,
            58.280877466666666
          ],
          [
            -5.0716794333333333,
            58.282308300000004
          ],
          [
            -5.072990466666667,
            58.283706183333337
          ],
          [
            -5.0742460500000002,
            58.284836700000007
          ],
          [
            -5.075773933333334,
            58.286124616666662
          ],
          [
            -5.0769795166666656,
            58.286859366666675
          ],
          [
            -5.0788697833333343,
            58.287782900000003
          ],
          [
            -5.0802268749866295,
            58.288585278717676
          ],
          [
            -5.0802268749866295,
            58.288585278717676
          ],
          [
            -5.0813052000000001,
            58.289363433333328
          ],
          [
            -5.0835932916656512,
            58.290368310866732
          ],
          [
            -5.0869067772043683,
            58.290589240326938
          ],
          [
            -5.0878258728928341,
            58.290706971421905
          ],
          [
            -5.0893126643549351,
            58.290875072045047
          ],
          [
            -5.0916328184690238,
            58.291596173728209
          ],
          [
            -5.0935076210341288,
            58.292689355106624
          ],
          [
            -5.0954889326659947,
            58.293808713050247
          ],
          [
            -5.0977314651664098,
            58.294860468088103
          ],
          [
            -5.0998709999999994,
            58.295749949999994
          ],
          [
            -5.1020665666666671,
            58.296691100000004
          ],
          [
            -5.1041181666666668,
            58.297746116666666
          ],
          [
            -5.1068323500000004,
            58.298096566666665
          ],
          [
            -5.1093763475082392,
            58.297881518525507
          ],
          [
            -5.1121086459432705,
            58.298157405351667
          ],
          [
            -5.1141918308094141,
            58.299047572764614
          ],
          [
            -5.1151491333333334,
            58.300340883333341
          ],
          [
            -5.1156213333333334,
            58.301646766666664
          ],
          [
            -5.1160810166666657,
            58.302971966666675
          ],
          [
            -5.1169718999999994,
            58.304276999999999
          ],
          [
            -5.118455276364914,
            58.305351375473663
          ],
          [
            -5.1204918665557537,
            58.306238825383396
          ],
          [
            -5.1219885333333339,
            58.307340200000006
          ],
          [
            -5.1223954000000003,
            58.308965399999998
          ],
          [
            -5.1231367500000005,
            58.310248683333342
          ],
          [
            -5.1241137166666659,
            58.311549666666664
          ],
          [
            -5.1244224666666671,
            58.313142933333332
          ],
          [
            -5.1240097333333336,
            58.31464403333333
          ],
          [
            -5.1235419499999999,
            58.316135299999999
          ],
          [
            -5.1230558276094111,
            58.317763044645581
          ],
          [
            -5.1231399166666671,
            58.319486549999993
          ],
          [
            -5.1236314655651123,
            58.32001294193747
          ],
          [
            -5.1248341706708747,
            58.320899687585232
          ],
          [
            -5.1267231967658491,
            58.321977497760727
          ],
          [
            -5.1288983768665233,
            58.323019833548301
          ],
          [
            -5.1306547157508593,
            58.32401310904941
          ],
          [
            -5.1327572797152481,
            58.325176292684063
          ],
          [
            -5.1348649042310832,
            58.326182065346586
          ],
          [
            -5.1352196999999995,
            58.327712050000002
          ],
          [
            -5.1341917500000003,
            58.329045216666664
          ],
          [
            -5.133779033333334,
            58.330677183333336
          ],
          [
            -5.1336775833333324,
            58.332411866666675
          ],
          [
            -5.1336165333333339,
            58.333841966666661
          ],
          [
            -5.1343647170871973,
            58.335073457355044
          ],
          [
            -5.1357704521072867,
            58.336446221621941
          ],
          [
            -5.1385001611573697,
            58.337173116475583
          ],
          [
            -5.1414005806208571,
            58.336941922364595
          ],
          [
            -5.1442082147964792,
            58.337616545205059
          ],
          [
            -5.1453250666666666,
            58.339094833333334
          ],
          [
            -5.1466727376463242,
            58.340549564683805
          ],
          [
            -5.1486520539595642,
            58.341538269703094
          ],
          [
            -5.1505941473226189,
            58.342403922872222
          ],
          [
            -5.1533058729275902,
            58.342532969084637
          ],
          [
            -5.1552477556062977,
            58.342170634061375
          ],
          [
            -5.1571130748012015,
            58.34217848752435
          ],
          [
            -5.1586144462880661,
            58.342995840901459
          ],
          [
            -5.1586785347083524,
            58.344204673713165
          ],
          [
            -5.1599310836470629,
            58.34566839399254
          ],
          [
            -5.1607625947138942,
            58.346547018154041
          ],
          [
            -5.1606494627413824,
            58.347541718643484
          ],
          [
            -5.1565839893386318,
            58.351704121134269
          ],
          [
            -5.1570088680159625,
            58.351571528217399
          ]
        ]
      },
      "properties" : {
        "type" : "route",
        "source" : "Geory 5.3.2",
        "start" : "2026-10-04T23:00:00Z",
        "end" : "2026-10-05T22:23:40Z",
        "device" : "B9E47AEB-E54C-4563-96B6-06995DD4BC56 (iPhone 16 Pro)"
      },
      "type" : "Feature"
    }
  ]
}