{
  "type" : "FeatureCollection",
  "features" : [
    {
      "properties" : {
        "departure" : "2026-05-27T06:04:16Z",
        "timestamp" : "2026-05-26T19:40:07Z",
        "arrival" : "2026-05-26T19:40:07Z",
        "weather" : "Überwiegend bewölkt (15,8 °C)",
        "rating" : 0,
        "type" : "visit",
        "duration" : 37449.796612262726,
        "device" : "B9E47AEB-E54C-4563-96B6-06995DD4BC56 (iPhone 16 Pro)",
        "address" : "Fort William, PH33, Schottland",
        "source" : "Geory 5.3.2"
      },
      "type" : "Feature",
      "geometry" : {
        "coordinates" : [
          -5.2361840511000981,
          56.703226288537408
        ],
        "type" : "Point"
      }
    },
    {
      "geometry" : {
        "type" : "Point",
        "coordinates" : [
          -5.2361182640198365,
          56.703301074924866
        ]
      },
      "properties" : {
        "timestamp" : "2026-05-27T06:08:59Z",
        "duration" : 15994.767092943192,
        "type" : "visit",
        "arrival" : "2026-05-27T06:08:59Z",
        "weather" : "Leicht bewölkt (10,8 °C)",
        "rating" : 0,
        "address" : "Fort William, PH33, Schottland",
        "source" : "Geory 5.3.2",
        "departure" : "2026-05-27T10:35:34Z",
        "device" : "B9E47AEB-E54C-4563-96B6-06995DD4BC56 (iPhone 16 Pro)"
      },
      "type" : "Feature"
    },
    {
      "geometry" : {
        "coordinates" : [
          -5.2363116434208701,
          56.703363934423486
        ],
        "type" : "Point"
      },
      "type" : "Feature",
      "properties" : {
        "rating" : 0,
        "arrival" : "2026-05-27T10:37:04Z",
        "duration" : 3791.1334276199341,
        "address" : "Fort William, PH33, Schottland",
        "source" : "Geory 5.3.2",
        "device" : "B9E47AEB-E54C-4563-96B6-06995DD4BC56 (iPhone 16 Pro)",
        "departure" : "2026-05-27T11:40:15Z",
        "type" : "visit",
        "timestamp" : "2026-05-27T10:37:04Z",
        "weather" : "Überwiegend bewölkt (20,3 °C)"
      }
    },
    {
      "properties" : {
        "duration" : 1066.9988265037537,
        "device" : "B9E47AEB-E54C-4563-96B6-06995DD4BC56 (iPhone 16 Pro)",
        "rating" : 0,
        "departure" : "2026-05-27T12:25:48Z",
        "timestamp" : "2026-05-27T12:08:02Z",
        "address" : "Stores Flat, Loanfern, Ballachulish, PH49 4JB, Schottland",
        "type" : "visit",
        "weather" : "Überwiegend bewölkt (21,8 °C)",
        "source" : "Geory 5.3.2",
        "arrival" : "2026-05-27T12:08:02Z"
      },
      "type" : "Feature",
      "geometry" : {
        "coordinates" : [
          -5.1310679672091757,
          56.677343772799276
        ],
        "type" : "Point"
      }
    },
    {
      "geometry" : {
        "type" : "Point",
        "coordinates" : [
          -5.2364055155826108,
          56.703531948176831
        ]
      },
      "type" : "Feature",
      "properties" : {
        "source" : "Geory 5.3.2",
        "weather" : "Bedeckter Himmel (22,5 °C)",
        "device" : "B9E47AEB-E54C-4563-96B6-06995DD4BC56 (iPhone 16 Pro)",
        "duration" : 13726.688108921051,
        "address" : "Tigh na Mara, Onich, Fort William, PH33 6SD, Schottland",
        "type" : "visit",
        "arrival" : "2026-05-27T12:48:59Z",
        "departure" : "2026-05-27T16:37:45Z",
        "timestamp" : "2026-05-27T12:48:59Z",
        "rating" : 0
      }
    },
    {
      "properties" : {
        "weather" : "Bedeckter Himmel (21,0 °C)",
        "rating" : 0,
        "departure" : "2026-05-27T18:14:01Z",
        "source" : "Geory 5.3.2",
        "address" : "Stores Flat, Loanfern, Ballachulish, PH49 4JB, Schottland",
        "timestamp" : "2026-05-27T17:02:17Z",
        "arrival" : "2026-05-27T17:02:17Z",
        "duration" : 4303.6989891529083,
        "type" : "visit",
        "device" : "B9E47AEB-E54C-4563-96B6-06995DD4BC56 (iPhone 16 Pro)"
      },
      "geometry" : {
        "coordinates" : [
          -5.1311880058713149,
          56.677450339765365
        ],
        "type" : "Point"
      },
      "type" : "Feature"
    },
    {
      "properties" : {
        "weather" : "Bedeckter Himmel (22,0 °C)",
        "device" : "B9E47AEB-E54C-4563-96B6-06995DD4BC56 (iPhone 16 Pro)",
        "duration" : 46417.050668239594,
        "departure" : "2026-05-28T07:31:50Z",
        "arrival" : "2026-05-27T18:38:13Z",
        "timestamp" : "2026-05-27T18:38:13Z",
        "address" : "Fort William, PH33, Schottland",
        "type" : "visit",
        "rating" : 0,
        "source" : "Geory 5.3.2"
      },
      "type" : "Feature",
      "geometry" : {
        "coordinates" : [
          -5.2361650050220714,
          56.703177915728766
        ],
        "type" : "Point"
      }
    },
    {
      "properties" : {
        "source" : "Geory 5.3.2",
        "start" : "2026-05-26T22:00:00Z",
        "device" : "B9E47AEB-E54C-4563-96B6-06995DD4BC56 (iPhone 16 Pro)",
        "end" : "2026-05-27T21:59:59Z",
        "type" : "route"
      },
      "type" : "Feature",
      "geometry" : {
        "type" : "LineString",
        "coordinates" : [
          [
            -5.2361650050220714,
            56.703177915728766
          ],
          [
            -5.2348342036590338,
            56.705272871396431
          ],
          [
            -5.2328549748724038,
            56.70553255502324
          ],
          [
            -5.2318448670314117,
            56.706317239882139
          ],
          [
            -5.2307857773458863,
            56.705121522187923
          ],
          [
            -5.2291677870374773,
            56.7034746566504
          ],
          [
            -5.2291677870374773,
            56.7034746566504
          ],
          [
            -5.2242192738718485,
            56.702926674913044
          ],
          [
            -5.2218209966042881,
            56.703113588799461
          ],
          [
            -5.2194745119825861,
            56.702908603852762
          ],
          [
            -5.2168812148754276,
            56.702767034103296
          ],
          [
            -5.2147585465362285,
            56.702596665213129
          ],
          [
            -5.2097868691849101,
            56.702273578513712
          ],
          [
            -5.2052130816683144,
            56.702359573393061
          ],
          [
            -5.2023266482110824,
            56.701813151699412
          ],
          [
            -5.2003329772969948,
            56.701184680283816
          ],
          [
            -5.1982471137664898,
            56.700931586479946
          ],
          [
            -5.1982471137664898,
            56.700931586479946
          ],
          [
            -5.1959993561994535,
            56.700400301224995
          ],
          [
            -5.1925657948424977,
            56.700585103884919
          ],
          [
            -5.1862808497086181,
            56.700359258692394
          ],
          [
            -5.1836818384510313,
            56.700053036401549
          ],
          [
            -5.1824078038512633,
            56.699063388950108
          ],
          [
            -5.1817353767908569,
            56.698044766618658
          ],
          [
            -5.1815618053369796,
            56.696224890742819
          ],
          [
            -5.1819135975244315,
            56.694512992474529
          ],
          [
            -5.1820576126459041,
            56.69345258698101
          ],
          [
            -5.1810640152403309,
            56.692503571171137
          ],
          [
            -5.1810640152403309,
            56.692503571171137
          ],
          [
            -5.1814863849749022,
            56.690458468576573
          ],
          [
            -5.1823077857360662,
            56.689375906872158
          ],
          [
            -5.1809095007256243,
            56.688778786248946
          ],
          [
            -5.1822721813296422,
            56.687714751363629
          ],
          [
            -5.1809729673159293,
            56.686248369768464
          ],
          [
            -5.1794350582293438,
            56.685814802204327
          ],
          [
            -5.1740036106657303,
            56.68433977323955
          ],
          [
            -5.1658876170216974,
            56.68182252091227
          ],
          [
            -5.1578191572738792,
            56.679335251595106
          ],
          [
            -5.1491600212614275,
            56.67688275992375
          ],
          [
            -5.1457422613692607,
            56.676885487272024
          ],
          [
            -5.1441043637978145,
            56.676995200923585
          ],
          [
            -5.1424064024643963,
            56.677045324925558
          ],
          [
            -5.1404897913337955,
            56.676922562712754
          ],
          [
            -5.1393283009017221,
            56.6768644545391
          ],
          [
            -5.1380953041855637,
            56.676905717040441
          ],
          [
            -5.1311880058713149,
            56.677450339765365
          ],
          [
            -5.1399764447090908,
            56.676505485761901
          ],
          [
            -5.1419892956072619,
            56.676971304911994
          ],
          [
            -5.1437062560137745,
            56.676793648663185
          ],
          [
            -5.1454233691654476,
            56.676702859597697
          ],
          [
            -5.1463779995531285,
            56.676786482212094
          ],
          [
            -5.1474223388793607,
            56.676814340726594
          ],
          [
            -5.1561489037415642,
            56.678733720789133
          ],
          [
            -5.1652075694133162,
            56.681629970662613
          ],
          [
            -5.1817438286717161,
            56.689959554864814
          ],
          [
            -5.1821600418289284,
            56.693256573433722
          ],
          [
            -5.1818722266800252,
            56.694395309495235
          ],
          [
            -5.1820914790359316,
            56.695699077432344
          ],
          [
            -5.181594847284769,
            56.697009833680248
          ],
          [
            -5.1821353823518592,
            56.698622099681529
          ],
          [
            -5.1832488778597314,
            56.699690622647303
          ],
          [
            -5.1846041904769118,
            56.70032343689757
          ],
          [
            -5.1863691355747887,
            56.700367030666321
          ],
          [
            -5.1955861868559161,
            56.700294639065682
          ],
          [
            -5.1997578033315905,
            56.701244551771623
          ],
          [
            -5.2039389951195005,
            56.701962405780101
          ],
          [
            -5.2097395257363619,
            56.702260001236269
          ],
          [
            -5.2117226406188699,
            56.702346463847469
          ],
          [
            -5.2164636123640618,
            56.702667317510453
          ],
          [
            -5.2181609409390521,
            56.702765497378358
          ],
          [
            -5.2223463339524443,
            56.703120100247446
          ],
          [
            -5.2248588408969674,
            56.702902329688513
          ],
          [
            -5.2313791814019384,
            56.705224971167389
          ],
          [
            -5.2364055155826108,
            56.703531948176831
          ],
          [
            -5.2316877750984361,
            56.706080419760525
          ],
          [
            -5.2309911053893057,
            56.705253004666218
          ],
          [
            -5.2301003394680592,
            56.704357982293644
          ],
          [
            -5.2293957058529186,
            56.703656481888572
          ],
          [
            -5.227981716635635,
            56.703171780903524
          ],
          [
            -5.2263887001167308,
            56.702946486045015
          ],
          [
            -5.2247578750085646,
            56.702903439159265
          ],
          [
            -5.2231001863660715,
            56.703090701716498
          ],
          [
            -5.2213816269480455,
            56.703142068057382
          ],
          [
            -5.2197990979433513,
            56.702892261826292
          ],
          [
            -5.2181304208516694,
            56.702803244891037
          ],
          [
            -5.2164415893475535,
            56.702745590525993
          ],
          [
            -5.2147241357379661,
            56.702599860768153
          ],
          [
            -5.2131064355732368,
            56.702463925676618
          ],
          [
            -5.2114790887725349,
            56.702310930084671
          ],
          [
            -5.2097962817633965,
            56.702335174240034
          ],
          [
            -5.2080846501368461,
            56.702294056487062
          ],
          [
            -5.2064940968255202,
            56.702560169027905
          ],
          [
            -5.2048720385266742,
            56.702365618522094
          ],
          [
            -5.2034452131218041,
            56.701890602055471
          ],
          [
            -5.2019233110988328,
            56.701546588116052
          ],
          [
            -5.200298300544846,
            56.701205684120168
          ],
          [
            -5.1987569931259401,
            56.700884654876653
          ],
          [
            -5.1972022468042933,
            56.700524292069034
          ],
          [
            -5.1955832193796789,
            56.700351495659341
          ],
          [
            -5.1939205772906298,
            56.700375064667369
          ],
          [
            -5.192216767733191,
            56.700386641508288
          ],
          [
            -5.1904868377500604,
            56.700586044562101
          ],
          [
            -5.1888085382341584,
            56.700600184612561
          ],
          [
            -5.1870784883934746,
            56.700517859643767
          ],
          [
            -5.1854414107703812,
            56.700464568939047
          ],
          [
            -5.1838479912382374,
            56.700268429166435
          ],
          [
            -5.1828645121579129,
            56.699503458451034
          ],
          [
            -5.1822104838506888,
            56.698678092520566
          ],
          [
            -5.1817312913432847,
            56.697765302788973
          ],
          [
            -5.1815400620365084,
            56.696821001996199
          ],
          [
            -5.1816512660114711,
            56.695867944592493
          ],
          [
            -5.1818537309310484,
            56.694582988328747
          ],
          [
            -5.18211814966772,
            56.694030654581141
          ],
          [
            -5.1822932486287927,
            56.693128247182642
          ],
          [
            -5.1823438556795951,
            56.692198749025998
          ],
          [
            -5.1823430744324073,
            56.691250247946016
          ],
          [
            -5.1823437125065608,
            56.690334336633931
          ],
          [
            -5.1823278040889411,
            56.689427880173689
          ],
          [
            -5.1823180220358989,
            56.688528367238689
          ],
          [
            -5.1823033359588253,
            56.687609606740644
          ],
          [
            -5.1817998220174477,
            56.686700074836978
          ],
          [
            -5.1807681947351032,
            56.685973716619586
          ],
          [
            -5.1792614704843984,
            56.685512543303581
          ],
          [
            -5.1777067276072364,
            56.685130629814267
          ],
          [
            -5.1760986181827677,
            56.684853517051629
          ],
          [
            -5.1745133506096819,
            56.684539067395576
          ],
          [
            -5.1729142560274228,
            56.684278325280047
          ],
          [
            -5.1714674043317981,
            56.683858896813227
          ],
          [
            -5.1699855253812581,
            56.683466191540518
          ],
          [
            -5.168573256750431,
            56.683014273834075
          ],
          [
            -5.1671440989679267,
            56.682475621411733
          ],
          [
            -5.1657193566836668,
            56.681974577176881
          ],
          [
            -5.1641656019718782,
            56.681558646955892
          ],
          [
            -5.16259835929724,
            56.681160027598018
          ],
          [
            -5.1611113344015722,
            56.680717333664333
          ],
          [
            -5.15976785070246,
            56.680173024676861
          ],
          [
            -5.1584331556879652,
            56.679564078716382
          ],
          [
            -5.1571333263924224,
            56.678991885655869
          ],
          [
            -5.1558634502818128,
            56.678422066916312
          ],
          [
            -5.1544410242646528,
            56.677899480707346
          ],
          [
            -5.1529084065458699,
            56.677515404101172
          ],
          [
            -5.1513058764619606,
            56.677242208851418
          ],
          [
            -5.1496717489314703,
            56.677004010447021
          ],
          [
            -5.1480143574407053,
            56.676855411923974
          ],
          [
            -5.1462919199227715,
            56.676839585538175
          ],
          [
            -5.1446509677678165,
            56.676901135054983
          ],
          [
            -5.1430135509690755,
            56.677013672998996
          ],
          [
            -5.1410090932960637,
            56.677213764149364
          ],
          [
            -5.1310679672091757,
            56.677343772799276
          ],
          [
            -5.1375472802671114,
            56.676995760707229
          ],
          [
            -5.1391807953997768,
            56.676880518537736
          ],
          [
            -5.1407872026463428,
            56.677199336519458
          ],
          [
            -5.14249003757606,
            56.677068710367372
          ],
          [
            -5.1441595204689543,
            56.67694167701675
          ],
          [
            -5.1458583038803409,
            56.676870142844706
          ],
          [
            -5.1475724889581178,
            56.676865864971774
          ],
          [
            -5.1492102197191585,
            56.6769724272216
          ],
          [
            -5.1508955649208668,
            56.677202686086297
          ],
          [
            -5.1524784789835829,
            56.677453456979599
          ],
          [
            -5.154002164522673,
            56.67778476241822
          ],
          [
            -5.1554479871789169,
            56.678267482104694
          ],
          [
            -5.1567303323424811,
            56.678826305274015
          ],
          [
            -5.1580394983992566,
            56.679407197590521
          ],
          [
            -5.1593778373667707,
            56.680020513486191
          ],
          [
            -5.1607048067189716,
            56.680584300530853
          ],
          [
            -5.1624479691461387,
            56.681141461994081
          ],
          [
            -5.1637409753795485,
            56.681468482751143
          ],
          [
            -5.1652348911199688,
            56.681864881257901
          ],
          [
            -5.1666536691639529,
            56.682317049045125
          ],
          [
            -5.168023610822436,
            56.682837513445541
          ],
          [
            -5.1694992484759732,
            56.683337503859867
          ],
          [
            -5.1709523969849682,
            56.68374867485727
          ],
          [
            -5.1724884846523933,
            56.684177556589134
          ],
          [
            -5.1741450439573233,
            56.684413474452533
          ],
          [
            -5.1756281634533208,
            56.684790390085965
          ],
          [
            -5.1772574719383844,
            56.685066969254486
          ],
          [
            -5.1788280145553447,
            56.685442890813952
          ],
          [
            -5.180377590755012,
            56.68581456380079
          ],
          [
            -5.1815767449310899,
            56.686500863384445
          ],
          [
            -5.182245271041646,
            56.687362493112047
          ],
          [
            -5.1823620201438692,
            56.688274373242635
          ],
          [
            -5.1824542763254708,
            56.689204774058439
          ],
          [
            -5.1823453892782361,
            56.69082323270144
          ],
          [
            -5.1823499378340312,
            56.691758594671811
          ],
          [
            -5.1823257966436564,
            56.692661552600939
          ],
          [
            -5.1821459354241952,
            56.693890302640796
          ],
          [
            -5.1819095057968036,
            56.694457047712852
          ],
          [
            -5.1817640537489709,
            56.695351957183483
          ],
          [
            -5.1815618639299634,
            56.696273310284916
          ],
          [
            -5.1815842681502673,
            56.697197988516109
          ],
          [
            -5.1818519960549825,
            56.698089903083229
          ],
          [
            -5.1824110452177283,
            56.698973603328334
          ],
          [
            -5.1831204154814126,
            56.69983505416873
          ],
          [
            -5.1844240170061449,
            56.700405586176615
          ],
          [
            -5.1860586996699887,
            56.70049573561375
          ],
          [
            -5.1877134160824019,
            56.700544733730929
          ],
          [
            -5.1893700146005326,
            56.700662587193236
          ],
          [
            -5.1910158789300871,
            56.700522160429642
          ],
          [
            -5.1927121182119675,
            56.700409289827462
          ],
          [
            -5.1944050839370979,
            56.700384714496124
          ],
          [
            -5.1961383115074957,
            56.700373411974233
          ],
          [
            -5.1977814160685218,
            56.700683952685083
          ],
          [
            -5.1993295229620156,
            56.701021858382646
          ],
          [
            -5.2009272914485374,
            56.701350998271948
          ],
          [
            -5.2025120123007067,
            56.701694628587759
          ],
          [
            -5.2040495686868926,
            56.702079417811575
          ],
          [
            -5.205533836602811,
            56.7025373331563
          ],
          [
            -5.2071703760087917,
            56.702462296639439
          ],
          [
            -5.2088570147622537,
            56.702292900945196
          ],
          [
            -5.2105071799452887,
            56.702371062542447
          ],
          [
            -5.2121433032289772,
            56.702376127457455
          ],
          [
            -5.2138599950414646,
            56.702542370864499
          ],
          [
            -5.215490224688903,
            56.702672695881176
          ],
          [
            -5.2171746207835792,
            56.702807702029119
          ],
          [
            -5.2188299496429886,
            56.702810515219767
          ],
          [
            -5.2204328879631445,
            56.703038340162941
          ],
          [
            -5.2221144367022632,
            56.703179929455388
          ],
          [
            -5.2237283468071238,
            56.703026433657982
          ],
          [
            -5.22534368343885,
            56.702857365999733
          ],
          [
            -5.2270097651396288,
            56.703040829347792
          ],
          [
            -5.2286209816874187,
            56.703288577202493
          ],
          [
            -5.2297293691789539,
            56.703992526062486
          ],
          [
            -5.2305154291583102,
            56.704787230260763
          ],
          [
            -5.2313197467499748,
            56.705592511607755
          ],
          [
            -5.2329896118215844,
            56.705650988479803
          ],
          [
            -5.2345780281289249,
            56.704792098885832
          ],
          [
            -5.2363116434208701,
            56.703363934423486
          ],
          [
            -5.2361182640198365,
            56.703301074924866
          ],
          [
            -5.2341868343270788,
            56.704453871173101
          ],
          [
            -5.2361840511000981,
            56.703226288537408
          ]
        ]
      }
    }
  ]
}